{
  "user_id" : 682,
  "zipcode" : 11056,
  "latitude" : 40.740807,
  "longitude" : -73.822525,
  "city" : "New York",
  "state" : "NY",
  "area" : "Staten Island"
}
{
  "user_id" : 264,
  "zipcode" : 10803,
  "latitude" : 39.36482,
  "longitude" : -73.07281,
  "city" : "New York",
  "state" : "NY",
  "area" : "Brooklyn"
}
{
  "user_id" : 210,
  "zipcode" : 10690,
  "latitude" : 40.427364,
  "longitude" : -73.62511,
  "city" : "New York",
  "state" : "NY",
  "area" : "Manhattan"
}
{
  "user_id" : 398,
  "zipcode" : 10776,
  "latitude" : 39.67914,
  "longitude" : -74.91022,
  "city" : "New York",
  "state" : "NY",
  "area" : "Queens"
}
{
  "user_id" : 636,
  "zipcode" : 10466,
  "latitude" : 39.373463,
  "longitude" : -74.766014,
  "city" : "New York",
  "state" : "NY",
  "area" : "Queens"
}
{
  "user_id" : 611,
  "zipcode" : 10483,
  "latitude" : 40.058174,
  "longitude" : -73.69758,
  "city" : "New York",
  "state" : "NY",
  "area" : "Staten Island"
}
{
  "user_id" : 839,
  "zipcode" : 10178,
  "latitude" : 39.44272,
  "longitude" : -73.814514,
  "city" : "New York",
  "state" : "NY",
  "area" : "The Bronx"
}
{
  "user_id" : 339,
  "zipcode" : 10289,
  "latitude" : 39.888042,
  "longitude" : -73.58945,
  "city" : "New York",
  "state" : "NY",
  "area" : "The Bronx"
}
{
  "user_id" : 843,
  "zipcode" : 10330,
  "latitude" : 39.18008,
  "longitude" : -74.3129,
  "city" : "New York",
  "state" : "NY",
  "area" : "Staten Island"
}
{
  "user_id" : 633,
  "zipcode" : 10906,
  "latitude" : 39.62319,
  "longitude" : -73.39196,
  "city" : "New York",
  "state" : "NY",
  "area" : "Brooklyn"
}
{
  "user_id" : 219,
  "zipcode" : 11027,
  "latitude" : 39.064796,
  "longitude" : -74.256195,
  "city" : "New York",
  "state" : "NY",
  "area" : "The Bronx"
}
{
  "user_id" : 790,
  "zipcode" : 10632,
  "latitude" : 39.477642,
  "longitude" : -74.95982,
  "city" : "New York",
  "state" : "NY",
  "area" : "Staten Island"
}
{
  "user_id" : 107,
  "zipcode" : 10313,
  "latitude" : 40.846542,
  "longitude" : -73.23573,
  "city" : "New York",
  "state" : "NY",
  "area" : "Staten Island"
}
{
  "user_id" : 94,
  "zipcode" : 10217,
  "latitude" : 39.596012,
  "longitude" : -73.37621,
  "city" : "New York",
  "state" : "NY",
  "area" : "Queens"
}
{
  "user_id" : 257,
  "zipcode" : 10435,
  "latitude" : 39.031597,
  "longitude" : -73.58691,
  "city" : "New York",
  "state" : "NY",
  "area" : "Brooklyn"
}
{
  "user_id" : 409,
  "zipcode" : 10321,
  "latitude" : 40.20028,
  "longitude" : -74.64648,
  "city" : "New York",
  "state" : "NY",
  "area" : "Staten Island"
}
{
  "user_id" : 641,
  "zipcode" : 10033,
  "latitude" : 39.176533,
  "longitude" : -74.65684,
  "city" : "New York",
  "state" : "NY",
  "area" : "The Bronx"
}
{
  "user_id" : 555,
  "zipcode" : 11102,
  "latitude" : 39.695847,
  "longitude" : -74.39941,
  "city" : "New York",
  "state" : "NY",
  "area" : "Brooklyn"
}
{
  "user_id" : 131,
  "zipcode" : 10477,
  "latitude" : 39.416313,
  "longitude" : -73.6417,
  "city" : "New York",
  "state" : "NY",
  "area" : "Brooklyn"
}
{
  "user_id" : 626,
  "zipcode" : 10756,
  "latitude" : 40.20277,
  "longitude" : -74.73714,
  "city" : "New York",
  "state" : "NY",
  "area" : "Manhattan"
}
{
  "user_id" : 947,
  "zipcode" : 10763,
  "latitude" : 40.34083,
  "longitude" : -74.353516,
  "city" : "New York",
  "state" : "NY",
  "area" : "The Bronx"
}
{
  "user_id" : 193,
  "zipcode" : 10706,
  "latitude" : 40.505287,
  "longitude" : -73.511185,
  "city" : "New York",
  "state" : "NY",
  "area" : "Staten Island"
}
{
  "user_id" : 280,
  "zipcode" : 10272,
  "latitude" : 40.604057,
  "longitude" : -73.352325,
  "city" : "New York",
  "state" : "NY",
  "area" : "Staten Island"
}
{
  "user_id" : 788,
  "zipcode" : 10233,
  "latitude" : 40.388527,
  "longitude" : -73.101494,
  "city" : "New York",
  "state" : "NY",
  "area" : "Manhattan"
}
{
  "user_id" : 246,
  "zipcode" : 10559,
  "latitude" : 39.566452,
  "longitude" : -73.99793,
  "city" : "New York",
  "state" : "NY",
  "area" : "Manhattan"
}
{
  "user_id" : 402,
  "zipcode" : 10626,
  "latitude" : 40.82591,
  "longitude" : -74.31161,
  "city" : "New York",
  "state" : "NY",
  "area" : "Queens"
}
{
  "user_id" : 863,
  "zipcode" : 10275,
  "latitude" : 40.219418,
  "longitude" : -74.574455,
  "city" : "New York",
  "state" : "NY",
  "area" : "Staten Island"
}
{
  "user_id" : 263,
  "zipcode" : 10406,
  "latitude" : 39.250008,
  "longitude" : -74.31495,
  "city" : "New York",
  "state" : "NY",
  "area" : "Brooklyn"
}
{
  "user_id" : 417,
  "zipcode" : 10930,
  "latitude" : 40.160267,
  "longitude" : -73.048134,
  "city" : "New York",
  "state" : "NY",
  "area" : "Manhattan"
}
{
  "user_id" : 396,
  "zipcode" : 10982,
  "latitude" : 39.135563,
  "longitude" : -73.54915,
  "city" : "New York",
  "state" : "NY",
  "area" : "Staten Island"
}
{
  "user_id" : 298,
  "zipcode" : 10434,
  "latitude" : 40.16224,
  "longitude" : -74.70219,
  "city" : "New York",
  "state" : "NY",
  "area" : "The Bronx"
}
{
  "user_id" : 590,
  "zipcode" : 10482,
  "latitude" : 39.85083,
  "longitude" : -73.96213,
  "city" : "New York",
  "state" : "NY",
  "area" : "Manhattan"
}
{
  "user_id" : 770,
  "zipcode" : 10465,
  "latitude" : 40.46839,
  "longitude" : -74.49439,
  "city" : "New York",
  "state" : "NY",
  "area" : "Manhattan"
}
{
  "user_id" : 530,
  "zipcode" : 10697,
  "latitude" : 39.864838,
  "longitude" : -74.565956,
  "city" : "New York",
  "state" : "NY",
  "area" : "Manhattan"
}
{
  "user_id" : 616,
  "zipcode" : 10777,
  "latitude" : 40.588345,
  "longitude" : -73.39409,
  "city" : "New York",
  "state" : "NY",
  "area" : "Queens"
}
{
  "user_id" : 919,
  "zipcode" : 10151,
  "latitude" : 40.62341,
  "longitude" : -74.335335,
  "city" : "New York",
  "state" : "NY",
  "area" : "Brooklyn"
}
{
  "user_id" : 723,
  "zipcode" : 11021,
  "latitude" : 39.701077,
  "longitude" : -74.646164,
  "city" : "New York",
  "state" : "NY",
  "area" : "Manhattan"
}
{
  "user_id" : 500,
  "zipcode" : 10834,
  "latitude" : 40.558315,
  "longitude" : -74.54147,
  "city" : "New York",
  "state" : "NY",
  "area" : "Brooklyn"
}
{
  "user_id" : 130,
  "zipcode" : 10607,
  "latitude" : 39.68939,
  "longitude" : -74.170074,
  "city" : "New York",
  "state" : "NY",
  "area" : "Manhattan"
}
{
  "user_id" : 432,
  "zipcode" : 10238,
  "latitude" : 40.747086,
  "longitude" : -74.03803,
  "city" : "New York",
  "state" : "NY",
  "area" : "Queens"
}
{
  "user_id" : 231,
  "zipcode" : 10266,
  "latitude" : 39.69312,
  "longitude" : -74.969124,
  "city" : "New York",
  "state" : "NY",
  "area" : "Brooklyn"
}
{
  "user_id" : 306,
  "zipcode" : 10264,
  "latitude" : 40.35472,
  "longitude" : -73.80387,
  "city" : "New York",
  "state" : "NY",
  "area" : "Brooklyn"
}
{
  "user_id" : 855,
  "zipcode" : 10767,
  "latitude" : 40.498966,
  "longitude" : -73.127045,
  "city" : "New York",
  "state" : "NY",
  "area" : "The Bronx"
}
{
  "user_id" : 760,
  "zipcode" : 10281,
  "latitude" : 40.81257,
  "longitude" : -73.34479,
  "city" : "New York",
  "state" : "NY",
  "area" : "Brooklyn"
}
{
  "user_id" : 144,
  "zipcode" : 10188,
  "latitude" : 39.592575,
  "longitude" : -74.8425,
  "city" : "New York",
  "state" : "NY",
  "area" : "Queens"
}
{
  "user_id" : 932,
  "zipcode" : 10407,
  "latitude" : 40.727676,
  "longitude" : -74.678314,
  "city" : "New York",
  "state" : "NY",
  "area" : "Queens"
}
{
  "user_id" : 301,
  "zipcode" : 10901,
  "latitude" : 40.72955,
  "longitude" : -74.2398,
  "city" : "New York",
  "state" : "NY",
  "area" : "Brooklyn"
}
{
  "user_id" : 89,
  "zipcode" : 10494,
  "latitude" : 40.395325,
  "longitude" : -73.6672,
  "city" : "New York",
  "state" : "NY",
  "area" : "Staten Island"
}
{
  "user_id" : 840,
  "zipcode" : 10817,
  "latitude" : 39.427242,
  "longitude" : -74.541306,
  "city" : "New York",
  "state" : "NY",
  "area" : "Staten Island"
}
{
  "user_id" : 347,
  "zipcode" : 11064,
  "latitude" : 39.851143,
  "longitude" : -73.90352,
  "city" : "New York",
  "state" : "NY",
  "area" : "Manhattan"
}
{
  "user_id" : 802,
  "zipcode" : 10298,
  "latitude" : 39.406754,
  "longitude" : -73.43557,
  "city" : "New York",
  "state" : "NY",
  "area" : "The Bronx"
}
{
  "user_id" : 259,
  "zipcode" : 11048,
  "latitude" : 39.094746,
  "longitude" : -74.66063,
  "city" : "New York",
  "state" : "NY",
  "area" : "Manhattan"
}
{
  "user_id" : 171,
  "zipcode" : 10617,
  "latitude" : 39.523,
  "longitude" : -74.13693,
  "city" : "New York",
  "state" : "NY",
  "area" : "Manhattan"
}
{
  "user_id" : 60,
  "zipcode" : 10806,
  "latitude" : 39.222244,
  "longitude" : -74.025085,
  "city" : "New York",
  "state" : "NY",
  "area" : "Staten Island"
}
{
  "user_id" : 957,
  "zipcode" : 10446,
  "latitude" : 40.42508,
  "longitude" : -73.21919,
  "city" : "New York",
  "state" : "NY",
  "area" : "Brooklyn"
}
{
  "user_id" : 84,
  "zipcode" : 10432,
  "latitude" : 40.99443,
  "longitude" : -74.62526,
  "city" : "New York",
  "state" : "NY",
  "area" : "Brooklyn"
}
{
  "user_id" : 565,
  "zipcode" : 10951,
  "latitude" : 39.15439,
  "longitude" : -74.0773,
  "city" : "New York",
  "state" : "NY",
  "area" : "Staten Island"
}
{
  "user_id" : 361,
  "zipcode" : 10466,
  "latitude" : 39.8771,
  "longitude" : -74.28509,
  "city" : "New York",
  "state" : "NY",
  "area" : "Manhattan"
}
{
  "user_id" : 852,
  "zipcode" : 11095,
  "latitude" : 39.245518,
  "longitude" : -74.54148,
  "city" : "New York",
  "state" : "NY",
  "area" : "Queens"
}
{
  "user_id" : 921,
  "zipcode" : 11043,
  "latitude" : 40.71563,
  "longitude" : -73.37608,
  "city" : "New York",
  "state" : "NY",
  "area" : "Queens"
}
{
  "user_id" : 990,
  "zipcode" : 10677,
  "latitude" : 39.691837,
  "longitude" : -73.52322,
  "city" : "New York",
  "state" : "NY",
  "area" : "Queens"
}
{
  "user_id" : 225,
  "zipcode" : 11103,
  "latitude" : 40.416416,
  "longitude" : -74.261505,
  "city" : "New York",
  "state" : "NY",
  "area" : "The Bronx"
}
{
  "user_id" : 317,
  "zipcode" : 10962,
  "latitude" : 39.96375,
  "longitude" : -73.89829,
  "city" : "New York",
  "state" : "NY",
  "area" : "Brooklyn"
}
{
  "user_id" : 268,
  "zipcode" : 10600,
  "latitude" : 39.03009,
  "longitude" : -73.86308,
  "city" : "New York",
  "state" : "NY",
  "area" : "Queens"
}
{
  "user_id" : 310,
  "zipcode" : 11100,
  "latitude" : 40.24863,
  "longitude" : -73.99255,
  "city" : "New York",
  "state" : "NY",
  "area" : "Queens"
}
{
  "user_id" : 850,
  "zipcode" : 10709,
  "latitude" : 39.517548,
  "longitude" : -74.225586,
  "city" : "New York",
  "state" : "NY",
  "area" : "Staten Island"
}
{
  "user_id" : 193,
  "zipcode" : 11098,
  "latitude" : 39.603268,
  "longitude" : -74.468025,
  "city" : "New York",
  "state" : "NY",
  "area" : "The Bronx"
}
{
  "user_id" : 640,
  "zipcode" : 10604,
  "latitude" : 39.03689,
  "longitude" : -74.921936,
  "city" : "New York",
  "state" : "NY",
  "area" : "Staten Island"
}
{
  "user_id" : 500,
  "zipcode" : 10609,
  "latitude" : 40.582188,
  "longitude" : -73.25387,
  "city" : "New York",
  "state" : "NY",
  "area" : "Staten Island"
}
{
  "user_id" : 153,
  "zipcode" : 11036,
  "latitude" : 40.205112,
  "longitude" : -73.205956,
  "city" : "New York",
  "state" : "NY",
  "area" : "Queens"
}
{
  "user_id" : 400,
  "zipcode" : 11004,
  "latitude" : 39.4672,
  "longitude" : -73.18201,
  "city" : "New York",
  "state" : "NY",
  "area" : "Queens"
}
{
  "user_id" : 834,
  "zipcode" : 11004,
  "latitude" : 39.261703,
  "longitude" : -74.747444,
  "city" : "New York",
  "state" : "NY",
  "area" : "Staten Island"
}
{
  "user_id" : 621,
  "zipcode" : 10928,
  "latitude" : 40.20794,
  "longitude" : -73.81666,
  "city" : "New York",
  "state" : "NY",
  "area" : "Staten Island"
}
{
  "user_id" : 197,
  "zipcode" : 10333,
  "latitude" : 40.095745,
  "longitude" : -74.870926,
  "city" : "New York",
  "state" : "NY",
  "area" : "The Bronx"
}
{
  "user_id" : 97,
  "zipcode" : 10472,
  "latitude" : 39.98305,
  "longitude" : -74.80865,
  "city" : "New York",
  "state" : "NY",
  "area" : "Staten Island"
}
{
  "user_id" : 878,
  "zipcode" : 10113,
  "latitude" : 40.686012,
  "longitude" : -73.35075,
  "city" : "New York",
  "state" : "NY",
  "area" : "Staten Island"
}
{
  "user_id" : 446,
  "zipcode" : 10777,
  "latitude" : 40.560844,
  "longitude" : -74.72896,
  "city" : "New York",
  "state" : "NY",
  "area" : "Staten Island"
}
{
  "user_id" : 205,
  "zipcode" : 10855,
  "latitude" : 39.49358,
  "longitude" : -73.32762,
  "city" : "New York",
  "state" : "NY",
  "area" : "Queens"
}
{
  "user_id" : 539,
  "zipcode" : 10784,
  "latitude" : 39.99514,
  "longitude" : -73.846405,
  "city" : "New York",
  "state" : "NY",
  "area" : "Queens"
}
{
  "user_id" : 855,
  "zipcode" : 10293,
  "latitude" : 40.04153,
  "longitude" : -74.446335,
  "city" : "New York",
  "state" : "NY",
  "area" : "Brooklyn"
}
{
  "user_id" : 325,
  "zipcode" : 10437,
  "latitude" : 40.091198,
  "longitude" : -74.00223,
  "city" : "New York",
  "state" : "NY",
  "area" : "Queens"
}
{
  "user_id" : 316,
  "zipcode" : 10613,
  "latitude" : 40.616882,
  "longitude" : -73.02191,
  "city" : "New York",
  "state" : "NY",
  "area" : "Brooklyn"
}
{
  "user_id" : 784,
  "zipcode" : 10438,
  "latitude" : 40.730343,
  "longitude" : -73.78401,
  "city" : "New York",
  "state" : "NY",
  "area" : "Brooklyn"
}
{
  "user_id" : 411,
  "zipcode" : 10046,
  "latitude" : 40.003613,
  "longitude" : -74.19507,
  "city" : "New York",
  "state" : "NY",
  "area" : "Brooklyn"
}
{
  "user_id" : 171,
  "zipcode" : 10526,
  "latitude" : 39.69112,
  "longitude" : -74.96885,
  "city" : "New York",
  "state" : "NY",
  "area" : "Staten Island"
}
{
  "user_id" : 741,
  "zipcode" : 10698,
  "latitude" : 40.56443,
  "longitude" : -74.30648,
  "city" : "New York",
  "state" : "NY",
  "area" : "Staten Island"
}
{
  "user_id" : 548,
  "zipcode" : 11021,
  "latitude" : 40.54472,
  "longitude" : -73.214264,
  "city" : "New York",
  "state" : "NY",
  "area" : "Queens"
}
{
  "user_id" : 154,
  "zipcode" : 10812,
  "latitude" : 39.883442,
  "longitude" : -74.00476,
  "city" : "New York",
  "state" : "NY",
  "area" : "Manhattan"
}
{
  "user_id" : 66,
  "zipcode" : 10363,
  "latitude" : 39.380608,
  "longitude" : -73.71418,
  "city" : "New York",
  "state" : "NY",
  "area" : "The Bronx"
}
{
  "user_id" : 142,
  "zipcode" : 10691,
  "latitude" : 39.72083,
  "longitude" : -73.59703,
  "city" : "New York",
  "state" : "NY",
  "area" : "Staten Island"
}
{
  "user_id" : 491,
  "zipcode" : 10398,
  "latitude" : 40.444912,
  "longitude" : -74.58888,
  "city" : "New York",
  "state" : "NY",
  "area" : "The Bronx"
}
{
  "user_id" : 585,
  "zipcode" : 10088,
  "latitude" : 39.65575,
  "longitude" : -73.37422,
  "city" : "New York",
  "state" : "NY",
  "area" : "Manhattan"
}
{
  "user_id" : 954,
  "zipcode" : 10372,
  "latitude" : 39.08251,
  "longitude" : -73.73072,
  "city" : "New York",
  "state" : "NY",
  "area" : "Staten Island"
}
{
  "user_id" : 458,
  "zipcode" : 10906,
  "latitude" : 40.146908,
  "longitude" : -73.99609,
  "city" : "New York",
  "state" : "NY",
  "area" : "Queens"
}
{
  "user_id" : 742,
  "zipcode" : 10317,
  "latitude" : 39.692177,
  "longitude" : -73.87931,
  "city" : "New York",
  "state" : "NY",
  "area" : "Brooklyn"
}
{
  "user_id" : 243,
  "zipcode" : 10252,
  "latitude" : 39.67697,
  "longitude" : -74.498535,
  "city" : "New York",
  "state" : "NY",
  "area" : "Staten Island"
}
{
  "user_id" : 332,
  "zipcode" : 10960,
  "latitude" : 40.211784,
  "longitude" : -73.779175,
  "city" : "New York",
  "state" : "NY",
  "area" : "The Bronx"
}
{
  "user_id" : 687,
  "zipcode" : 10354,
  "latitude" : 39.755318,
  "longitude" : -74.938324,
  "city" : "New York",
  "state" : "NY",
  "area" : "Brooklyn"
}
{
  "user_id" : 371,
  "zipcode" : 10412,
  "latitude" : 39.493916,
  "longitude" : -73.95836,
  "city" : "New York",
  "state" : "NY",
  "area" : "Queens"
}
{
  "user_id" : 898,
  "zipcode" : 10431,
  "latitude" : 39.163467,
  "longitude" : -74.18482,
  "city" : "New York",
  "state" : "NY",
  "area" : "Staten Island"
}
{
  "user_id" : 862,
  "zipcode" : 10291,
  "latitude" : 40.103607,
  "longitude" : -73.11574,
  "city" : "New York",
  "state" : "NY",
  "area" : "Queens"
}
{
  "user_id" : 165,
  "zipcode" : 10543,
  "latitude" : 39.538784,
  "longitude" : -73.87643,
  "city" : "New York",
  "state" : "NY",
  "area" : "Manhattan"
}
{
  "user_id" : 982,
  "zipcode" : 11100,
  "latitude" : 39.853764,
  "longitude" : -74.63043,
  "city" : "New York",
  "state" : "NY",
  "area" : "Staten Island"
}
{
  "user_id" : 151,
  "zipcode" : 10879,
  "latitude" : 40.73361,
  "longitude" : -74.4332,
  "city" : "New York",
  "state" : "NY",
  "area" : "The Bronx"
}
{
  "user_id" : 155,
  "zipcode" : 10708,
  "latitude" : 39.69733,
  "longitude" : -73.60607,
  "city" : "New York",
  "state" : "NY",
  "area" : "Staten Island"
}
{
  "user_id" : 316,
  "zipcode" : 10432,
  "latitude" : 40.26221,
  "longitude" : -74.82802,
  "city" : "New York",
  "state" : "NY",
  "area" : "Brooklyn"
}
{
  "user_id" : 183,
  "zipcode" : 10585,
  "latitude" : 40.604366,
  "longitude" : -74.497955,
  "city" : "New York",
  "state" : "NY",
  "area" : "Staten Island"
}
{
  "user_id" : 230,
  "zipcode" : 10798,
  "latitude" : 40.299145,
  "longitude" : -74.90808,
  "city" : "New York",
  "state" : "NY",
  "area" : "Brooklyn"
}
{
  "user_id" : 591,
  "zipcode" : 10914,
  "latitude" : 40.848785,
  "longitude" : -74.48835,
  "city" : "New York",
  "state" : "NY",
  "area" : "Manhattan"
}
{
  "user_id" : 916,
  "zipcode" : 10673,
  "latitude" : 39.469215,
  "longitude" : -74.25406,
  "city" : "New York",
  "state" : "NY",
  "area" : "Queens"
}
{
  "user_id" : 736,
  "zipcode" : 10111,
  "latitude" : 39.035774,
  "longitude" : -73.43566,
  "city" : "New York",
  "state" : "NY",
  "area" : "Queens"
}
{
  "user_id" : 134,
  "zipcode" : 10015,
  "latitude" : 39.9556,
  "longitude" : -74.27164,
  "city" : "New York",
  "state" : "NY",
  "area" : "Brooklyn"
}
{
  "user_id" : 351,
  "zipcode" : 10347,
  "latitude" : 40.91515,
  "longitude" : -74.706375,
  "city" : "New York",
  "state" : "NY",
  "area" : "The Bronx"
}
{
  "user_id" : 147,
  "zipcode" : 11096,
  "latitude" : 39.663868,
  "longitude" : -73.22229,
  "city" : "New York",
  "state" : "NY",
  "area" : "Staten Island"
}
{
  "user_id" : 242,
  "zipcode" : 10497,
  "latitude" : 40.436806,
  "longitude" : -74.625015,
  "city" : "New York",
  "state" : "NY",
  "area" : "Queens"
}
{
  "user_id" : 240,
  "zipcode" : 10532,
  "latitude" : 39.808853,
  "longitude" : -74.0026,
  "city" : "New York",
  "state" : "NY",
  "area" : "The Bronx"
}
{
  "user_id" : 796,
  "zipcode" : 10684,
  "latitude" : 40.376415,
  "longitude" : -73.69124,
  "city" : "New York",
  "state" : "NY",
  "area" : "Brooklyn"
}
{
  "user_id" : 778,
  "zipcode" : 10822,
  "latitude" : 39.54117,
  "longitude" : -73.07442,
  "city" : "New York",
  "state" : "NY",
  "area" : "Queens"
}
{
  "user_id" : 744,
  "zipcode" : 10203,
  "latitude" : 40.398308,
  "longitude" : -74.74268,
  "city" : "New York",
  "state" : "NY",
  "area" : "Brooklyn"
}
{
  "user_id" : 699,
  "zipcode" : 10895,
  "latitude" : 39.83367,
  "longitude" : -73.62852,
  "city" : "New York",
  "state" : "NY",
  "area" : "Manhattan"
}
{
  "user_id" : 828,
  "zipcode" : 10889,
  "latitude" : 40.041073,
  "longitude" : -73.44974,
  "city" : "New York",
  "state" : "NY",
  "area" : "Brooklyn"
}
{
  "user_id" : 218,
  "zipcode" : 10588,
  "latitude" : 39.243134,
  "longitude" : -74.28445,
  "city" : "New York",
  "state" : "NY",
  "area" : "Manhattan"
}
{
  "user_id" : 4,
  "zipcode" : 10708,
  "latitude" : 40.528496,
  "longitude" : -73.958855,
  "city" : "New York",
  "state" : "NY",
  "area" : "Staten Island"
}
{
  "user_id" : 265,
  "zipcode" : 10860,
  "latitude" : 39.74237,
  "longitude" : -74.22445,
  "city" : "New York",
  "state" : "NY",
  "area" : "Brooklyn"
}
{
  "user_id" : 4,
  "zipcode" : 10019,
  "latitude" : 40.425648,
  "longitude" : -74.8892,
  "city" : "New York",
  "state" : "NY",
  "area" : "Staten Island"
}
{
  "user_id" : 802,
  "zipcode" : 11007,
  "latitude" : 39.055077,
  "longitude" : -74.25573,
  "city" : "New York",
  "state" : "NY",
  "area" : "The Bronx"
}
{
  "user_id" : 232,
  "zipcode" : 10986,
  "latitude" : 39.97521,
  "longitude" : -74.43624,
  "city" : "New York",
  "state" : "NY",
  "area" : "Queens"
}
{
  "user_id" : 881,
  "zipcode" : 10058,
  "latitude" : 40.708504,
  "longitude" : -73.26123,
  "city" : "New York",
  "state" : "NY",
  "area" : "Brooklyn"
}
{
  "user_id" : 251,
  "zipcode" : 10844,
  "latitude" : 39.076077,
  "longitude" : -73.88266,
  "city" : "New York",
  "state" : "NY",
  "area" : "Brooklyn"
}
{
  "user_id" : 151,
  "zipcode" : 10954,
  "latitude" : 40.629673,
  "longitude" : -73.31383,
  "city" : "New York",
  "state" : "NY",
  "area" : "Brooklyn"
}
{
  "user_id" : 762,
  "zipcode" : 10171,
  "latitude" : 40.043175,
  "longitude" : -73.6752,
  "city" : "New York",
  "state" : "NY",
  "area" : "The Bronx"
}
{
  "user_id" : 554,
  "zipcode" : 10341,
  "latitude" : 39.807106,
  "longitude" : -73.32674,
  "city" : "New York",
  "state" : "NY",
  "area" : "Brooklyn"
}
{
  "user_id" : 295,
  "zipcode" : 10451,
  "latitude" : 39.570816,
  "longitude" : -73.9121,
  "city" : "New York",
  "state" : "NY",
  "area" : "The Bronx"
}
{
  "user_id" : 957,
  "zipcode" : 10616,
  "latitude" : 39.790634,
  "longitude" : -74.93654,
  "city" : "New York",
  "state" : "NY",
  "area" : "The Bronx"
}
{
  "user_id" : 768,
  "zipcode" : 11060,
  "latitude" : 39.47258,
  "longitude" : -73.56449,
  "city" : "New York",
  "state" : "NY",
  "area" : "Queens"
}
{
  "user_id" : 385,
  "zipcode" : 10295,
  "latitude" : 39.77188,
  "longitude" : -73.51668,
  "city" : "New York",
  "state" : "NY",
  "area" : "Staten Island"
}
{
  "user_id" : 45,
  "zipcode" : 10534,
  "latitude" : 40.651535,
  "longitude" : -73.81976,
  "city" : "New York",
  "state" : "NY",
  "area" : "Brooklyn"
}
{
  "user_id" : 545,
  "zipcode" : 10141,
  "latitude" : 40.937008,
  "longitude" : -73.61761,
  "city" : "New York",
  "state" : "NY",
  "area" : "Brooklyn"
}
{
  "user_id" : 364,
  "zipcode" : 11100,
  "latitude" : 40.375767,
  "longitude" : -74.70525,
  "city" : "New York",
  "state" : "NY",
  "area" : "Manhattan"
}
{
  "user_id" : 814,
  "zipcode" : 10772,
  "latitude" : 40.609566,
  "longitude" : -73.23906,
  "city" : "New York",
  "state" : "NY",
  "area" : "Manhattan"
}
{
  "user_id" : 613,
  "zipcode" : 10899,
  "latitude" : 40.08696,
  "longitude" : -73.692116,
  "city" : "New York",
  "state" : "NY",
  "area" : "The Bronx"
}
{
  "user_id" : 863,
  "zipcode" : 10949,
  "latitude" : 39.911587,
  "longitude" : -73.94896,
  "city" : "New York",
  "state" : "NY",
  "area" : "The Bronx"
}
{
  "user_id" : 797,
  "zipcode" : 10691,
  "latitude" : 40.21085,
  "longitude" : -74.40527,
  "city" : "New York",
  "state" : "NY",
  "area" : "Queens"
}
{
  "user_id" : 103,
  "zipcode" : 10704,
  "latitude" : 39.636913,
  "longitude" : -73.35959,
  "city" : "New York",
  "state" : "NY",
  "area" : "Brooklyn"
}
{
  "user_id" : 568,
  "zipcode" : 11072,
  "latitude" : 39.491657,
  "longitude" : -73.98499,
  "city" : "New York",
  "state" : "NY",
  "area" : "Manhattan"
}
{
  "user_id" : 286,
  "zipcode" : 10567,
  "latitude" : 40.438686,
  "longitude" : -74.26152,
  "city" : "New York",
  "state" : "NY",
  "area" : "Brooklyn"
}
{
  "user_id" : 543,
  "zipcode" : 10442,
  "latitude" : 40.834305,
  "longitude" : -73.71277,
  "city" : "New York",
  "state" : "NY",
  "area" : "Manhattan"
}
{
  "user_id" : 843,
  "zipcode" : 10743,
  "latitude" : 39.407673,
  "longitude" : -73.81267,
  "city" : "New York",
  "state" : "NY",
  "area" : "The Bronx"
}
{
  "user_id" : 694,
  "zipcode" : 10592,
  "latitude" : 39.176945,
  "longitude" : -73.30186,
  "city" : "New York",
  "state" : "NY",
  "area" : "Queens"
}
{
  "user_id" : 153,
  "zipcode" : 10718,
  "latitude" : 39.55881,
  "longitude" : -74.18685,
  "city" : "New York",
  "state" : "NY",
  "area" : "The Bronx"
}
{
  "user_id" : 580,
  "zipcode" : 10711,
  "latitude" : 39.98051,
  "longitude" : -73.5898,
  "city" : "New York",
  "state" : "NY",
  "area" : "Brooklyn"
}
{
  "user_id" : 482,
  "zipcode" : 10324,
  "latitude" : 40.972736,
  "longitude" : -73.51275,
  "city" : "New York",
  "state" : "NY",
  "area" : "Staten Island"
}
{
  "user_id" : 44,
  "zipcode" : 10967,
  "latitude" : 40.2705,
  "longitude" : -74.73622,
  "city" : "New York",
  "state" : "NY",
  "area" : "Brooklyn"
}
{
  "user_id" : 237,
  "zipcode" : 10982,
  "latitude" : 40.228832,
  "longitude" : -73.961685,
  "city" : "New York",
  "state" : "NY",
  "area" : "Manhattan"
}
{
  "user_id" : 446,
  "zipcode" : 10188,
  "latitude" : 39.357597,
  "longitude" : -73.52271,
  "city" : "New York",
  "state" : "NY",
  "area" : "Staten Island"
}
{
  "user_id" : 490,
  "zipcode" : 11011,
  "latitude" : 39.069595,
  "longitude" : -73.34032,
  "city" : "New York",
  "state" : "NY",
  "area" : "Brooklyn"
}
{
  "user_id" : 342,
  "zipcode" : 10955,
  "latitude" : 39.650013,
  "longitude" : -74.20041,
  "city" : "New York",
  "state" : "NY",
  "area" : "Brooklyn"
}
{
  "user_id" : 223,
  "zipcode" : 10744,
  "latitude" : 40.909763,
  "longitude" : -73.33336,
  "city" : "New York",
  "state" : "NY",
  "area" : "The Bronx"
}
{
  "user_id" : 792,
  "zipcode" : 10301,
  "latitude" : 40.849148,
  "longitude" : -74.83517,
  "city" : "New York",
  "state" : "NY",
  "area" : "The Bronx"
}
{
  "user_id" : 383,
  "zipcode" : 10447,
  "latitude" : 40.677677,
  "longitude" : -73.581024,
  "city" : "New York",
  "state" : "NY",
  "area" : "The Bronx"
}
{
  "user_id" : 703,
  "zipcode" : 10113,
  "latitude" : 39.821606,
  "longitude" : -73.849976,
  "city" : "New York",
  "state" : "NY",
  "area" : "The Bronx"
}
{
  "user_id" : 554,
  "zipcode" : 10558,
  "latitude" : 39.681206,
  "longitude" : -73.143265,
  "city" : "New York",
  "state" : "NY",
  "area" : "Brooklyn"
}
{
  "user_id" : 186,
  "zipcode" : 10021,
  "latitude" : 40.526028,
  "longitude" : -73.10265,
  "city" : "New York",
  "state" : "NY",
  "area" : "Staten Island"
}
{
  "user_id" : 285,
  "zipcode" : 10111,
  "latitude" : 40.319427,
  "longitude" : -74.120186,
  "city" : "New York",
  "state" : "NY",
  "area" : "The Bronx"
}
{
  "user_id" : 2,
  "zipcode" : 10131,
  "latitude" : 40.64374,
  "longitude" : -74.58074,
  "city" : "New York",
  "state" : "NY",
  "area" : "The Bronx"
}
{
  "user_id" : 912,
  "zipcode" : 10386,
  "latitude" : 40.50785,
  "longitude" : -74.64443,
  "city" : "New York",
  "state" : "NY",
  "area" : "The Bronx"
}
{
  "user_id" : 267,
  "zipcode" : 10031,
  "latitude" : 40.78753,
  "longitude" : -74.35867,
  "city" : "New York",
  "state" : "NY",
  "area" : "Queens"
}
{
  "user_id" : 417,
  "zipcode" : 10450,
  "latitude" : 39.35576,
  "longitude" : -74.31059,
  "city" : "New York",
  "state" : "NY",
  "area" : "The Bronx"
}
{
  "user_id" : 490,
  "zipcode" : 10523,
  "latitude" : 40.94156,
  "longitude" : -73.973885,
  "city" : "New York",
  "state" : "NY",
  "area" : "Brooklyn"
}
{
  "user_id" : 971,
  "zipcode" : 11080,
  "latitude" : 39.702793,
  "longitude" : -73.39303,
  "city" : "New York",
  "state" : "NY",
  "area" : "Queens"
}
{
  "user_id" : 800,
  "zipcode" : 11090,
  "latitude" : 40.984226,
  "longitude" : -74.313446,
  "city" : "New York",
  "state" : "NY",
  "area" : "Queens"
}
{
  "user_id" : 872,
  "zipcode" : 10950,
  "latitude" : 39.047424,
  "longitude" : -73.331535,
  "city" : "New York",
  "state" : "NY",
  "area" : "Queens"
}
{
  "user_id" : 350,
  "zipcode" : 10257,
  "latitude" : 40.545567,
  "longitude" : -73.18703,
  "city" : "New York",
  "state" : "NY",
  "area" : "Brooklyn"
}
{
  "user_id" : 374,
  "zipcode" : 11000,
  "latitude" : 39.50317,
  "longitude" : -74.15495,
  "city" : "New York",
  "state" : "NY",
  "area" : "Queens"
}
{
  "user_id" : 460,
  "zipcode" : 10309,
  "latitude" : 39.37506,
  "longitude" : -73.25582,
  "city" : "New York",
  "state" : "NY",
  "area" : "The Bronx"
}
{
  "user_id" : 173,
  "zipcode" : 10991,
  "latitude" : 39.465088,
  "longitude" : -74.35144,
  "city" : "New York",
  "state" : "NY",
  "area" : "Manhattan"
}
{
  "user_id" : 550,
  "zipcode" : 10608,
  "latitude" : 39.374397,
  "longitude" : -73.67284,
  "city" : "New York",
  "state" : "NY",
  "area" : "Queens"
}
{
  "user_id" : 960,
  "zipcode" : 10403,
  "latitude" : 39.771935,
  "longitude" : -73.17146,
  "city" : "New York",
  "state" : "NY",
  "area" : "The Bronx"
}
{
  "user_id" : 812,
  "zipcode" : 10892,
  "latitude" : 39.818108,
  "longitude" : -74.44844,
  "city" : "New York",
  "state" : "NY",
  "area" : "Manhattan"
}
{
  "user_id" : 785,
  "zipcode" : 10951,
  "latitude" : 40.47216,
  "longitude" : -73.42494,
  "city" : "New York",
  "state" : "NY",
  "area" : "Queens"
}
{
  "user_id" : 912,
  "zipcode" : 11067,
  "latitude" : 39.897293,
  "longitude" : -73.63214,
  "city" : "New York",
  "state" : "NY",
  "area" : "Staten Island"
}
{
  "user_id" : 48,
  "zipcode" : 10597,
  "latitude" : 40.09636,
  "longitude" : -74.78169,
  "city" : "New York",
  "state" : "NY",
  "area" : "Queens"
}
{
  "user_id" : 36,
  "zipcode" : 10192,
  "latitude" : 39.8,
  "longitude" : -73.02043,
  "city" : "New York",
  "state" : "NY",
  "area" : "Brooklyn"
}
{
  "user_id" : 431,
  "zipcode" : 10417,
  "latitude" : 40.422585,
  "longitude" : -74.045456,
  "city" : "New York",
  "state" : "NY",
  "area" : "The Bronx"
}
{
  "user_id" : 677,
  "zipcode" : 10798,
  "latitude" : 40.972107,
  "longitude" : -73.500656,
  "city" : "New York",
  "state" : "NY",
  "area" : "The Bronx"
}
{
  "user_id" : 622,
  "zipcode" : 10411,
  "latitude" : 40.557648,
  "longitude" : -74.726204,
  "city" : "New York",
  "state" : "NY",
  "area" : "The Bronx"
}
{
  "user_id" : 685,
  "zipcode" : 10336,
  "latitude" : 40.4152,
  "longitude" : -73.07063,
  "city" : "New York",
  "state" : "NY",
  "area" : "Queens"
}
{
  "user_id" : 187,
  "zipcode" : 10333,
  "latitude" : 40.26429,
  "longitude" : -74.10351,
  "city" : "New York",
  "state" : "NY",
  "area" : "The Bronx"
}
{
  "user_id" : 561,
  "zipcode" : 10286,
  "latitude" : 39.75519,
  "longitude" : -73.095604,
  "city" : "New York",
  "state" : "NY",
  "area" : "Manhattan"
}
{
  "user_id" : 125,
  "zipcode" : 10298,
  "latitude" : 39.940327,
  "longitude" : -73.34181,
  "city" : "New York",
  "state" : "NY",
  "area" : "Manhattan"
}
{
  "user_id" : 580,
  "zipcode" : 10823,
  "latitude" : 39.887367,
  "longitude" : -74.969284,
  "city" : "New York",
  "state" : "NY",
  "area" : "The Bronx"
}
{
  "user_id" : 199,
  "zipcode" : 10115,
  "latitude" : 39.178032,
  "longitude" : -74.85449,
  "city" : "New York",
  "state" : "NY",
  "area" : "Manhattan"
}
{
  "user_id" : 884,
  "zipcode" : 10068,
  "latitude" : 40.497036,
  "longitude" : -74.22244,
  "city" : "New York",
  "state" : "NY",
  "area" : "Brooklyn"
}
{
  "user_id" : 514,
  "zipcode" : 10816,
  "latitude" : 39.536068,
  "longitude" : -73.6624,
  "city" : "New York",
  "state" : "NY",
  "area" : "Manhattan"
}
{
  "user_id" : 864,
  "zipcode" : 10812,
  "latitude" : 40.885902,
  "longitude" : -74.83496,
  "city" : "New York",
  "state" : "NY",
  "area" : "Manhattan"
}
{
  "user_id" : 964,
  "zipcode" : 10350,
  "latitude" : 39.376396,
  "longitude" : -73.78139,
  "city" : "New York",
  "state" : "NY",
  "area" : "The Bronx"
}
{
  "user_id" : 89,
  "zipcode" : 10755,
  "latitude" : 40.730396,
  "longitude" : -73.31898,
  "city" : "New York",
  "state" : "NY",
  "area" : "Queens"
}
{
  "user_id" : 380,
  "zipcode" : 10234,
  "latitude" : 40.5299,
  "longitude" : -73.4886,
  "city" : "New York",
  "state" : "NY",
  "area" : "The Bronx"
}
{
  "user_id" : 877,
  "zipcode" : 10613,
  "latitude" : 39.967678,
  "longitude" : -73.605095,
  "city" : "New York",
  "state" : "NY",
  "area" : "Queens"
}
{
  "user_id" : 382,
  "zipcode" : 10763,
  "latitude" : 40.311497,
  "longitude" : -74.07167,
  "city" : "New York",
  "state" : "NY",
  "area" : "Brooklyn"
}
{
  "user_id" : 229,
  "zipcode" : 11080,
  "latitude" : 39.065346,
  "longitude" : -74.193726,
  "city" : "New York",
  "state" : "NY",
  "area" : "Staten Island"
}
{
  "user_id" : 390,
  "zipcode" : 10383,
  "latitude" : 40.45139,
  "longitude" : -73.57656,
  "city" : "New York",
  "state" : "NY",
  "area" : "Manhattan"
}
{
  "user_id" : 750,
  "zipcode" : 10380,
  "latitude" : 40.234764,
  "longitude" : -74.84825,
  "city" : "New York",
  "state" : "NY",
  "area" : "Manhattan"
}
{
  "user_id" : 932,
  "zipcode" : 10870,
  "latitude" : 40.27061,
  "longitude" : -74.15463,
  "city" : "New York",
  "state" : "NY",
  "area" : "Queens"
}
{
  "user_id" : 966,
  "zipcode" : 10025,
  "latitude" : 39.748753,
  "longitude" : -73.04062,
  "city" : "New York",
  "state" : "NY",
  "area" : "The Bronx"
}
{
  "user_id" : 554,
  "zipcode" : 10434,
  "latitude" : 40.697422,
  "longitude" : -73.98554,
  "city" : "New York",
  "state" : "NY",
  "area" : "The Bronx"
}
{
  "user_id" : 334,
  "zipcode" : 10692,
  "latitude" : 39.042046,
  "longitude" : -73.91077,
  "city" : "New York",
  "state" : "NY",
  "area" : "Brooklyn"
}
{
  "user_id" : 970,
  "zipcode" : 10046,
  "latitude" : 40.561626,
  "longitude" : -74.42642,
  "city" : "New York",
  "state" : "NY",
  "area" : "Brooklyn"
}
{
  "user_id" : 71,
  "zipcode" : 10721,
  "latitude" : 39.826275,
  "longitude" : -74.9707,
  "city" : "New York",
  "state" : "NY",
  "area" : "Queens"
}
{
  "user_id" : 993,
  "zipcode" : 10979,
  "latitude" : 40.712975,
  "longitude" : -73.549385,
  "city" : "New York",
  "state" : "NY",
  "area" : "The Bronx"
}
{
  "user_id" : 889,
  "zipcode" : 10178,
  "latitude" : 39.14459,
  "longitude" : -73.671814,
  "city" : "New York",
  "state" : "NY",
  "area" : "Staten Island"
}
{
  "user_id" : 950,
  "zipcode" : 11076,
  "latitude" : 39.495476,
  "longitude" : -73.20435,
  "city" : "New York",
  "state" : "NY",
  "area" : "Staten Island"
}
{
  "user_id" : 799,
  "zipcode" : 10985,
  "latitude" : 39.446133,
  "longitude" : -73.42357,
  "city" : "New York",
  "state" : "NY",
  "area" : "Brooklyn"
}
{
  "user_id" : 723,
  "zipcode" : 10613,
  "latitude" : 40.232605,
  "longitude" : -73.597565,
  "city" : "New York",
  "state" : "NY",
  "area" : "Brooklyn"
}
{
  "user_id" : 116,
  "zipcode" : 11076,
  "latitude" : 40.904404,
  "longitude" : -73.21417,
  "city" : "New York",
  "state" : "NY",
  "area" : "Queens"
}
{
  "user_id" : 913,
  "zipcode" : 10402,
  "latitude" : 40.858395,
  "longitude" : -73.09768,
  "city" : "New York",
  "state" : "NY",
  "area" : "Manhattan"
}
{
  "user_id" : 19,
  "zipcode" : 10365,
  "latitude" : 39.130177,
  "longitude" : -74.48191,
  "city" : "New York",
  "state" : "NY",
  "area" : "Manhattan"
}
{
  "user_id" : 613,
  "zipcode" : 10908,
  "latitude" : 39.876854,
  "longitude" : -74.11893,
  "city" : "New York",
  "state" : "NY",
  "area" : "Manhattan"
}
{
  "user_id" : 916,
  "zipcode" : 10662,
  "latitude" : 39.472534,
  "longitude" : -73.312294,
  "city" : "New York",
  "state" : "NY",
  "area" : "Queens"
}
{
  "user_id" : 505,
  "zipcode" : 10277,
  "latitude" : 39.135807,
  "longitude" : -73.575714,
  "city" : "New York",
  "state" : "NY",
  "area" : "The Bronx"
}
{
  "user_id" : 954,
  "zipcode" : 10048,
  "latitude" : 39.054806,
  "longitude" : -73.630226,
  "city" : "New York",
  "state" : "NY",
  "area" : "Queens"
}
{
  "user_id" : 266,
  "zipcode" : 10081,
  "latitude" : 39.357967,
  "longitude" : -73.17319,
  "city" : "New York",
  "state" : "NY",
  "area" : "Queens"
}
{
  "user_id" : 307,
  "zipcode" : 10608,
  "latitude" : 40.649128,
  "longitude" : -73.59692,
  "city" : "New York",
  "state" : "NY",
  "area" : "Staten Island"
}
{
  "user_id" : 221,
  "zipcode" : 10869,
  "latitude" : 40.412323,
  "longitude" : -74.49176,
  "city" : "New York",
  "state" : "NY",
  "area" : "Queens"
}
{
  "user_id" : 898,
  "zipcode" : 10067,
  "latitude" : 39.159103,
  "longitude" : -73.53491,
  "city" : "New York",
  "state" : "NY",
  "area" : "Staten Island"
}
{
  "user_id" : 111,
  "zipcode" : 10973,
  "latitude" : 39.229053,
  "longitude" : -73.61944,
  "city" : "New York",
  "state" : "NY",
  "area" : "Brooklyn"
}
{
  "user_id" : 278,
  "zipcode" : 10245,
  "latitude" : 39.356304,
  "longitude" : -73.47374,
  "city" : "New York",
  "state" : "NY",
  "area" : "Brooklyn"
}
{
  "user_id" : 625,
  "zipcode" : 11060,
  "latitude" : 39.54407,
  "longitude" : -74.83642,
  "city" : "New York",
  "state" : "NY",
  "area" : "Staten Island"
}
{
  "user_id" : 323,
  "zipcode" : 10438,
  "latitude" : 39.638306,
  "longitude" : -74.48427,
  "city" : "New York",
  "state" : "NY",
  "area" : "Manhattan"
}
{
  "user_id" : 51,
  "zipcode" : 10927,
  "latitude" : 39.316463,
  "longitude" : -74.22353,
  "city" : "New York",
  "state" : "NY",
  "area" : "Brooklyn"
}
{
  "user_id" : 900,
  "zipcode" : 11075,
  "latitude" : 39.322414,
  "longitude" : -74.84171,
  "city" : "New York",
  "state" : "NY",
  "area" : "Brooklyn"
}
{
  "user_id" : 439,
  "zipcode" : 10092,
  "latitude" : 40.203312,
  "longitude" : -73.920494,
  "city" : "New York",
  "state" : "NY",
  "area" : "Staten Island"
}
{
  "user_id" : 203,
  "zipcode" : 10170,
  "latitude" : 39.776737,
  "longitude" : -74.062515,
  "city" : "New York",
  "state" : "NY",
  "area" : "Manhattan"
}
{
  "user_id" : 493,
  "zipcode" : 10654,
  "latitude" : 39.16972,
  "longitude" : -73.47216,
  "city" : "New York",
  "state" : "NY",
  "area" : "Brooklyn"
}
{
  "user_id" : 540,
  "zipcode" : 10604,
  "latitude" : 39.189663,
  "longitude" : -74.95935,
  "city" : "New York",
  "state" : "NY",
  "area" : "Brooklyn"
}
{
  "user_id" : 51,
  "zipcode" : 10074,
  "latitude" : 39.959007,
  "longitude" : -73.61672,
  "city" : "New York",
  "state" : "NY",
  "area" : "Brooklyn"
}
{
  "user_id" : 190,
  "zipcode" : 10168,
  "latitude" : 40.596752,
  "longitude" : -74.135155,
  "city" : "New York",
  "state" : "NY",
  "area" : "The Bronx"
}
{
  "user_id" : 503,
  "zipcode" : 10964,
  "latitude" : 39.665874,
  "longitude" : -73.47432,
  "city" : "New York",
  "state" : "NY",
  "area" : "Queens"
}
{
  "user_id" : 781,
  "zipcode" : 10053,
  "latitude" : 40.368324,
  "longitude" : -74.62237,
  "city" : "New York",
  "state" : "NY",
  "area" : "Manhattan"
}
{
  "user_id" : 353,
  "zipcode" : 10600,
  "latitude" : 39.3156,
  "longitude" : -73.032166,
  "city" : "New York",
  "state" : "NY",
  "area" : "Staten Island"
}
{
  "user_id" : 638,
  "zipcode" : 10733,
  "latitude" : 40.20032,
  "longitude" : -74.33131,
  "city" : "New York",
  "state" : "NY",
  "area" : "Staten Island"
}
{
  "user_id" : 920,
  "zipcode" : 10201,
  "latitude" : 39.5913,
  "longitude" : -74.15316,
  "city" : "New York",
  "state" : "NY",
  "area" : "The Bronx"
}
{
  "user_id" : 200,
  "zipcode" : 10839,
  "latitude" : 39.650497,
  "longitude" : -74.41394,
  "city" : "New York",
  "state" : "NY",
  "area" : "The Bronx"
}
{
  "user_id" : 236,
  "zipcode" : 10901,
  "latitude" : 40.12713,
  "longitude" : -73.06833,
  "city" : "New York",
  "state" : "NY",
  "area" : "The Bronx"
}
{
  "user_id" : 734,
  "zipcode" : 10329,
  "latitude" : 40.49152,
  "longitude" : -74.80246,
  "city" : "New York",
  "state" : "NY",
  "area" : "The Bronx"
}
{
  "user_id" : 4,
  "zipcode" : 10549,
  "latitude" : 39.024868,
  "longitude" : -74.47422,
  "city" : "New York",
  "state" : "NY",
  "area" : "Staten Island"
}
{
  "user_id" : 899,
  "zipcode" : 10717,
  "latitude" : 39.975582,
  "longitude" : -74.03651,
  "city" : "New York",
  "state" : "NY",
  "area" : "Brooklyn"
}
{
  "user_id" : 637,
  "zipcode" : 11011,
  "latitude" : 40.98154,
  "longitude" : -74.50193,
  "city" : "New York",
  "state" : "NY",
  "area" : "Queens"
}
{
  "user_id" : 605,
  "zipcode" : 10524,
  "latitude" : 39.005424,
  "longitude" : -73.34127,
  "city" : "New York",
  "state" : "NY",
  "area" : "Queens"
}
{
  "user_id" : 218,
  "zipcode" : 10780,
  "latitude" : 40.750534,
  "longitude" : -73.139305,
  "city" : "New York",
  "state" : "NY",
  "area" : "Queens"
}
{
  "user_id" : 218,
  "zipcode" : 10750,
  "latitude" : 40.450935,
  "longitude" : -73.588524,
  "city" : "New York",
  "state" : "NY",
  "area" : "Queens"
}
{
  "user_id" : 108,
  "zipcode" : 10149,
  "latitude" : 40.864765,
  "longitude" : -74.452644,
  "city" : "New York",
  "state" : "NY",
  "area" : "Manhattan"
}
{
  "user_id" : 775,
  "zipcode" : 10752,
  "latitude" : 39.42756,
  "longitude" : -74.02708,
  "city" : "New York",
  "state" : "NY",
  "area" : "Staten Island"
}
{
  "user_id" : 915,
  "zipcode" : 10144,
  "latitude" : 39.978584,
  "longitude" : -74.38795,
  "city" : "New York",
  "state" : "NY",
  "area" : "Queens"
}
{
  "user_id" : 729,
  "zipcode" : 10290,
  "latitude" : 40.44866,
  "longitude" : -74.66538,
  "city" : "New York",
  "state" : "NY",
  "area" : "Staten Island"
}
{
  "user_id" : 238,
  "zipcode" : 10675,
  "latitude" : 39.925255,
  "longitude" : -73.08048,
  "city" : "New York",
  "state" : "NY",
  "area" : "Brooklyn"
}
{
  "user_id" : 600,
  "zipcode" : 10155,
  "latitude" : 39.94496,
  "longitude" : -73.83844,
  "city" : "New York",
  "state" : "NY",
  "area" : "Queens"
}
{
  "user_id" : 591,
  "zipcode" : 10511,
  "latitude" : 40.2532,
  "longitude" : -74.14749,
  "city" : "New York",
  "state" : "NY",
  "area" : "Manhattan"
}
{
  "user_id" : 174,
  "zipcode" : 10444,
  "latitude" : 39.52778,
  "longitude" : -74.98602,
  "city" : "New York",
  "state" : "NY",
  "area" : "Staten Island"
}
{
  "user_id" : 493,
  "zipcode" : 10884,
  "latitude" : 40.633366,
  "longitude" : -74.979546,
  "city" : "New York",
  "state" : "NY",
  "area" : "Queens"
}
{
  "user_id" : 950,
  "zipcode" : 10402,
  "latitude" : 40.483727,
  "longitude" : -73.39323,
  "city" : "New York",
  "state" : "NY",
  "area" : "Brooklyn"
}
{
  "user_id" : 181,
  "zipcode" : 10153,
  "latitude" : 39.62694,
  "longitude" : -74.5849,
  "city" : "New York",
  "state" : "NY",
  "area" : "Brooklyn"
}
{
  "user_id" : 756,
  "zipcode" : 10108,
  "latitude" : 39.30685,
  "longitude" : -74.116455,
  "city" : "New York",
  "state" : "NY",
  "area" : "The Bronx"
}
{
  "user_id" : 440,
  "zipcode" : 10089,
  "latitude" : 40.63837,
  "longitude" : -74.62857,
  "city" : "New York",
  "state" : "NY",
  "area" : "Manhattan"
}
{
  "user_id" : 861,
  "zipcode" : 10568,
  "latitude" : 39.09724,
  "longitude" : -74.74369,
  "city" : "New York",
  "state" : "NY",
  "area" : "Manhattan"
}
{
  "user_id" : 227,
  "zipcode" : 10588,
  "latitude" : 39.702324,
  "longitude" : -73.43288,
  "city" : "New York",
  "state" : "NY",
  "area" : "Brooklyn"
}
{
  "user_id" : 822,
  "zipcode" : 10680,
  "latitude" : 39.002987,
  "longitude" : -74.11248,
  "city" : "New York",
  "state" : "NY",
  "area" : "The Bronx"
}
{
  "user_id" : 767,
  "zipcode" : 10843,
  "latitude" : 40.647797,
  "longitude" : -73.26556,
  "city" : "New York",
  "state" : "NY",
  "area" : "Staten Island"
}
{
  "user_id" : 717,
  "zipcode" : 10426,
  "latitude" : 39.995827,
  "longitude" : -74.40999,
  "city" : "New York",
  "state" : "NY",
  "area" : "Queens"
}
{
  "user_id" : 35,
  "zipcode" : 10791,
  "latitude" : 40.846767,
  "longitude" : -73.553955,
  "city" : "New York",
  "state" : "NY",
  "area" : "Brooklyn"
}
{
  "user_id" : 160,
  "zipcode" : 10523,
  "latitude" : 40.95757,
  "longitude" : -74.4636,
  "city" : "New York",
  "state" : "NY",
  "area" : "Staten Island"
}
{
  "user_id" : 933,
  "zipcode" : 10430,
  "latitude" : 39.573414,
  "longitude" : -74.23229,
  "city" : "New York",
  "state" : "NY",
  "area" : "Brooklyn"
}
{
  "user_id" : 787,
  "zipcode" : 10315,
  "latitude" : 39.953457,
  "longitude" : -73.36868,
  "city" : "New York",
  "state" : "NY",
  "area" : "Queens"
}
{
  "user_id" : 910,
  "zipcode" : 10937,
  "latitude" : 40.30443,
  "longitude" : -73.80107,
  "city" : "New York",
  "state" : "NY",
  "area" : "The Bronx"
}
{
  "user_id" : 38,
  "zipcode" : 10763,
  "latitude" : 40.417614,
  "longitude" : -74.610725,
  "city" : "New York",
  "state" : "NY",
  "area" : "Brooklyn"
}
{
  "user_id" : 568,
  "zipcode" : 10141,
  "latitude" : 40.797295,
  "longitude" : -74.966225,
  "city" : "New York",
  "state" : "NY",
  "area" : "Queens"
}
{
  "user_id" : 171,
  "zipcode" : 10186,
  "latitude" : 40.87406,
  "longitude" : -73.1532,
  "city" : "New York",
  "state" : "NY",
  "area" : "Queens"
}
{
  "user_id" : 876,
  "zipcode" : 10506,
  "latitude" : 39.739265,
  "longitude" : -74.03265,
  "city" : "New York",
  "state" : "NY",
  "area" : "Manhattan"
}
{
  "user_id" : 66,
  "zipcode" : 10983,
  "latitude" : 40.495228,
  "longitude" : -74.145966,
  "city" : "New York",
  "state" : "NY",
  "area" : "Staten Island"
}
{
  "user_id" : 697,
  "zipcode" : 10557,
  "latitude" : 40.906612,
  "longitude" : -74.897896,
  "city" : "New York",
  "state" : "NY",
  "area" : "Staten Island"
}
{
  "user_id" : 28,
  "zipcode" : 11094,
  "latitude" : 39.213192,
  "longitude" : -73.546364,
  "city" : "New York",
  "state" : "NY",
  "area" : "The Bronx"
}
{
  "user_id" : 601,
  "zipcode" : 10291,
  "latitude" : 40.285336,
  "longitude" : -74.315125,
  "city" : "New York",
  "state" : "NY",
  "area" : "Staten Island"
}
{
  "user_id" : 629,
  "zipcode" : 10316,
  "latitude" : 39.479046,
  "longitude" : -74.293816,
  "city" : "New York",
  "state" : "NY",
  "area" : "Brooklyn"
}
{
  "user_id" : 413,
  "zipcode" : 10468,
  "latitude" : 40.730877,
  "longitude" : -74.26027,
  "city" : "New York",
  "state" : "NY",
  "area" : "Brooklyn"
}
{
  "user_id" : 935,
  "zipcode" : 10837,
  "latitude" : 39.57608,
  "longitude" : -74.367905,
  "city" : "New York",
  "state" : "NY",
  "area" : "Manhattan"
}
{
  "user_id" : 754,
  "zipcode" : 10154,
  "latitude" : 39.94719,
  "longitude" : -73.033745,
  "city" : "New York",
  "state" : "NY",
  "area" : "Manhattan"
}
{
  "user_id" : 749,
  "zipcode" : 11073,
  "latitude" : 40.444595,
  "longitude" : -74.72087,
  "city" : "New York",
  "state" : "NY",
  "area" : "Manhattan"
}
{
  "user_id" : 165,
  "zipcode" : 10824,
  "latitude" : 39.50026,
  "longitude" : -73.66706,
  "city" : "New York",
  "state" : "NY",
  "area" : "Brooklyn"
}
{
  "user_id" : 451,
  "zipcode" : 10842,
  "latitude" : 39.277298,
  "longitude" : -73.74635,
  "city" : "New York",
  "state" : "NY",
  "area" : "Queens"
}
{
  "user_id" : 125,
  "zipcode" : 11046,
  "latitude" : 40.335987,
  "longitude" : -73.441795,
  "city" : "New York",
  "state" : "NY",
  "area" : "Staten Island"
}
{
  "user_id" : 245,
  "zipcode" : 10434,
  "latitude" : 39.860172,
  "longitude" : -73.52329,
  "city" : "New York",
  "state" : "NY",
  "area" : "The Bronx"
}
{
  "user_id" : 621,
  "zipcode" : 10887,
  "latitude" : 40.84394,
  "longitude" : -73.92375,
  "city" : "New York",
  "state" : "NY",
  "area" : "Brooklyn"
}
{
  "user_id" : 86,
  "zipcode" : 10887,
  "latitude" : 39.858734,
  "longitude" : -74.01904,
  "city" : "New York",
  "state" : "NY",
  "area" : "Manhattan"
}
{
  "user_id" : 194,
  "zipcode" : 10250,
  "latitude" : 40.551514,
  "longitude" : -73.68459,
  "city" : "New York",
  "state" : "NY",
  "area" : "The Bronx"
}
{
  "user_id" : 934,
  "zipcode" : 10354,
  "latitude" : 39.0976,
  "longitude" : -73.387344,
  "city" : "New York",
  "state" : "NY",
  "area" : "Brooklyn"
}
{
  "user_id" : 987,
  "zipcode" : 10194,
  "latitude" : 39.985836,
  "longitude" : -74.27256,
  "city" : "New York",
  "state" : "NY",
  "area" : "Manhattan"
}
{
  "user_id" : 597,
  "zipcode" : 10043,
  "latitude" : 39.71065,
  "longitude" : -73.37657,
  "city" : "New York",
  "state" : "NY",
  "area" : "Manhattan"
}
{
  "user_id" : 824,
  "zipcode" : 10975,
  "latitude" : 40.490444,
  "longitude" : -73.58294,
  "city" : "New York",
  "state" : "NY",
  "area" : "Staten Island"
}
{
  "user_id" : 615,
  "zipcode" : 10492,
  "latitude" : 40.45045,
  "longitude" : -74.4924,
  "city" : "New York",
  "state" : "NY",
  "area" : "Queens"
}
{
  "user_id" : 266,
  "zipcode" : 10727,
  "latitude" : 40.599842,
  "longitude" : -73.73056,
  "city" : "New York",
  "state" : "NY",
  "area" : "Manhattan"
}
{
  "user_id" : 330,
  "zipcode" : 10712,
  "latitude" : 40.99602,
  "longitude" : -74.75239,
  "city" : "New York",
  "state" : "NY",
  "area" : "Brooklyn"
}
{
  "user_id" : 374,
  "zipcode" : 10873,
  "latitude" : 39.09527,
  "longitude" : -73.464806,
  "city" : "New York",
  "state" : "NY",
  "area" : "Manhattan"
}
{
  "user_id" : 894,
  "zipcode" : 10145,
  "latitude" : 39.485172,
  "longitude" : -74.40596,
  "city" : "New York",
  "state" : "NY",
  "area" : "Queens"
}
{
  "user_id" : 639,
  "zipcode" : 10449,
  "latitude" : 39.492615,
  "longitude" : -74.67119,
  "city" : "New York",
  "state" : "NY",
  "area" : "Queens"
}
{
  "user_id" : 612,
  "zipcode" : 10796,
  "latitude" : 39.293015,
  "longitude" : -73.79094,
  "city" : "New York",
  "state" : "NY",
  "area" : "Staten Island"
}
{
  "user_id" : 986,
  "zipcode" : 10355,
  "latitude" : 40.832348,
  "longitude" : -73.576385,
  "city" : "New York",
  "state" : "NY",
  "area" : "Queens"
}
{
  "user_id" : 755,
  "zipcode" : 10383,
  "latitude" : 40.88263,
  "longitude" : -74.777374,
  "city" : "New York",
  "state" : "NY",
  "area" : "The Bronx"
}
{
  "user_id" : 760,
  "zipcode" : 10011,
  "latitude" : 40.63022,
  "longitude" : -73.85098,
  "city" : "New York",
  "state" : "NY",
  "area" : "Brooklyn"
}
{
  "user_id" : 490,
  "zipcode" : 10216,
  "latitude" : 40.77787,
  "longitude" : -73.38991,
  "city" : "New York",
  "state" : "NY",
  "area" : "Brooklyn"
}
{
  "user_id" : 711,
  "zipcode" : 10917,
  "latitude" : 40.932587,
  "longitude" : -74.53492,
  "city" : "New York",
  "state" : "NY",
  "area" : "Brooklyn"
}
{
  "user_id" : 388,
  "zipcode" : 10338,
  "latitude" : 40.98075,
  "longitude" : -73.437164,
  "city" : "New York",
  "state" : "NY",
  "area" : "Staten Island"
}
{
  "user_id" : 278,
  "zipcode" : 10566,
  "latitude" : 39.46251,
  "longitude" : -73.94518,
  "city" : "New York",
  "state" : "NY",
  "area" : "Staten Island"
}
{
  "user_id" : 111,
  "zipcode" : 10923,
  "latitude" : 40.684437,
  "longitude" : -73.028625,
  "city" : "New York",
  "state" : "NY",
  "area" : "Staten Island"
}
{
  "user_id" : 393,
  "zipcode" : 10963,
  "latitude" : 39.23286,
  "longitude" : -74.82692,
  "city" : "New York",
  "state" : "NY",
  "area" : "Queens"
}
{
  "user_id" : 285,
  "zipcode" : 10034,
  "latitude" : 40.14531,
  "longitude" : -73.00984,
  "city" : "New York",
  "state" : "NY",
  "area" : "Brooklyn"
}
{
  "user_id" : 297,
  "zipcode" : 10792,
  "latitude" : 40.379887,
  "longitude" : -74.79326,
  "city" : "New York",
  "state" : "NY",
  "area" : "Brooklyn"
}
{
  "user_id" : 650,
  "zipcode" : 10359,
  "latitude" : 40.293602,
  "longitude" : -73.4334,
  "city" : "New York",
  "state" : "NY",
  "area" : "Queens"
}
{
  "user_id" : 998,
  "zipcode" : 10508,
  "latitude" : 40.56392,
  "longitude" : -74.39385,
  "city" : "New York",
  "state" : "NY",
  "area" : "Manhattan"
}
{
  "user_id" : 606,
  "zipcode" : 10793,
  "latitude" : 39.04968,
  "longitude" : -74.404236,
  "city" : "New York",
  "state" : "NY",
  "area" : "Staten Island"
}
{
  "user_id" : 539,
  "zipcode" : 10195,
  "latitude" : 39.22036,
  "longitude" : -74.155,
  "city" : "New York",
  "state" : "NY",
  "area" : "Brooklyn"
}
{
  "user_id" : 873,
  "zipcode" : 10573,
  "latitude" : 39.202305,
  "longitude" : -74.00376,
  "city" : "New York",
  "state" : "NY",
  "area" : "Staten Island"
}
{
  "user_id" : 116,
  "zipcode" : 10330,
  "latitude" : 39.94207,
  "longitude" : -74.241554,
  "city" : "New York",
  "state" : "NY",
  "area" : "Staten Island"
}
{
  "user_id" : 958,
  "zipcode" : 10556,
  "latitude" : 40.640224,
  "longitude" : -74.70148,
  "city" : "New York",
  "state" : "NY",
  "area" : "Queens"
}
{
  "user_id" : 586,
  "zipcode" : 10195,
  "latitude" : 40.697113,
  "longitude" : -74.243484,
  "city" : "New York",
  "state" : "NY",
  "area" : "Brooklyn"
}
{
  "user_id" : 166,
  "zipcode" : 10331,
  "latitude" : 40.25605,
  "longitude" : -74.58741,
  "city" : "New York",
  "state" : "NY",
  "area" : "The Bronx"
}
{
  "user_id" : 133,
  "zipcode" : 10090,
  "latitude" : 39.89379,
  "longitude" : -73.08532,
  "city" : "New York",
  "state" : "NY",
  "area" : "Manhattan"
}
{
  "user_id" : 167,
  "zipcode" : 10214,
  "latitude" : 40.738808,
  "longitude" : -74.75847,
  "city" : "New York",
  "state" : "NY",
  "area" : "Brooklyn"
}
{
  "user_id" : 391,
  "zipcode" : 10268,
  "latitude" : 40.51,
  "longitude" : -74.755684,
  "city" : "New York",
  "state" : "NY",
  "area" : "The Bronx"
}
{
  "user_id" : 802,
  "zipcode" : 10332,
  "latitude" : 39.74043,
  "longitude" : -74.745514,
  "city" : "New York",
  "state" : "NY",
  "area" : "Staten Island"
}
{
  "user_id" : 21,
  "zipcode" : 10183,
  "latitude" : 39.28764,
  "longitude" : -73.09458,
  "city" : "New York",
  "state" : "NY",
  "area" : "The Bronx"
}
{
  "user_id" : 632,
  "zipcode" : 10102,
  "latitude" : 39.154564,
  "longitude" : -74.116905,
  "city" : "New York",
  "state" : "NY",
  "area" : "Manhattan"
}
{
  "user_id" : 241,
  "zipcode" : 10771,
  "latitude" : 40.71712,
  "longitude" : -73.90738,
  "city" : "New York",
  "state" : "NY",
  "area" : "Staten Island"
}
{
  "user_id" : 186,
  "zipcode" : 10511,
  "latitude" : 39.436733,
  "longitude" : -73.53675,
  "city" : "New York",
  "state" : "NY",
  "area" : "Manhattan"
}
{
  "user_id" : 348,
  "zipcode" : 10455,
  "latitude" : 40.435238,
  "longitude" : -74.59323,
  "city" : "New York",
  "state" : "NY",
  "area" : "Staten Island"
}
{
  "user_id" : 912,
  "zipcode" : 10866,
  "latitude" : 40.143135,
  "longitude" : -73.9832,
  "city" : "New York",
  "state" : "NY",
  "area" : "Queens"
}
{
  "user_id" : 769,
  "zipcode" : 10173,
  "latitude" : 40.059803,
  "longitude" : -74.15599,
  "city" : "New York",
  "state" : "NY",
  "area" : "Queens"
}
{
  "user_id" : 71,
  "zipcode" : 10033,
  "latitude" : 39.45611,
  "longitude" : -74.35657,
  "city" : "New York",
  "state" : "NY",
  "area" : "The Bronx"
}
{
  "user_id" : 44,
  "zipcode" : 10298,
  "latitude" : 40.978577,
  "longitude" : -73.33652,
  "city" : "New York",
  "state" : "NY",
  "area" : "Queens"
}
{
  "user_id" : 367,
  "zipcode" : 10025,
  "latitude" : 40.89242,
  "longitude" : -73.643875,
  "city" : "New York",
  "state" : "NY",
  "area" : "Manhattan"
}
{
  "user_id" : 691,
  "zipcode" : 10233,
  "latitude" : 40.64666,
  "longitude" : -74.142876,
  "city" : "New York",
  "state" : "NY",
  "area" : "Manhattan"
}
{
  "user_id" : 182,
  "zipcode" : 10795,
  "latitude" : 40.659348,
  "longitude" : -73.62653,
  "city" : "New York",
  "state" : "NY",
  "area" : "Manhattan"
}
{
  "user_id" : 582,
  "zipcode" : 10237,
  "latitude" : 39.38567,
  "longitude" : -74.92359,
  "city" : "New York",
  "state" : "NY",
  "area" : "Brooklyn"
}
{
  "user_id" : 705,
  "zipcode" : 10958,
  "latitude" : 39.291504,
  "longitude" : -73.8198,
  "city" : "New York",
  "state" : "NY",
  "area" : "The Bronx"
}
{
  "user_id" : 486,
  "zipcode" : 10588,
  "latitude" : 40.40758,
  "longitude" : -74.90342,
  "city" : "New York",
  "state" : "NY",
  "area" : "The Bronx"
}
{
  "user_id" : 977,
  "zipcode" : 10472,
  "latitude" : 40.509552,
  "longitude" : -73.61409,
  "city" : "New York",
  "state" : "NY",
  "area" : "Brooklyn"
}
{
  "user_id" : 427,
  "zipcode" : 10137,
  "latitude" : 39.56857,
  "longitude" : -73.68711,
  "city" : "New York",
  "state" : "NY",
  "area" : "Manhattan"
}
{
  "user_id" : 62,
  "zipcode" : 10369,
  "latitude" : 40.945797,
  "longitude" : -73.349846,
  "city" : "New York",
  "state" : "NY",
  "area" : "Brooklyn"
}
{
  "user_id" : 752,
  "zipcode" : 10287,
  "latitude" : 40.629517,
  "longitude" : -74.795525,
  "city" : "New York",
  "state" : "NY",
  "area" : "Staten Island"
}
{
  "user_id" : 512,
  "zipcode" : 10653,
  "latitude" : 40.738407,
  "longitude" : -73.69173,
  "city" : "New York",
  "state" : "NY",
  "area" : "Manhattan"
}
{
  "user_id" : 280,
  "zipcode" : 10697,
  "latitude" : 39.211567,
  "longitude" : -73.66534,
  "city" : "New York",
  "state" : "NY",
  "area" : "The Bronx"
}
{
  "user_id" : 664,
  "zipcode" : 10744,
  "latitude" : 39.660835,
  "longitude" : -73.032715,
  "city" : "New York",
  "state" : "NY",
  "area" : "Brooklyn"
}
{
  "user_id" : 785,
  "zipcode" : 10323,
  "latitude" : 39.693073,
  "longitude" : -73.820465,
  "city" : "New York",
  "state" : "NY",
  "area" : "Queens"
}
{
  "user_id" : 611,
  "zipcode" : 10266,
  "latitude" : 40.86044,
  "longitude" : -74.58053,
  "city" : "New York",
  "state" : "NY",
  "area" : "The Bronx"
}
{
  "user_id" : 554,
  "zipcode" : 10943,
  "latitude" : 40.502586,
  "longitude" : -73.1165,
  "city" : "New York",
  "state" : "NY",
  "area" : "Manhattan"
}
{
  "user_id" : 55,
  "zipcode" : 10608,
  "latitude" : 39.38445,
  "longitude" : -74.34184,
  "city" : "New York",
  "state" : "NY",
  "area" : "Brooklyn"
}
{
  "user_id" : 786,
  "zipcode" : 10574,
  "latitude" : 40.75784,
  "longitude" : -73.20949,
  "city" : "New York",
  "state" : "NY",
  "area" : "Staten Island"
}
{
  "user_id" : 970,
  "zipcode" : 10596,
  "latitude" : 39.751755,
  "longitude" : -74.070816,
  "city" : "New York",
  "state" : "NY",
  "area" : "Brooklyn"
}
{
  "user_id" : 487,
  "zipcode" : 10369,
  "latitude" : 40.904972,
  "longitude" : -73.554955,
  "city" : "New York",
  "state" : "NY",
  "area" : "Staten Island"
}
{
  "user_id" : 314,
  "zipcode" : 10965,
  "latitude" : 39.858536,
  "longitude" : -74.55199,
  "city" : "New York",
  "state" : "NY",
  "area" : "Queens"
}
{
  "user_id" : 14,
  "zipcode" : 10391,
  "latitude" : 40.917446,
  "longitude" : -74.19637,
  "city" : "New York",
  "state" : "NY",
  "area" : "Staten Island"
}
{
  "user_id" : 58,
  "zipcode" : 10163,
  "latitude" : 39.909924,
  "longitude" : -73.22244,
  "city" : "New York",
  "state" : "NY",
  "area" : "Manhattan"
}
{
  "user_id" : 937,
  "zipcode" : 10624,
  "latitude" : 40.852016,
  "longitude" : -73.019516,
  "city" : "New York",
  "state" : "NY",
  "area" : "Queens"
}
{
  "user_id" : 393,
  "zipcode" : 10542,
  "latitude" : 39.505104,
  "longitude" : -74.16165,
  "city" : "New York",
  "state" : "NY",
  "area" : "Staten Island"
}
{
  "user_id" : 970,
  "zipcode" : 10221,
  "latitude" : 40.491234,
  "longitude" : -74.88456,
  "city" : "New York",
  "state" : "NY",
  "area" : "Manhattan"
}
{
  "user_id" : 814,
  "zipcode" : 10047,
  "latitude" : 40.100094,
  "longitude" : -74.81231,
  "city" : "New York",
  "state" : "NY",
  "area" : "Brooklyn"
}
{
  "user_id" : 567,
  "zipcode" : 10068,
  "latitude" : 40.41255,
  "longitude" : -73.73961,
  "city" : "New York",
  "state" : "NY",
  "area" : "Manhattan"
}
{
  "user_id" : 918,
  "zipcode" : 11096,
  "latitude" : 39.905254,
  "longitude" : -74.54105,
  "city" : "New York",
  "state" : "NY",
  "area" : "Queens"
}
{
  "user_id" : 94,
  "zipcode" : 10953,
  "latitude" : 40.272545,
  "longitude" : -73.85573,
  "city" : "New York",
  "state" : "NY",
  "area" : "Staten Island"
}
{
  "user_id" : 528,
  "zipcode" : 10144,
  "latitude" : 39.6218,
  "longitude" : -74.85403,
  "city" : "New York",
  "state" : "NY",
  "area" : "The Bronx"
}
{
  "user_id" : 172,
  "zipcode" : 10656,
  "latitude" : 40.33774,
  "longitude" : -73.52696,
  "city" : "New York",
  "state" : "NY",
  "area" : "Brooklyn"
}
{
  "user_id" : 56,
  "zipcode" : 10089,
  "latitude" : 39.704567,
  "longitude" : -74.751335,
  "city" : "New York",
  "state" : "NY",
  "area" : "Manhattan"
}
{
  "user_id" : 327,
  "zipcode" : 10857,
  "latitude" : 39.255413,
  "longitude" : -74.68553,
  "city" : "New York",
  "state" : "NY",
  "area" : "Manhattan"
}
{
  "user_id" : 829,
  "zipcode" : 10426,
  "latitude" : 40.93374,
  "longitude" : -73.24541,
  "city" : "New York",
  "state" : "NY",
  "area" : "Queens"
}
{
  "user_id" : 212,
  "zipcode" : 10791,
  "latitude" : 39.8884,
  "longitude" : -73.04097,
  "city" : "New York",
  "state" : "NY",
  "area" : "The Bronx"
}
{
  "user_id" : 861,
  "zipcode" : 10546,
  "latitude" : 40.005306,
  "longitude" : -73.33359,
  "city" : "New York",
  "state" : "NY",
  "area" : "The Bronx"
}
{
  "user_id" : 841,
  "zipcode" : 10360,
  "latitude" : 40.558838,
  "longitude" : -74.57941,
  "city" : "New York",
  "state" : "NY",
  "area" : "The Bronx"
}
{
  "user_id" : 489,
  "zipcode" : 10853,
  "latitude" : 40.66498,
  "longitude" : -74.22771,
  "city" : "New York",
  "state" : "NY",
  "area" : "Brooklyn"
}
{
  "user_id" : 401,
  "zipcode" : 10102,
  "latitude" : 39.547264,
  "longitude" : -73.973854,
  "city" : "New York",
  "state" : "NY",
  "area" : "Brooklyn"
}
{
  "user_id" : 274,
  "zipcode" : 10063,
  "latitude" : 39.92732,
  "longitude" : -73.514015,
  "city" : "New York",
  "state" : "NY",
  "area" : "Manhattan"
}
{
  "user_id" : 3,
  "zipcode" : 10496,
  "latitude" : 39.8145,
  "longitude" : -74.88307,
  "city" : "New York",
  "state" : "NY",
  "area" : "Brooklyn"
}
{
  "user_id" : 525,
  "zipcode" : 10522,
  "latitude" : 40.71615,
  "longitude" : -73.43535,
  "city" : "New York",
  "state" : "NY",
  "area" : "Queens"
}
{
  "user_id" : 749,
  "zipcode" : 11005,
  "latitude" : 40.3847,
  "longitude" : -73.566925,
  "city" : "New York",
  "state" : "NY",
  "area" : "Staten Island"
}
{
  "user_id" : 303,
  "zipcode" : 10649,
  "latitude" : 39.7095,
  "longitude" : -73.26756,
  "city" : "New York",
  "state" : "NY",
  "area" : "Queens"
}
{
  "user_id" : 751,
  "zipcode" : 10882,
  "latitude" : 39.439404,
  "longitude" : -74.94507,
  "city" : "New York",
  "state" : "NY",
  "area" : "Manhattan"
}
{
  "user_id" : 595,
  "zipcode" : 10037,
  "latitude" : 39.08999,
  "longitude" : -74.28766,
  "city" : "New York",
  "state" : "NY",
  "area" : "Brooklyn"
}
{
  "user_id" : 931,
  "zipcode" : 10063,
  "latitude" : 39.37105,
  "longitude" : -74.55818,
  "city" : "New York",
  "state" : "NY",
  "area" : "The Bronx"
}
{
  "user_id" : 199,
  "zipcode" : 11092,
  "latitude" : 39.687336,
  "longitude" : -73.67282,
  "city" : "New York",
  "state" : "NY",
  "area" : "Queens"
}
{
  "user_id" : 804,
  "zipcode" : 10660,
  "latitude" : 40.14577,
  "longitude" : -74.61595,
  "city" : "New York",
  "state" : "NY",
  "area" : "Brooklyn"
}
{
  "user_id" : 708,
  "zipcode" : 10028,
  "latitude" : 39.94576,
  "longitude" : -74.58131,
  "city" : "New York",
  "state" : "NY",
  "area" : "Brooklyn"
}
{
  "user_id" : 875,
  "zipcode" : 10781,
  "latitude" : 40.369637,
  "longitude" : -74.500565,
  "city" : "New York",
  "state" : "NY",
  "area" : "Brooklyn"
}
{
  "user_id" : 487,
  "zipcode" : 11058,
  "latitude" : 39.955437,
  "longitude" : -74.216,
  "city" : "New York",
  "state" : "NY",
  "area" : "The Bronx"
}
{
  "user_id" : 521,
  "zipcode" : 10572,
  "latitude" : 39.318314,
  "longitude" : -74.18402,
  "city" : "New York",
  "state" : "NY",
  "area" : "Manhattan"
}
{
  "user_id" : 952,
  "zipcode" : 10447,
  "latitude" : 40.085415,
  "longitude" : -73.982895,
  "city" : "New York",
  "state" : "NY",
  "area" : "Brooklyn"
}
{
  "user_id" : 145,
  "zipcode" : 10284,
  "latitude" : 40.614956,
  "longitude" : -73.675095,
  "city" : "New York",
  "state" : "NY",
  "area" : "Manhattan"
}
{
  "user_id" : 619,
  "zipcode" : 10137,
  "latitude" : 40.274906,
  "longitude" : -73.496056,
  "city" : "New York",
  "state" : "NY",
  "area" : "The Bronx"
}
{
  "user_id" : 105,
  "zipcode" : 10318,
  "latitude" : 39.992954,
  "longitude" : -73.612434,
  "city" : "New York",
  "state" : "NY",
  "area" : "Manhattan"
}
{
  "user_id" : 298,
  "zipcode" : 10455,
  "latitude" : 39.37216,
  "longitude" : -73.139244,
  "city" : "New York",
  "state" : "NY",
  "area" : "Queens"
}
{
  "user_id" : 86,
  "zipcode" : 10416,
  "latitude" : 39.05002,
  "longitude" : -74.81601,
  "city" : "New York",
  "state" : "NY",
  "area" : "Queens"
}
{
  "user_id" : 20,
  "zipcode" : 10949,
  "latitude" : 39.61265,
  "longitude" : -74.072876,
  "city" : "New York",
  "state" : "NY",
  "area" : "Queens"
}
{
  "user_id" : 452,
  "zipcode" : 11002,
  "latitude" : 39.9854,
  "longitude" : -73.11769,
  "city" : "New York",
  "state" : "NY",
  "area" : "Brooklyn"
}
{
  "user_id" : 61,
  "zipcode" : 11079,
  "latitude" : 39.45608,
  "longitude" : -74.10494,
  "city" : "New York",
  "state" : "NY",
  "area" : "Brooklyn"
}
{
  "user_id" : 776,
  "zipcode" : 10553,
  "latitude" : 39.48971,
  "longitude" : -73.299904,
  "city" : "New York",
  "state" : "NY",
  "area" : "Staten Island"
}
{
  "user_id" : 101,
  "zipcode" : 10191,
  "latitude" : 40.933235,
  "longitude" : -73.009346,
  "city" : "New York",
  "state" : "NY",
  "area" : "Queens"
}
{
  "user_id" : 69,
  "zipcode" : 10617,
  "latitude" : 39.033882,
  "longitude" : -73.194145,
  "city" : "New York",
  "state" : "NY",
  "area" : "Staten Island"
}
{
  "user_id" : 424,
  "zipcode" : 10025,
  "latitude" : 40.419567,
  "longitude" : -74.36424,
  "city" : "New York",
  "state" : "NY",
  "area" : "The Bronx"
}
{
  "user_id" : 26,
  "zipcode" : 10171,
  "latitude" : 40.876247,
  "longitude" : -74.02794,
  "city" : "New York",
  "state" : "NY",
  "area" : "The Bronx"
}
{
  "user_id" : 124,
  "zipcode" : 10281,
  "latitude" : 39.865273,
  "longitude" : -74.59911,
  "city" : "New York",
  "state" : "NY",
  "area" : "The Bronx"
}
{
  "user_id" : 896,
  "zipcode" : 11063,
  "latitude" : 40.83524,
  "longitude" : -73.64152,
  "city" : "New York",
  "state" : "NY",
  "area" : "Brooklyn"
}
{
  "user_id" : 566,
  "zipcode" : 10971,
  "latitude" : 40.622673,
  "longitude" : -74.87107,
  "city" : "New York",
  "state" : "NY",
  "area" : "Staten Island"
}
{
  "user_id" : 966,
  "zipcode" : 10361,
  "latitude" : 39.23513,
  "longitude" : -73.11954,
  "city" : "New York",
  "state" : "NY",
  "area" : "Brooklyn"
}
{
  "user_id" : 902,
  "zipcode" : 10354,
  "latitude" : 39.525875,
  "longitude" : -73.55577,
  "city" : "New York",
  "state" : "NY",
  "area" : "Manhattan"
}
{
  "user_id" : 576,
  "zipcode" : 10914,
  "latitude" : 40.670685,
  "longitude" : -73.70896,
  "city" : "New York",
  "state" : "NY",
  "area" : "Manhattan"
}
{
  "user_id" : 559,
  "zipcode" : 10526,
  "latitude" : 39.969925,
  "longitude" : -73.06642,
  "city" : "New York",
  "state" : "NY",
  "area" : "Brooklyn"
}
{
  "user_id" : 929,
  "zipcode" : 10379,
  "latitude" : 39.82034,
  "longitude" : -73.876526,
  "city" : "New York",
  "state" : "NY",
  "area" : "Brooklyn"
}
{
  "user_id" : 403,
  "zipcode" : 11076,
  "latitude" : 40.0323,
  "longitude" : -74.86772,
  "city" : "New York",
  "state" : "NY",
  "area" : "The Bronx"
}
{
  "user_id" : 17,
  "zipcode" : 10453,
  "latitude" : 40.44686,
  "longitude" : -74.56577,
  "city" : "New York",
  "state" : "NY",
  "area" : "Brooklyn"
}
{
  "user_id" : 807,
  "zipcode" : 10785,
  "latitude" : 39.163467,
  "longitude" : -73.91714,
  "city" : "New York",
  "state" : "NY",
  "area" : "Brooklyn"
}
{
  "user_id" : 199,
  "zipcode" : 10552,
  "latitude" : 40.50577,
  "longitude" : -74.87583,
  "city" : "New York",
  "state" : "NY",
  "area" : "The Bronx"
}
{
  "user_id" : 294,
  "zipcode" : 10399,
  "latitude" : 40.514896,
  "longitude" : -73.9928,
  "city" : "New York",
  "state" : "NY",
  "area" : "Manhattan"
}
{
  "user_id" : 362,
  "zipcode" : 10245,
  "latitude" : 40.835354,
  "longitude" : -73.59976,
  "city" : "New York",
  "state" : "NY",
  "area" : "Brooklyn"
}
{
  "user_id" : 673,
  "zipcode" : 10270,
  "latitude" : 39.16011,
  "longitude" : -74.661705,
  "city" : "New York",
  "state" : "NY",
  "area" : "Manhattan"
}
{
  "user_id" : 94,
  "zipcode" : 10658,
  "latitude" : 39.04303,
  "longitude" : -73.0821,
  "city" : "New York",
  "state" : "NY",
  "area" : "Queens"
}
{
  "user_id" : 882,
  "zipcode" : 10212,
  "latitude" : 39.25576,
  "longitude" : -73.06841,
  "city" : "New York",
  "state" : "NY",
  "area" : "Brooklyn"
}
{
  "user_id" : 512,
  "zipcode" : 10937,
  "latitude" : 39.60158,
  "longitude" : -74.902016,
  "city" : "New York",
  "state" : "NY",
  "area" : "Manhattan"
}
{
  "user_id" : 29,
  "zipcode" : 10132,
  "latitude" : 40.20194,
  "longitude" : -74.495415,
  "city" : "New York",
  "state" : "NY",
  "area" : "The Bronx"
}
{
  "user_id" : 399,
  "zipcode" : 10742,
  "latitude" : 39.326473,
  "longitude" : -73.58517,
  "city" : "New York",
  "state" : "NY",
  "area" : "Brooklyn"
}
{
  "user_id" : 420,
  "zipcode" : 10135,
  "latitude" : 40.930954,
  "longitude" : -73.43,
  "city" : "New York",
  "state" : "NY",
  "area" : "Manhattan"
}
{
  "user_id" : 642,
  "zipcode" : 10078,
  "latitude" : 40.900864,
  "longitude" : -73.31418,
  "city" : "New York",
  "state" : "NY",
  "area" : "Brooklyn"
}
{
  "user_id" : 142,
  "zipcode" : 10191,
  "latitude" : 39.411938,
  "longitude" : -74.07324,
  "city" : "New York",
  "state" : "NY",
  "area" : "Brooklyn"
}
{
  "user_id" : 63,
  "zipcode" : 11007,
  "latitude" : 39.403816,
  "longitude" : -73.97361,
  "city" : "New York",
  "state" : "NY",
  "area" : "Queens"
}
{
  "user_id" : 193,
  "zipcode" : 10875,
  "latitude" : 39.879574,
  "longitude" : -74.64117,
  "city" : "New York",
  "state" : "NY",
  "area" : "The Bronx"
}
{
  "user_id" : 391,
  "zipcode" : 10398,
  "latitude" : 39.41999,
  "longitude" : -73.90092,
  "city" : "New York",
  "state" : "NY",
  "area" : "Brooklyn"
}
{
  "user_id" : 18,
  "zipcode" : 10429,
  "latitude" : 40.289673,
  "longitude" : -74.99061,
  "city" : "New York",
  "state" : "NY",
  "area" : "Brooklyn"
}
{
  "user_id" : 2,
  "zipcode" : 10172,
  "latitude" : 39.420345,
  "longitude" : -73.937454,
  "city" : "New York",
  "state" : "NY",
  "area" : "Manhattan"
}
{
  "user_id" : 704,
  "zipcode" : 10043,
  "latitude" : 40.440342,
  "longitude" : -74.21417,
  "city" : "New York",
  "state" : "NY",
  "area" : "Brooklyn"
}
{
  "user_id" : 928,
  "zipcode" : 10111,
  "latitude" : 39.797726,
  "longitude" : -73.19578,
  "city" : "New York",
  "state" : "NY",
  "area" : "Manhattan"
}
{
  "user_id" : 482,
  "zipcode" : 10274,
  "latitude" : 40.540813,
  "longitude" : -73.70149,
  "city" : "New York",
  "state" : "NY",
  "area" : "Queens"
}
{
  "user_id" : 815,
  "zipcode" : 10711,
  "latitude" : 40.918335,
  "longitude" : -73.90251,
  "city" : "New York",
  "state" : "NY",
  "area" : "Manhattan"
}
{
  "user_id" : 563,
  "zipcode" : 10781,
  "latitude" : 40.296978,
  "longitude" : -74.60464,
  "city" : "New York",
  "state" : "NY",
  "area" : "Staten Island"
}
{
  "user_id" : 520,
  "zipcode" : 10713,
  "latitude" : 39.21501,
  "longitude" : -74.30129,
  "city" : "New York",
  "state" : "NY",
  "area" : "Staten Island"
}
{
  "user_id" : 884,
  "zipcode" : 11060,
  "latitude" : 40.8423,
  "longitude" : -74.37354,
  "city" : "New York",
  "state" : "NY",
  "area" : "Queens"
}
{
  "user_id" : 738,
  "zipcode" : 10044,
  "latitude" : 39.51834,
  "longitude" : -74.25398,
  "city" : "New York",
  "state" : "NY",
  "area" : "Manhattan"
}
{
  "user_id" : 855,
  "zipcode" : 10024,
  "latitude" : 40.600407,
  "longitude" : -74.35902,
  "city" : "New York",
  "state" : "NY",
  "area" : "Manhattan"
}
{
  "user_id" : 832,
  "zipcode" : 10080,
  "latitude" : 40.758186,
  "longitude" : -74.37044,
  "city" : "New York",
  "state" : "NY",
  "area" : "Queens"
}
{
  "user_id" : 763,
  "zipcode" : 10486,
  "latitude" : 39.478203,
  "longitude" : -74.53054,
  "city" : "New York",
  "state" : "NY",
  "area" : "Manhattan"
}
{
  "user_id" : 797,
  "zipcode" : 10919,
  "latitude" : 40.730206,
  "longitude" : -73.89845,
  "city" : "New York",
  "state" : "NY",
  "area" : "Queens"
}
{
  "user_id" : 926,
  "zipcode" : 10628,
  "latitude" : 39.56202,
  "longitude" : -74.52928,
  "city" : "New York",
  "state" : "NY",
  "area" : "Brooklyn"
}
{
  "user_id" : 463,
  "zipcode" : 10938,
  "latitude" : 40.88658,
  "longitude" : -73.342026,
  "city" : "New York",
  "state" : "NY",
  "area" : "Brooklyn"
}
{
  "user_id" : 655,
  "zipcode" : 10160,
  "latitude" : 40.65683,
  "longitude" : -73.90518,
  "city" : "New York",
  "state" : "NY",
  "area" : "Staten Island"
}
{
  "user_id" : 274,
  "zipcode" : 10899,
  "latitude" : 39.878834,
  "longitude" : -74.897064,
  "city" : "New York",
  "state" : "NY",
  "area" : "Brooklyn"
}
{
  "user_id" : 957,
  "zipcode" : 10618,
  "latitude" : 40.943455,
  "longitude" : -73.79386,
  "city" : "New York",
  "state" : "NY",
  "area" : "Brooklyn"
}
{
  "user_id" : 358,
  "zipcode" : 10821,
  "latitude" : 40.74501,
  "longitude" : -73.45195,
  "city" : "New York",
  "state" : "NY",
  "area" : "Staten Island"
}
{
  "user_id" : 958,
  "zipcode" : 10919,
  "latitude" : 39.895107,
  "longitude" : -74.47523,
  "city" : "New York",
  "state" : "NY",
  "area" : "Brooklyn"
}
{
  "user_id" : 27,
  "zipcode" : 10323,
  "latitude" : 39.43996,
  "longitude" : -74.005806,
  "city" : "New York",
  "state" : "NY",
  "area" : "Queens"
}
{
  "user_id" : 843,
  "zipcode" : 10616,
  "latitude" : 39.140644,
  "longitude" : -73.87666,
  "city" : "New York",
  "state" : "NY",
  "area" : "The Bronx"
}
{
  "user_id" : 60,
  "zipcode" : 10721,
  "latitude" : 40.22445,
  "longitude" : -73.11786,
  "city" : "New York",
  "state" : "NY",
  "area" : "The Bronx"
}
{
  "user_id" : 360,
  "zipcode" : 10927,
  "latitude" : 40.57196,
  "longitude" : -73.28448,
  "city" : "New York",
  "state" : "NY",
  "area" : "Staten Island"
}
{
  "user_id" : 560,
  "zipcode" : 10262,
  "latitude" : 39.67708,
  "longitude" : -74.97563,
  "city" : "New York",
  "state" : "NY",
  "area" : "Queens"
}
{
  "user_id" : 757,
  "zipcode" : 10351,
  "latitude" : 39.640778,
  "longitude" : -73.671555,
  "city" : "New York",
  "state" : "NY",
  "area" : "Queens"
}
{
  "user_id" : 636,
  "zipcode" : 10059,
  "latitude" : 39.569042,
  "longitude" : -73.63909,
  "city" : "New York",
  "state" : "NY",
  "area" : "Brooklyn"
}
{
  "user_id" : 341,
  "zipcode" : 10386,
  "latitude" : 40.828163,
  "longitude" : -73.29849,
  "city" : "New York",
  "state" : "NY",
  "area" : "Queens"
}
{
  "user_id" : 898,
  "zipcode" : 10180,
  "latitude" : 40.72152,
  "longitude" : -73.15972,
  "city" : "New York",
  "state" : "NY",
  "area" : "Brooklyn"
}
{
  "user_id" : 114,
  "zipcode" : 10844,
  "latitude" : 40.81955,
  "longitude" : -73.385124,
  "city" : "New York",
  "state" : "NY",
  "area" : "Staten Island"
}
{
  "user_id" : 301,
  "zipcode" : 10083,
  "latitude" : 40.33913,
  "longitude" : -73.826965,
  "city" : "New York",
  "state" : "NY",
  "area" : "Manhattan"
}
{
  "user_id" : 327,
  "zipcode" : 10032,
  "latitude" : 39.928627,
  "longitude" : -73.50197,
  "city" : "New York",
  "state" : "NY",
  "area" : "Queens"
}
{
  "user_id" : 955,
  "zipcode" : 10461,
  "latitude" : 40.168747,
  "longitude" : -74.579636,
  "city" : "New York",
  "state" : "NY",
  "area" : "Queens"
}
{
  "user_id" : 237,
  "zipcode" : 10402,
  "latitude" : 40.17205,
  "longitude" : -74.52797,
  "city" : "New York",
  "state" : "NY",
  "area" : "The Bronx"
}
{
  "user_id" : 53,
  "zipcode" : 10402,
  "latitude" : 40.959564,
  "longitude" : -74.46197,
  "city" : "New York",
  "state" : "NY",
  "area" : "Staten Island"
}
{
  "user_id" : 490,
  "zipcode" : 10330,
  "latitude" : 40.286957,
  "longitude" : -73.84028,
  "city" : "New York",
  "state" : "NY",
  "area" : "The Bronx"
}
{
  "user_id" : 526,
  "zipcode" : 10093,
  "latitude" : 39.057137,
  "longitude" : -73.318054,
  "city" : "New York",
  "state" : "NY",
  "area" : "Manhattan"
}
{
  "user_id" : 920,
  "zipcode" : 10963,
  "latitude" : 39.99591,
  "longitude" : -74.82885,
  "city" : "New York",
  "state" : "NY",
  "area" : "Manhattan"
}
{
  "user_id" : 305,
  "zipcode" : 10764,
  "latitude" : 40.607056,
  "longitude" : -74.362206,
  "city" : "New York",
  "state" : "NY",
  "area" : "Manhattan"
}
{
  "user_id" : 457,
  "zipcode" : 11001,
  "latitude" : 40.146343,
  "longitude" : -74.916885,
  "city" : "New York",
  "state" : "NY",
  "area" : "Brooklyn"
}
{
  "user_id" : 737,
  "zipcode" : 10003,
  "latitude" : 39.588238,
  "longitude" : -73.60235,
  "city" : "New York",
  "state" : "NY",
  "area" : "The Bronx"
}
{
  "user_id" : 766,
  "zipcode" : 10594,
  "latitude" : 40.661858,
  "longitude" : -73.32629,
  "city" : "New York",
  "state" : "NY",
  "area" : "Staten Island"
}
{
  "user_id" : 452,
  "zipcode" : 10504,
  "latitude" : 39.423607,
  "longitude" : -74.05835,
  "city" : "New York",
  "state" : "NY",
  "area" : "Staten Island"
}
{
  "user_id" : 410,
  "zipcode" : 10682,
  "latitude" : 39.760548,
  "longitude" : -74.89898,
  "city" : "New York",
  "state" : "NY",
  "area" : "Queens"
}
{
  "user_id" : 612,
  "zipcode" : 10828,
  "latitude" : 39.134506,
  "longitude" : -74.860344,
  "city" : "New York",
  "state" : "NY",
  "area" : "Staten Island"
}
{
  "user_id" : 104,
  "zipcode" : 10571,
  "latitude" : 40.338905,
  "longitude" : -74.81102,
  "city" : "New York",
  "state" : "NY",
  "area" : "Manhattan"
}
{
  "user_id" : 620,
  "zipcode" : 10725,
  "latitude" : 39.994484,
  "longitude" : -74.540085,
  "city" : "New York",
  "state" : "NY",
  "area" : "Staten Island"
}
{
  "user_id" : 346,
  "zipcode" : 10018,
  "latitude" : 39.451466,
  "longitude" : -73.51897,
  "city" : "New York",
  "state" : "NY",
  "area" : "Queens"
}
{
  "user_id" : 606,
  "zipcode" : 10975,
  "latitude" : 40.611694,
  "longitude" : -74.47313,
  "city" : "New York",
  "state" : "NY",
  "area" : "Manhattan"
}
{
  "user_id" : 656,
  "zipcode" : 10454,
  "latitude" : 39.34383,
  "longitude" : -73.34641,
  "city" : "New York",
  "state" : "NY",
  "area" : "Brooklyn"
}
{
  "user_id" : 476,
  "zipcode" : 10738,
  "latitude" : 40.615364,
  "longitude" : -73.42137,
  "city" : "New York",
  "state" : "NY",
  "area" : "Staten Island"
}
{
  "user_id" : 751,
  "zipcode" : 10213,
  "latitude" : 39.54324,
  "longitude" : -73.89357,
  "city" : "New York",
  "state" : "NY",
  "area" : "Brooklyn"
}
{
  "user_id" : 922,
  "zipcode" : 10396,
  "latitude" : 39.975235,
  "longitude" : -74.997314,
  "city" : "New York",
  "state" : "NY",
  "area" : "Brooklyn"
}
{
  "user_id" : 645,
  "zipcode" : 10273,
  "latitude" : 39.14375,
  "longitude" : -74.27348,
  "city" : "New York",
  "state" : "NY",
  "area" : "Manhattan"
}
{
  "user_id" : 633,
  "zipcode" : 11050,
  "latitude" : 40.415764,
  "longitude" : -74.040596,
  "city" : "New York",
  "state" : "NY",
  "area" : "Manhattan"
}
{
  "user_id" : 252,
  "zipcode" : 10472,
  "latitude" : 40.57682,
  "longitude" : -74.966774,
  "city" : "New York",
  "state" : "NY",
  "area" : "Brooklyn"
}
{
  "user_id" : 175,
  "zipcode" : 10068,
  "latitude" : 39.896236,
  "longitude" : -74.82466,
  "city" : "New York",
  "state" : "NY",
  "area" : "Queens"
}
{
  "user_id" : 699,
  "zipcode" : 10803,
  "latitude" : 39.97421,
  "longitude" : -74.495636,
  "city" : "New York",
  "state" : "NY",
  "area" : "Brooklyn"
}
{
  "user_id" : 93,
  "zipcode" : 10325,
  "latitude" : 39.133812,
  "longitude" : -73.55805,
  "city" : "New York",
  "state" : "NY",
  "area" : "Queens"
}
{
  "user_id" : 137,
  "zipcode" : 10926,
  "latitude" : 40.863976,
  "longitude" : -73.409134,
  "city" : "New York",
  "state" : "NY",
  "area" : "The Bronx"
}
{
  "user_id" : 374,
  "zipcode" : 10401,
  "latitude" : 39.201683,
  "longitude" : -73.10457,
  "city" : "New York",
  "state" : "NY",
  "area" : "Manhattan"
}
{
  "user_id" : 812,
  "zipcode" : 10644,
  "latitude" : 40.591816,
  "longitude" : -74.11407,
  "city" : "New York",
  "state" : "NY",
  "area" : "The Bronx"
}
{
  "user_id" : 590,
  "zipcode" : 10906,
  "latitude" : 39.885025,
  "longitude" : -74.8478,
  "city" : "New York",
  "state" : "NY",
  "area" : "Manhattan"
}
{
  "user_id" : 61,
  "zipcode" : 10079,
  "latitude" : 40.09775,
  "longitude" : -74.81307,
  "city" : "New York",
  "state" : "NY",
  "area" : "Staten Island"
}
{
  "user_id" : 232,
  "zipcode" : 10184,
  "latitude" : 39.70111,
  "longitude" : -73.25706,
  "city" : "New York",
  "state" : "NY",
  "area" : "Staten Island"
}
{
  "user_id" : 388,
  "zipcode" : 10231,
  "latitude" : 40.940556,
  "longitude" : -74.91892,
  "city" : "New York",
  "state" : "NY",
  "area" : "Staten Island"
}
{
  "user_id" : 55,
  "zipcode" : 10934,
  "latitude" : 40.176727,
  "longitude" : -73.93347,
  "city" : "New York",
  "state" : "NY",
  "area" : "The Bronx"
}
{
  "user_id" : 162,
  "zipcode" : 10634,
  "latitude" : 40.930794,
  "longitude" : -74.89063,
  "city" : "New York",
  "state" : "NY",
  "area" : "Brooklyn"
}
{
  "user_id" : 644,
  "zipcode" : 10042,
  "latitude" : 39.999672,
  "longitude" : -74.50126,
  "city" : "New York",
  "state" : "NY",
  "area" : "Brooklyn"
}
{
  "user_id" : 435,
  "zipcode" : 10350,
  "latitude" : 40.585255,
  "longitude" : -74.69954,
  "city" : "New York",
  "state" : "NY",
  "area" : "Queens"
}
{
  "user_id" : 637,
  "zipcode" : 10229,
  "latitude" : 40.636414,
  "longitude" : -74.63558,
  "city" : "New York",
  "state" : "NY",
  "area" : "Queens"
}
{
  "user_id" : 585,
  "zipcode" : 10624,
  "latitude" : 39.977955,
  "longitude" : -74.33329,
  "city" : "New York",
  "state" : "NY",
  "area" : "Manhattan"
}
{
  "user_id" : 757,
  "zipcode" : 10727,
  "latitude" : 39.903038,
  "longitude" : -74.93768,
  "city" : "New York",
  "state" : "NY",
  "area" : "Staten Island"
}
{
  "user_id" : 827,
  "zipcode" : 10139,
  "latitude" : 39.297558,
  "longitude" : -73.777885,
  "city" : "New York",
  "state" : "NY",
  "area" : "The Bronx"
}
{
  "user_id" : 379,
  "zipcode" : 10348,
  "latitude" : 40.301315,
  "longitude" : -73.948616,
  "city" : "New York",
  "state" : "NY",
  "area" : "Brooklyn"
}
{
  "user_id" : 687,
  "zipcode" : 10675,
  "latitude" : 39.191143,
  "longitude" : -73.09932,
  "city" : "New York",
  "state" : "NY",
  "area" : "Manhattan"
}
{
  "user_id" : 975,
  "zipcode" : 10606,
  "latitude" : 39.297306,
  "longitude" : -73.239746,
  "city" : "New York",
  "state" : "NY",
  "area" : "Manhattan"
}
{
  "user_id" : 703,
  "zipcode" : 10931,
  "latitude" : 39.842266,
  "longitude" : -73.145775,
  "city" : "New York",
  "state" : "NY",
  "area" : "Manhattan"
}
{
  "user_id" : 283,
  "zipcode" : 10314,
  "latitude" : 40.1165,
  "longitude" : -74.134514,
  "city" : "New York",
  "state" : "NY",
  "area" : "The Bronx"
}
{
  "user_id" : 766,
  "zipcode" : 10542,
  "latitude" : 40.869034,
  "longitude" : -74.56675,
  "city" : "New York",
  "state" : "NY",
  "area" : "Manhattan"
}
{
  "user_id" : 290,
  "zipcode" : 10983,
  "latitude" : 40.837265,
  "longitude" : -73.788925,
  "city" : "New York",
  "state" : "NY",
  "area" : "Manhattan"
}
{
  "user_id" : 998,
  "zipcode" : 10082,
  "latitude" : 40.010754,
  "longitude" : -73.74479,
  "city" : "New York",
  "state" : "NY",
  "area" : "Staten Island"
}
{
  "user_id" : 894,
  "zipcode" : 10960,
  "latitude" : 39.676548,
  "longitude" : -74.51051,
  "city" : "New York",
  "state" : "NY",
  "area" : "Queens"
}
{
  "user_id" : 675,
  "zipcode" : 10104,
  "latitude" : 39.360905,
  "longitude" : -74.48341,
  "city" : "New York",
  "state" : "NY",
  "area" : "Queens"
}
{
  "user_id" : 533,
  "zipcode" : 10708,
  "latitude" : 40.455666,
  "longitude" : -74.95439,
  "city" : "New York",
  "state" : "NY",
  "area" : "Queens"
}
{
  "user_id" : 497,
  "zipcode" : 10006,
  "latitude" : 39.519176,
  "longitude" : -73.0085,
  "city" : "New York",
  "state" : "NY",
  "area" : "Queens"
}
{
  "user_id" : 920,
  "zipcode" : 11014,
  "latitude" : 40.793514,
  "longitude" : -74.04529,
  "city" : "New York",
  "state" : "NY",
  "area" : "Staten Island"
}
{
  "user_id" : 581,
  "zipcode" : 10997,
  "latitude" : 40.741028,
  "longitude" : -74.56097,
  "city" : "New York",
  "state" : "NY",
  "area" : "Brooklyn"
}
{
  "user_id" : 251,
  "zipcode" : 10089,
  "latitude" : 39.32738,
  "longitude" : -74.46762,
  "city" : "New York",
  "state" : "NY",
  "area" : "Brooklyn"
}
{
  "user_id" : 957,
  "zipcode" : 11084,
  "latitude" : 39.30037,
  "longitude" : -74.12356,
  "city" : "New York",
  "state" : "NY",
  "area" : "Staten Island"
}
{
  "user_id" : 579,
  "zipcode" : 10874,
  "latitude" : 39.659542,
  "longitude" : -74.00112,
  "city" : "New York",
  "state" : "NY",
  "area" : "The Bronx"
}
{
  "user_id" : 960,
  "zipcode" : 11048,
  "latitude" : 40.089333,
  "longitude" : -73.3391,
  "city" : "New York",
  "state" : "NY",
  "area" : "The Bronx"
}
{
  "user_id" : 262,
  "zipcode" : 10614,
  "latitude" : 39.354992,
  "longitude" : -74.73773,
  "city" : "New York",
  "state" : "NY",
  "area" : "Staten Island"
}
{
  "user_id" : 698,
  "zipcode" : 10725,
  "latitude" : 39.768105,
  "longitude" : -74.486824,
  "city" : "New York",
  "state" : "NY",
  "area" : "Manhattan"
}
{
  "user_id" : 370,
  "zipcode" : 11085,
  "latitude" : 40.081524,
  "longitude" : -74.53088,
  "city" : "New York",
  "state" : "NY",
  "area" : "The Bronx"
}
{
  "user_id" : 759,
  "zipcode" : 11101,
  "latitude" : 39.51685,
  "longitude" : -73.37792,
  "city" : "New York",
  "state" : "NY",
  "area" : "The Bronx"
}
{
  "user_id" : 237,
  "zipcode" : 10769,
  "latitude" : 40.011127,
  "longitude" : -74.22822,
  "city" : "New York",
  "state" : "NY",
  "area" : "Manhattan"
}
{
  "user_id" : 729,
  "zipcode" : 10549,
  "latitude" : 39.15121,
  "longitude" : -73.56228,
  "city" : "New York",
  "state" : "NY",
  "area" : "Brooklyn"
}
{
  "user_id" : 701,
  "zipcode" : 10592,
  "latitude" : 39.288113,
  "longitude" : -74.13715,
  "city" : "New York",
  "state" : "NY",
  "area" : "The Bronx"
}
{
  "user_id" : 9,
  "zipcode" : 10454,
  "latitude" : 39.5041,
  "longitude" : -73.55024,
  "city" : "New York",
  "state" : "NY",
  "area" : "The Bronx"
}
{
  "user_id" : 707,
  "zipcode" : 10564,
  "latitude" : 39.160313,
  "longitude" : -74.36971,
  "city" : "New York",
  "state" : "NY",
  "area" : "Staten Island"
}
{
  "user_id" : 151,
  "zipcode" : 10979,
  "latitude" : 40.343975,
  "longitude" : -73.38823,
  "city" : "New York",
  "state" : "NY",
  "area" : "Staten Island"
}
{
  "user_id" : 899,
  "zipcode" : 11025,
  "latitude" : 40.343777,
  "longitude" : -74.72381,
  "city" : "New York",
  "state" : "NY",
  "area" : "Manhattan"
}
{
  "user_id" : 700,
  "zipcode" : 10315,
  "latitude" : 40.541656,
  "longitude" : -73.176834,
  "city" : "New York",
  "state" : "NY",
  "area" : "Queens"
}
{
  "user_id" : 150,
  "zipcode" : 11024,
  "latitude" : 39.626156,
  "longitude" : -74.088196,
  "city" : "New York",
  "state" : "NY",
  "area" : "The Bronx"
}
{
  "user_id" : 155,
  "zipcode" : 10556,
  "latitude" : 39.790905,
  "longitude" : -73.061905,
  "city" : "New York",
  "state" : "NY",
  "area" : "Staten Island"
}
{
  "user_id" : 721,
  "zipcode" : 11094,
  "latitude" : 40.35379,
  "longitude" : -74.33601,
  "city" : "New York",
  "state" : "NY",
  "area" : "Queens"
}
{
  "user_id" : 925,
  "zipcode" : 10722,
  "latitude" : 39.32016,
  "longitude" : -74.794556,
  "city" : "New York",
  "state" : "NY",
  "area" : "Manhattan"
}
{
  "user_id" : 635,
  "zipcode" : 10998,
  "latitude" : 40.26345,
  "longitude" : -74.02043,
  "city" : "New York",
  "state" : "NY",
  "area" : "Brooklyn"
}
{
  "user_id" : 917,
  "zipcode" : 10721,
  "latitude" : 39.642384,
  "longitude" : -73.93781,
  "city" : "New York",
  "state" : "NY",
  "area" : "Queens"
}
{
  "user_id" : 888,
  "zipcode" : 10002,
  "latitude" : 40.917854,
  "longitude" : -73.02686,
  "city" : "New York",
  "state" : "NY",
  "area" : "The Bronx"
}
{
  "user_id" : 366,
  "zipcode" : 10326,
  "latitude" : 40.939102,
  "longitude" : -74.63147,
  "city" : "New York",
  "state" : "NY",
  "area" : "Manhattan"
}
{
  "user_id" : 225,
  "zipcode" : 10773,
  "latitude" : 39.288635,
  "longitude" : -74.47769,
  "city" : "New York",
  "state" : "NY",
  "area" : "Brooklyn"
}
{
  "user_id" : 690,
  "zipcode" : 10825,
  "latitude" : 40.23767,
  "longitude" : -73.41377,
  "city" : "New York",
  "state" : "NY",
  "area" : "Brooklyn"
}
{
  "user_id" : 555,
  "zipcode" : 11029,
  "latitude" : 39.104557,
  "longitude" : -74.26354,
  "city" : "New York",
  "state" : "NY",
  "area" : "Queens"
}
{
  "user_id" : 718,
  "zipcode" : 10820,
  "latitude" : 40.697994,
  "longitude" : -74.39137,
  "city" : "New York",
  "state" : "NY",
  "area" : "Manhattan"
}
{
  "user_id" : 611,
  "zipcode" : 10476,
  "latitude" : 39.923637,
  "longitude" : -73.7794,
  "city" : "New York",
  "state" : "NY",
  "area" : "Brooklyn"
}
{
  "user_id" : 277,
  "zipcode" : 10395,
  "latitude" : 40.379726,
  "longitude" : -74.03587,
  "city" : "New York",
  "state" : "NY",
  "area" : "Brooklyn"
}
{
  "user_id" : 49,
  "zipcode" : 10837,
  "latitude" : 39.396374,
  "longitude" : -73.26482,
  "city" : "New York",
  "state" : "NY",
  "area" : "Queens"
}
{
  "user_id" : 252,
  "zipcode" : 10923,
  "latitude" : 39.189358,
  "longitude" : -74.0709,
  "city" : "New York",
  "state" : "NY",
  "area" : "Queens"
}
{
  "user_id" : 691,
  "zipcode" : 10185,
  "latitude" : 40.979485,
  "longitude" : -74.75668,
  "city" : "New York",
  "state" : "NY",
  "area" : "Brooklyn"
}
{
  "user_id" : 211,
  "zipcode" : 10224,
  "latitude" : 39.880062,
  "longitude" : -74.31357,
  "city" : "New York",
  "state" : "NY",
  "area" : "Staten Island"
}
{
  "user_id" : 44,
  "zipcode" : 10680,
  "latitude" : 39.32355,
  "longitude" : -73.23737,
  "city" : "New York",
  "state" : "NY",
  "area" : "The Bronx"
}
{
  "user_id" : 78,
  "zipcode" : 10604,
  "latitude" : 40.60128,
  "longitude" : -73.44044,
  "city" : "New York",
  "state" : "NY",
  "area" : "The Bronx"
}
{
  "user_id" : 940,
  "zipcode" : 10471,
  "latitude" : 40.966953,
  "longitude" : -74.03428,
  "city" : "New York",
  "state" : "NY",
  "area" : "Staten Island"
}
{
  "user_id" : 418,
  "zipcode" : 10850,
  "latitude" : 40.519684,
  "longitude" : -73.77704,
  "city" : "New York",
  "state" : "NY",
  "area" : "Staten Island"
}
{
  "user_id" : 156,
  "zipcode" : 10327,
  "latitude" : 40.000446,
  "longitude" : -74.96145,
  "city" : "New York",
  "state" : "NY",
  "area" : "Brooklyn"
}
{
  "user_id" : 995,
  "zipcode" : 10086,
  "latitude" : 39.609745,
  "longitude" : -74.05078,
  "city" : "New York",
  "state" : "NY",
  "area" : "Manhattan"
}
{
  "user_id" : 815,
  "zipcode" : 10779,
  "latitude" : 39.446957,
  "longitude" : -74.62157,
  "city" : "New York",
  "state" : "NY",
  "area" : "Brooklyn"
}
{
  "user_id" : 186,
  "zipcode" : 10091,
  "latitude" : 40.47494,
  "longitude" : -73.20236,
  "city" : "New York",
  "state" : "NY",
  "area" : "Queens"
}
{
  "user_id" : 416,
  "zipcode" : 10272,
  "latitude" : 40.540047,
  "longitude" : -74.095146,
  "city" : "New York",
  "state" : "NY",
  "area" : "Manhattan"
}
{
  "user_id" : 730,
  "zipcode" : 10637,
  "latitude" : 40.031082,
  "longitude" : -74.56361,
  "city" : "New York",
  "state" : "NY",
  "area" : "Manhattan"
}
{
  "user_id" : 427,
  "zipcode" : 10129,
  "latitude" : 40.555115,
  "longitude" : -74.82924,
  "city" : "New York",
  "state" : "NY",
  "area" : "Staten Island"
}
{
  "user_id" : 193,
  "zipcode" : 10613,
  "latitude" : 39.005215,
  "longitude" : -74.94069,
  "city" : "New York",
  "state" : "NY",
  "area" : "The Bronx"
}
{
  "user_id" : 324,
  "zipcode" : 10820,
  "latitude" : 40.79909,
  "longitude" : -74.1706,
  "city" : "New York",
  "state" : "NY",
  "area" : "Staten Island"
}
{
  "user_id" : 572,
  "zipcode" : 10289,
  "latitude" : 39.82682,
  "longitude" : -73.5684,
  "city" : "New York",
  "state" : "NY",
  "area" : "Staten Island"
}
{
  "user_id" : 546,
  "zipcode" : 10257,
  "latitude" : 39.54104,
  "longitude" : -74.49922,
  "city" : "New York",
  "state" : "NY",
  "area" : "Queens"
}
{
  "user_id" : 197,
  "zipcode" : 10152,
  "latitude" : 39.93637,
  "longitude" : -74.37523,
  "city" : "New York",
  "state" : "NY",
  "area" : "Brooklyn"
}
{
  "user_id" : 108,
  "zipcode" : 10853,
  "latitude" : 40.451035,
  "longitude" : -74.01006,
  "city" : "New York",
  "state" : "NY",
  "area" : "The Bronx"
}
{
  "user_id" : 770,
  "zipcode" : 10810,
  "latitude" : 40.20292,
  "longitude" : -74.4106,
  "city" : "New York",
  "state" : "NY",
  "area" : "Manhattan"
}
{
  "user_id" : 520,
  "zipcode" : 10966,
  "latitude" : 40.497063,
  "longitude" : -74.878334,
  "city" : "New York",
  "state" : "NY",
  "area" : "Queens"
}
{
  "user_id" : 330,
  "zipcode" : 10660,
  "latitude" : 39.372753,
  "longitude" : -74.74612,
  "city" : "New York",
  "state" : "NY",
  "area" : "Brooklyn"
}
{
  "user_id" : 175,
  "zipcode" : 10115,
  "latitude" : 40.756428,
  "longitude" : -74.38156,
  "city" : "New York",
  "state" : "NY",
  "area" : "Manhattan"
}
{
  "user_id" : 544,
  "zipcode" : 10772,
  "latitude" : 40.799606,
  "longitude" : -74.827774,
  "city" : "New York",
  "state" : "NY",
  "area" : "Brooklyn"
}
{
  "user_id" : 828,
  "zipcode" : 10077,
  "latitude" : 39.61428,
  "longitude" : -73.54038,
  "city" : "New York",
  "state" : "NY",
  "area" : "Queens"
}
{
  "user_id" : 650,
  "zipcode" : 10231,
  "latitude" : 40.836803,
  "longitude" : -73.07608,
  "city" : "New York",
  "state" : "NY",
  "area" : "Brooklyn"
}
{
  "user_id" : 534,
  "zipcode" : 10105,
  "latitude" : 40.266678,
  "longitude" : -73.54652,
  "city" : "New York",
  "state" : "NY",
  "area" : "Queens"
}
{
  "user_id" : 213,
  "zipcode" : 10914,
  "latitude" : 39.485226,
  "longitude" : -73.12737,
  "city" : "New York",
  "state" : "NY",
  "area" : "Manhattan"
}
{
  "user_id" : 281,
  "zipcode" : 10295,
  "latitude" : 39.852238,
  "longitude" : -74.89148,
  "city" : "New York",
  "state" : "NY",
  "area" : "Brooklyn"
}
{
  "user_id" : 475,
  "zipcode" : 10238,
  "latitude" : 40.40545,
  "longitude" : -73.43776,
  "city" : "New York",
  "state" : "NY",
  "area" : "The Bronx"
}
{
  "user_id" : 689,
  "zipcode" : 10539,
  "latitude" : 40.129345,
  "longitude" : -73.048744,
  "city" : "New York",
  "state" : "NY",
  "area" : "Queens"
}
{
  "user_id" : 292,
  "zipcode" : 10838,
  "latitude" : 39.48674,
  "longitude" : -74.34222,
  "city" : "New York",
  "state" : "NY",
  "area" : "Staten Island"
}
{
  "user_id" : 913,
  "zipcode" : 10757,
  "latitude" : 40.055202,
  "longitude" : -73.77512,
  "city" : "New York",
  "state" : "NY",
  "area" : "Staten Island"
}
{
  "user_id" : 712,
  "zipcode" : 10892,
  "latitude" : 39.65339,
  "longitude" : -73.16228,
  "city" : "New York",
  "state" : "NY",
  "area" : "Staten Island"
}
{
  "user_id" : 335,
  "zipcode" : 10304,
  "latitude" : 39.64002,
  "longitude" : -73.99692,
  "city" : "New York",
  "state" : "NY",
  "area" : "Manhattan"
}
{
  "user_id" : 413,
  "zipcode" : 10325,
  "latitude" : 40.73202,
  "longitude" : -73.21007,
  "city" : "New York",
  "state" : "NY",
  "area" : "The Bronx"
}
{
  "user_id" : 486,
  "zipcode" : 10455,
  "latitude" : 40.66219,
  "longitude" : -73.29057,
  "city" : "New York",
  "state" : "NY",
  "area" : "Staten Island"
}
{
  "user_id" : 65,
  "zipcode" : 10401,
  "latitude" : 39.624775,
  "longitude" : -74.224464,
  "city" : "New York",
  "state" : "NY",
  "area" : "Manhattan"
}
{
  "user_id" : 100,
  "zipcode" : 10150,
  "latitude" : 39.591965,
  "longitude" : -74.26201,
  "city" : "New York",
  "state" : "NY",
  "area" : "The Bronx"
}
{
  "user_id" : 710,
  "zipcode" : 11092,
  "latitude" : 39.846165,
  "longitude" : -73.2299,
  "city" : "New York",
  "state" : "NY",
  "area" : "The Bronx"
}
{
  "user_id" : 675,
  "zipcode" : 10395,
  "latitude" : 40.26473,
  "longitude" : -73.38219,
  "city" : "New York",
  "state" : "NY",
  "area" : "Queens"
}
{
  "user_id" : 917,
  "zipcode" : 10957,
  "latitude" : 39.465984,
  "longitude" : -74.475494,
  "city" : "New York",
  "state" : "NY",
  "area" : "Queens"
}
{
  "user_id" : 124,
  "zipcode" : 10890,
  "latitude" : 40.101257,
  "longitude" : -73.72615,
  "city" : "New York",
  "state" : "NY",
  "area" : "Manhattan"
}
{
  "user_id" : 921,
  "zipcode" : 11090,
  "latitude" : 39.519653,
  "longitude" : -73.57968,
  "city" : "New York",
  "state" : "NY",
  "area" : "The Bronx"
}
{
  "user_id" : 916,
  "zipcode" : 10160,
  "latitude" : 40.547733,
  "longitude" : -73.25084,
  "city" : "New York",
  "state" : "NY",
  "area" : "Brooklyn"
}
{
  "user_id" : 519,
  "zipcode" : 11003,
  "latitude" : 40.625015,
  "longitude" : -73.74347,
  "city" : "New York",
  "state" : "NY",
  "area" : "The Bronx"
}
{
  "user_id" : 985,
  "zipcode" : 10423,
  "latitude" : 40.629196,
  "longitude" : -73.978546,
  "city" : "New York",
  "state" : "NY",
  "area" : "Brooklyn"
}
{
  "user_id" : 407,
  "zipcode" : 10174,
  "latitude" : 40.513992,
  "longitude" : -74.81402,
  "city" : "New York",
  "state" : "NY",
  "area" : "Queens"
}
{
  "user_id" : 999,
  "zipcode" : 10243,
  "latitude" : 39.442593,
  "longitude" : -74.849846,
  "city" : "New York",
  "state" : "NY",
  "area" : "The Bronx"
}
{
  "user_id" : 665,
  "zipcode" : 10779,
  "latitude" : 39.049824,
  "longitude" : -73.295425,
  "city" : "New York",
  "state" : "NY",
  "area" : "Brooklyn"
}
{
  "user_id" : 2,
  "zipcode" : 10348,
  "latitude" : 40.489033,
  "longitude" : -74.87314,
  "city" : "New York",
  "state" : "NY",
  "area" : "Queens"
}
{
  "user_id" : 799,
  "zipcode" : 10084,
  "latitude" : 40.736843,
  "longitude" : -73.31229,
  "city" : "New York",
  "state" : "NY",
  "area" : "The Bronx"
}
{
  "user_id" : 524,
  "zipcode" : 10639,
  "latitude" : 39.621586,
  "longitude" : -74.29723,
  "city" : "New York",
  "state" : "NY",
  "area" : "Staten Island"
}
{
  "user_id" : 488,
  "zipcode" : 10104,
  "latitude" : 39.022606,
  "longitude" : -73.553604,
  "city" : "New York",
  "state" : "NY",
  "area" : "The Bronx"
}
{
  "user_id" : 603,
  "zipcode" : 11006,
  "latitude" : 40.22017,
  "longitude" : -73.078964,
  "city" : "New York",
  "state" : "NY",
  "area" : "Manhattan"
}
{
  "user_id" : 44,
  "zipcode" : 11018,
  "latitude" : 39.2301,
  "longitude" : -73.082436,
  "city" : "New York",
  "state" : "NY",
  "area" : "Manhattan"
}
{
  "user_id" : 804,
  "zipcode" : 10213,
  "latitude" : 40.419895,
  "longitude" : -73.06972,
  "city" : "New York",
  "state" : "NY",
  "area" : "Brooklyn"
}
{
  "user_id" : 786,
  "zipcode" : 10724,
  "latitude" : 39.10454,
  "longitude" : -74.180756,
  "city" : "New York",
  "state" : "NY",
  "area" : "Brooklyn"
}
{
  "user_id" : 982,
  "zipcode" : 10350,
  "latitude" : 40.75596,
  "longitude" : -74.319756,
  "city" : "New York",
  "state" : "NY",
  "area" : "The Bronx"
}
{
  "user_id" : 389,
  "zipcode" : 10037,
  "latitude" : 39.97934,
  "longitude" : -73.246506,
  "city" : "New York",
  "state" : "NY",
  "area" : "Staten Island"
}
{
  "user_id" : 758,
  "zipcode" : 10980,
  "latitude" : 39.691936,
  "longitude" : -73.41831,
  "city" : "New York",
  "state" : "NY",
  "area" : "Queens"
}
{
  "user_id" : 876,
  "zipcode" : 10395,
  "latitude" : 40.1225,
  "longitude" : -74.183815,
  "city" : "New York",
  "state" : "NY",
  "area" : "Staten Island"
}
{
  "user_id" : 568,
  "zipcode" : 10189,
  "latitude" : 40.623405,
  "longitude" : -73.28948,
  "city" : "New York",
  "state" : "NY",
  "area" : "Brooklyn"
}
{
  "user_id" : 71,
  "zipcode" : 10134,
  "latitude" : 40.86099,
  "longitude" : -73.19241,
  "city" : "New York",
  "state" : "NY",
  "area" : "Queens"
}
{
  "user_id" : 144,
  "zipcode" : 10013,
  "latitude" : 39.455563,
  "longitude" : -74.10629,
  "city" : "New York",
  "state" : "NY",
  "area" : "Brooklyn"
}
{
  "user_id" : 685,
  "zipcode" : 10850,
  "latitude" : 39.722748,
  "longitude" : -74.11708,
  "city" : "New York",
  "state" : "NY",
  "area" : "Queens"
}
{
  "user_id" : 938,
  "zipcode" : 10908,
  "latitude" : 39.722992,
  "longitude" : -73.3351,
  "city" : "New York",
  "state" : "NY",
  "area" : "Brooklyn"
}
{
  "user_id" : 74,
  "zipcode" : 10536,
  "latitude" : 39.264786,
  "longitude" : -74.66493,
  "city" : "New York",
  "state" : "NY",
  "area" : "Queens"
}
{
  "user_id" : 760,
  "zipcode" : 10630,
  "latitude" : 39.070248,
  "longitude" : -73.82977,
  "city" : "New York",
  "state" : "NY",
  "area" : "Queens"
}
{
  "user_id" : 238,
  "zipcode" : 10896,
  "latitude" : 40.296223,
  "longitude" : -74.972115,
  "city" : "New York",
  "state" : "NY",
  "area" : "Brooklyn"
}
{
  "user_id" : 228,
  "zipcode" : 10957,
  "latitude" : 40.179047,
  "longitude" : -73.72895,
  "city" : "New York",
  "state" : "NY",
  "area" : "The Bronx"
}
{
  "user_id" : 787,
  "zipcode" : 10136,
  "latitude" : 39.71639,
  "longitude" : -73.02467,
  "city" : "New York",
  "state" : "NY",
  "area" : "Queens"
}
{
  "user_id" : 117,
  "zipcode" : 11027,
  "latitude" : 40.408665,
  "longitude" : -73.523254,
  "city" : "New York",
  "state" : "NY",
  "area" : "The Bronx"
}
{
  "user_id" : 118,
  "zipcode" : 10552,
  "latitude" : 40.124943,
  "longitude" : -74.19392,
  "city" : "New York",
  "state" : "NY",
  "area" : "Staten Island"
}
{
  "user_id" : 919,
  "zipcode" : 10686,
  "latitude" : 39.866894,
  "longitude" : -74.73891,
  "city" : "New York",
  "state" : "NY",
  "area" : "Manhattan"
}
{
  "user_id" : 595,
  "zipcode" : 10164,
  "latitude" : 39.710506,
  "longitude" : -74.407875,
  "city" : "New York",
  "state" : "NY",
  "area" : "Queens"
}
{
  "user_id" : 543,
  "zipcode" : 10016,
  "latitude" : 40.44691,
  "longitude" : -74.12742,
  "city" : "New York",
  "state" : "NY",
  "area" : "Manhattan"
}
{
  "user_id" : 645,
  "zipcode" : 10833,
  "latitude" : 39.52134,
  "longitude" : -73.32632,
  "city" : "New York",
  "state" : "NY",
  "area" : "Staten Island"
}
{
  "user_id" : 446,
  "zipcode" : 10881,
  "latitude" : 39.459538,
  "longitude" : -73.493805,
  "city" : "New York",
  "state" : "NY",
  "area" : "Queens"
}
{
  "user_id" : 318,
  "zipcode" : 10566,
  "latitude" : 39.76401,
  "longitude" : -74.79666,
  "city" : "New York",
  "state" : "NY",
  "area" : "Brooklyn"
}
{
  "user_id" : 49,
  "zipcode" : 10771,
  "latitude" : 39.005165,
  "longitude" : -73.72422,
  "city" : "New York",
  "state" : "NY",
  "area" : "The Bronx"
}
{
  "user_id" : 518,
  "zipcode" : 10293,
  "latitude" : 40.17414,
  "longitude" : -74.02364,
  "city" : "New York",
  "state" : "NY",
  "area" : "The Bronx"
}
{
  "user_id" : 477,
  "zipcode" : 10059,
  "latitude" : 40.047295,
  "longitude" : -74.800766,
  "city" : "New York",
  "state" : "NY",
  "area" : "Brooklyn"
}
{
  "user_id" : 73,
  "zipcode" : 10504,
  "latitude" : 39.006275,
  "longitude" : -73.12772,
  "city" : "New York",
  "state" : "NY",
  "area" : "Staten Island"
}
{
  "user_id" : 518,
  "zipcode" : 10984,
  "latitude" : 40.2614,
  "longitude" : -74.61411,
  "city" : "New York",
  "state" : "NY",
  "area" : "Manhattan"
}
{
  "user_id" : 575,
  "zipcode" : 10872,
  "latitude" : 40.54978,
  "longitude" : -74.1223,
  "city" : "New York",
  "state" : "NY",
  "area" : "Staten Island"
}
{
  "user_id" : 45,
  "zipcode" : 10088,
  "latitude" : 40.82857,
  "longitude" : -74.28562,
  "city" : "New York",
  "state" : "NY",
  "area" : "The Bronx"
}
{
  "user_id" : 840,
  "zipcode" : 10480,
  "latitude" : 40.317837,
  "longitude" : -73.93828,
  "city" : "New York",
  "state" : "NY",
  "area" : "Queens"
}
{
  "user_id" : 457,
  "zipcode" : 10083,
  "latitude" : 40.036762,
  "longitude" : -74.77893,
  "city" : "New York",
  "state" : "NY",
  "area" : "Staten Island"
}
{
  "user_id" : 929,
  "zipcode" : 10408,
  "latitude" : 39.232166,
  "longitude" : -73.792534,
  "city" : "New York",
  "state" : "NY",
  "area" : "Brooklyn"
}
{
  "user_id" : 154,
  "zipcode" : 11048,
  "latitude" : 39.21477,
  "longitude" : -73.40247,
  "city" : "New York",
  "state" : "NY",
  "area" : "Brooklyn"
}
{
  "user_id" : 992,
  "zipcode" : 10582,
  "latitude" : 40.766098,
  "longitude" : -73.929245,
  "city" : "New York",
  "state" : "NY",
  "area" : "Manhattan"
}
{
  "user_id" : 949,
  "zipcode" : 10905,
  "latitude" : 39.768867,
  "longitude" : -73.06772,
  "city" : "New York",
  "state" : "NY",
  "area" : "Brooklyn"
}
{
  "user_id" : 454,
  "zipcode" : 10328,
  "latitude" : 40.75236,
  "longitude" : -73.7266,
  "city" : "New York",
  "state" : "NY",
  "area" : "Queens"
}
{
  "user_id" : 862,
  "zipcode" : 10059,
  "latitude" : 40.509277,
  "longitude" : -74.61555,
  "city" : "New York",
  "state" : "NY",
  "area" : "Manhattan"
}
{
  "user_id" : 148,
  "zipcode" : 10308,
  "latitude" : 39.808327,
  "longitude" : -74.81436,
  "city" : "New York",
  "state" : "NY",
  "area" : "Staten Island"
}
{
  "user_id" : 883,
  "zipcode" : 10559,
  "latitude" : 39.261234,
  "longitude" : -74.65729,
  "city" : "New York",
  "state" : "NY",
  "area" : "The Bronx"
}
{
  "user_id" : 1,
  "zipcode" : 10896,
  "latitude" : 39.531116,
  "longitude" : -74.19945,
  "city" : "New York",
  "state" : "NY",
  "area" : "The Bronx"
}
{
  "user_id" : 407,
  "zipcode" : 10222,
  "latitude" : 40.588463,
  "longitude" : -74.23886,
  "city" : "New York",
  "state" : "NY",
  "area" : "Brooklyn"
}
{
  "user_id" : 65,
  "zipcode" : 11083,
  "latitude" : 40.15754,
  "longitude" : -74.36566,
  "city" : "New York",
  "state" : "NY",
  "area" : "Staten Island"
}
{
  "user_id" : 981,
  "zipcode" : 10812,
  "latitude" : 40.59301,
  "longitude" : -73.13704,
  "city" : "New York",
  "state" : "NY",
  "area" : "Queens"
}
{
  "user_id" : 450,
  "zipcode" : 10236,
  "latitude" : 39.829525,
  "longitude" : -73.58942,
  "city" : "New York",
  "state" : "NY",
  "area" : "Staten Island"
}
{
  "user_id" : 210,
  "zipcode" : 10811,
  "latitude" : 40.615967,
  "longitude" : -73.586464,
  "city" : "New York",
  "state" : "NY",
  "area" : "Queens"
}
{
  "user_id" : 389,
  "zipcode" : 10019,
  "latitude" : 40.33875,
  "longitude" : -73.44633,
  "city" : "New York",
  "state" : "NY",
  "area" : "Queens"
}
{
  "user_id" : 561,
  "zipcode" : 10605,
  "latitude" : 40.517715,
  "longitude" : -74.68206,
  "city" : "New York",
  "state" : "NY",
  "area" : "Staten Island"
}
{
  "user_id" : 210,
  "zipcode" : 10148,
  "latitude" : 40.407143,
  "longitude" : -73.59053,
  "city" : "New York",
  "state" : "NY",
  "area" : "Manhattan"
}
{
  "user_id" : 78,
  "zipcode" : 10096,
  "latitude" : 40.55158,
  "longitude" : -73.0179,
  "city" : "New York",
  "state" : "NY",
  "area" : "Manhattan"
}
{
  "user_id" : 20,
  "zipcode" : 10895,
  "latitude" : 39.584034,
  "longitude" : -73.67253,
  "city" : "New York",
  "state" : "NY",
  "area" : "The Bronx"
}
{
  "user_id" : 888,
  "zipcode" : 10698,
  "latitude" : 40.955482,
  "longitude" : -74.910126,
  "city" : "New York",
  "state" : "NY",
  "area" : "Queens"
}
{
  "user_id" : 832,
  "zipcode" : 10399,
  "latitude" : 40.283413,
  "longitude" : -73.50053,
  "city" : "New York",
  "state" : "NY",
  "area" : "Brooklyn"
}
{
  "user_id" : 535,
  "zipcode" : 10774,
  "latitude" : 40.269936,
  "longitude" : -73.65802,
  "city" : "New York",
  "state" : "NY",
  "area" : "Queens"
}
{
  "user_id" : 673,
  "zipcode" : 10482,
  "latitude" : 40.889942,
  "longitude" : -74.141464,
  "city" : "New York",
  "state" : "NY",
  "area" : "Manhattan"
}
{
  "user_id" : 219,
  "zipcode" : 10308,
  "latitude" : 39.12708,
  "longitude" : -74.3376,
  "city" : "New York",
  "state" : "NY",
  "area" : "The Bronx"
}
{
  "user_id" : 458,
  "zipcode" : 10666,
  "latitude" : 40.48016,
  "longitude" : -74.338394,
  "city" : "New York",
  "state" : "NY",
  "area" : "The Bronx"
}
{
  "user_id" : 943,
  "zipcode" : 10115,
  "latitude" : 39.585438,
  "longitude" : -73.74407,
  "city" : "New York",
  "state" : "NY",
  "area" : "Queens"
}
{
  "user_id" : 131,
  "zipcode" : 10978,
  "latitude" : 39.635056,
  "longitude" : -73.221176,
  "city" : "New York",
  "state" : "NY",
  "area" : "Brooklyn"
}
{
  "user_id" : 105,
  "zipcode" : 10734,
  "latitude" : 40.984997,
  "longitude" : -74.99417,
  "city" : "New York",
  "state" : "NY",
  "area" : "The Bronx"
}
{
  "user_id" : 675,
  "zipcode" : 10879,
  "latitude" : 39.813892,
  "longitude" : -74.43444,
  "city" : "New York",
  "state" : "NY",
  "area" : "Brooklyn"
}
{
  "user_id" : 248,
  "zipcode" : 10772,
  "latitude" : 39.898212,
  "longitude" : -74.1417,
  "city" : "New York",
  "state" : "NY",
  "area" : "Brooklyn"
}
{
  "user_id" : 48,
  "zipcode" : 10754,
  "latitude" : 39.256668,
  "longitude" : -73.881516,
  "city" : "New York",
  "state" : "NY",
  "area" : "The Bronx"
}
{
  "user_id" : 55,
  "zipcode" : 10271,
  "latitude" : 39.016678,
  "longitude" : -74.33522,
  "city" : "New York",
  "state" : "NY",
  "area" : "Brooklyn"
}
{
  "user_id" : 428,
  "zipcode" : 10766,
  "latitude" : 39.16184,
  "longitude" : -74.942085,
  "city" : "New York",
  "state" : "NY",
  "area" : "The Bronx"
}
{
  "user_id" : 14,
  "zipcode" : 10582,
  "latitude" : 39.947422,
  "longitude" : -73.22952,
  "city" : "New York",
  "state" : "NY",
  "area" : "Queens"
}
{
  "user_id" : 471,
  "zipcode" : 11021,
  "latitude" : 40.02106,
  "longitude" : -73.46019,
  "city" : "New York",
  "state" : "NY",
  "area" : "Manhattan"
}
{
  "user_id" : 401,
  "zipcode" : 10135,
  "latitude" : 40.53461,
  "longitude" : -74.678825,
  "city" : "New York",
  "state" : "NY",
  "area" : "Brooklyn"
}
{
  "user_id" : 984,
  "zipcode" : 10021,
  "latitude" : 39.63129,
  "longitude" : -73.43285,
  "city" : "New York",
  "state" : "NY",
  "area" : "Queens"
}
{
  "user_id" : 998,
  "zipcode" : 10156,
  "latitude" : 39.10523,
  "longitude" : -74.45209,
  "city" : "New York",
  "state" : "NY",
  "area" : "Staten Island"
}
{
  "user_id" : 254,
  "zipcode" : 10024,
  "latitude" : 40.08173,
  "longitude" : -73.45324,
  "city" : "New York",
  "state" : "NY",
  "area" : "Manhattan"
}
{
  "user_id" : 57,
  "zipcode" : 10497,
  "latitude" : 39.19036,
  "longitude" : -74.037315,
  "city" : "New York",
  "state" : "NY",
  "area" : "Manhattan"
}
{
  "user_id" : 635,
  "zipcode" : 10043,
  "latitude" : 40.73563,
  "longitude" : -74.439224,
  "city" : "New York",
  "state" : "NY",
  "area" : "Queens"
}
{
  "user_id" : 11,
  "zipcode" : 10356,
  "latitude" : 40.49548,
  "longitude" : -73.975334,
  "city" : "New York",
  "state" : "NY",
  "area" : "Brooklyn"
}
{
  "user_id" : 689,
  "zipcode" : 10824,
  "latitude" : 40.774483,
  "longitude" : -73.08859,
  "city" : "New York",
  "state" : "NY",
  "area" : "Manhattan"
}
{
  "user_id" : 284,
  "zipcode" : 10467,
  "latitude" : 40.77364,
  "longitude" : -73.42443,
  "city" : "New York",
  "state" : "NY",
  "area" : "The Bronx"
}
{
  "user_id" : 378,
  "zipcode" : 10196,
  "latitude" : 40.071144,
  "longitude" : -74.18129,
  "city" : "New York",
  "state" : "NY",
  "area" : "Staten Island"
}
{
  "user_id" : 142,
  "zipcode" : 10889,
  "latitude" : 40.110878,
  "longitude" : -74.35749,
  "city" : "New York",
  "state" : "NY",
  "area" : "Staten Island"
}
{
  "user_id" : 546,
  "zipcode" : 10531,
  "latitude" : 40.69991,
  "longitude" : -73.62188,
  "city" : "New York",
  "state" : "NY",
  "area" : "Manhattan"
}
{
  "user_id" : 378,
  "zipcode" : 10539,
  "latitude" : 39.158775,
  "longitude" : -74.980835,
  "city" : "New York",
  "state" : "NY",
  "area" : "Manhattan"
}
{
  "user_id" : 960,
  "zipcode" : 10826,
  "latitude" : 39.676304,
  "longitude" : -73.524704,
  "city" : "New York",
  "state" : "NY",
  "area" : "The Bronx"
}
{
  "user_id" : 887,
  "zipcode" : 10412,
  "latitude" : 39.07158,
  "longitude" : -73.501205,
  "city" : "New York",
  "state" : "NY",
  "area" : "Brooklyn"
}
{
  "user_id" : 374,
  "zipcode" : 10406,
  "latitude" : 39.625008,
  "longitude" : -73.8659,
  "city" : "New York",
  "state" : "NY",
  "area" : "Queens"
}
{
  "user_id" : 318,
  "zipcode" : 10152,
  "latitude" : 39.47101,
  "longitude" : -73.02441,
  "city" : "New York",
  "state" : "NY",
  "area" : "Queens"
}
{
  "user_id" : 266,
  "zipcode" : 10914,
  "latitude" : 40.851364,
  "longitude" : -74.83327,
  "city" : "New York",
  "state" : "NY",
  "area" : "Queens"
}
{
  "user_id" : 781,
  "zipcode" : 10870,
  "latitude" : 39.664433,
  "longitude" : -73.62736,
  "city" : "New York",
  "state" : "NY",
  "area" : "Brooklyn"
}
{
  "user_id" : 831,
  "zipcode" : 10100,
  "latitude" : 39.911835,
  "longitude" : -74.15437,
  "city" : "New York",
  "state" : "NY",
  "area" : "Staten Island"
}
{
  "user_id" : 434,
  "zipcode" : 10241,
  "latitude" : 40.751755,
  "longitude" : -74.31704,
  "city" : "New York",
  "state" : "NY",
  "area" : "Queens"
}
{
  "user_id" : 484,
  "zipcode" : 10314,
  "latitude" : 40.862926,
  "longitude" : -74.26028,
  "city" : "New York",
  "state" : "NY",
  "area" : "Queens"
}
{
  "user_id" : 329,
  "zipcode" : 10173,
  "latitude" : 39.17886,
  "longitude" : -74.0745,
  "city" : "New York",
  "state" : "NY",
  "area" : "Manhattan"
}
{
  "user_id" : 931,
  "zipcode" : 10130,
  "latitude" : 39.14694,
  "longitude" : -73.31432,
  "city" : "New York",
  "state" : "NY",
  "area" : "Staten Island"
}
{
  "user_id" : 612,
  "zipcode" : 11062,
  "latitude" : 39.349728,
  "longitude" : -73.33556,
  "city" : "New York",
  "state" : "NY",
  "area" : "The Bronx"
}
{
  "user_id" : 136,
  "zipcode" : 10179,
  "latitude" : 39.82979,
  "longitude" : -73.21949,
  "city" : "New York",
  "state" : "NY",
  "area" : "Brooklyn"
}
{
  "user_id" : 566,
  "zipcode" : 10786,
  "latitude" : 40.572346,
  "longitude" : -73.56563,
  "city" : "New York",
  "state" : "NY",
  "area" : "Staten Island"
}
{
  "user_id" : 316,
  "zipcode" : 10785,
  "latitude" : 39.278732,
  "longitude" : -73.1925,
  "city" : "New York",
  "state" : "NY",
  "area" : "Brooklyn"
}
{
  "user_id" : 748,
  "zipcode" : 10323,
  "latitude" : 39.35346,
  "longitude" : -74.49785,
  "city" : "New York",
  "state" : "NY",
  "area" : "Queens"
}
{
  "user_id" : 905,
  "zipcode" : 10924,
  "latitude" : 40.887962,
  "longitude" : -73.43725,
  "city" : "New York",
  "state" : "NY",
  "area" : "Brooklyn"
}
{
  "user_id" : 927,
  "zipcode" : 10185,
  "latitude" : 40.32181,
  "longitude" : -74.60035,
  "city" : "New York",
  "state" : "NY",
  "area" : "Manhattan"
}
{
  "user_id" : 223,
  "zipcode" : 10247,
  "latitude" : 39.028233,
  "longitude" : -73.60517,
  "city" : "New York",
  "state" : "NY",
  "area" : "Manhattan"
}
{
  "user_id" : 120,
  "zipcode" : 10839,
  "latitude" : 39.167603,
  "longitude" : -73.45295,
  "city" : "New York",
  "state" : "NY",
  "area" : "Staten Island"
}
{
  "user_id" : 896,
  "zipcode" : 10114,
  "latitude" : 39.200157,
  "longitude" : -74.850845,
  "city" : "New York",
  "state" : "NY",
  "area" : "Brooklyn"
}
{
  "user_id" : 339,
  "zipcode" : 10770,
  "latitude" : 39.518925,
  "longitude" : -73.9485,
  "city" : "New York",
  "state" : "NY",
  "area" : "Manhattan"
}
{
  "user_id" : 892,
  "zipcode" : 10140,
  "latitude" : 40.06208,
  "longitude" : -74.35692,
  "city" : "New York",
  "state" : "NY",
  "area" : "Manhattan"
}
{
  "user_id" : 328,
  "zipcode" : 10476,
  "latitude" : 39.03292,
  "longitude" : -74.49073,
  "city" : "New York",
  "state" : "NY",
  "area" : "Brooklyn"
}
{
  "user_id" : 432,
  "zipcode" : 10576,
  "latitude" : 40.776512,
  "longitude" : -73.5198,
  "city" : "New York",
  "state" : "NY",
  "area" : "Manhattan"
}
{
  "user_id" : 89,
  "zipcode" : 10434,
  "latitude" : 40.32633,
  "longitude" : -74.18257,
  "city" : "New York",
  "state" : "NY",
  "area" : "The Bronx"
}
{
  "user_id" : 148,
  "zipcode" : 10522,
  "latitude" : 40.625366,
  "longitude" : -74.14629,
  "city" : "New York",
  "state" : "NY",
  "area" : "Queens"
}
{
  "user_id" : 768,
  "zipcode" : 10021,
  "latitude" : 40.267113,
  "longitude" : -74.62543,
  "city" : "New York",
  "state" : "NY",
  "area" : "Staten Island"
}
{
  "user_id" : 462,
  "zipcode" : 10130,
  "latitude" : 39.70715,
  "longitude" : -73.08313,
  "city" : "New York",
  "state" : "NY",
  "area" : "Brooklyn"
}
{
  "user_id" : 845,
  "zipcode" : 10514,
  "latitude" : 40.71244,
  "longitude" : -74.852,
  "city" : "New York",
  "state" : "NY",
  "area" : "Brooklyn"
}
{
  "user_id" : 499,
  "zipcode" : 10953,
  "latitude" : 39.527985,
  "longitude" : -73.03167,
  "city" : "New York",
  "state" : "NY",
  "area" : "Brooklyn"
}
{
  "user_id" : 517,
  "zipcode" : 10639,
  "latitude" : 39.28647,
  "longitude" : -73.192215,
  "city" : "New York",
  "state" : "NY",
  "area" : "The Bronx"
}
{
  "user_id" : 9,
  "zipcode" : 10600,
  "latitude" : 40.103535,
  "longitude" : -73.64894,
  "city" : "New York",
  "state" : "NY",
  "area" : "Staten Island"
}
{
  "user_id" : 821,
  "zipcode" : 10081,
  "latitude" : 39.215996,
  "longitude" : -74.550575,
  "city" : "New York",
  "state" : "NY",
  "area" : "Manhattan"
}
{
  "user_id" : 723,
  "zipcode" : 10496,
  "latitude" : 40.845127,
  "longitude" : -73.799416,
  "city" : "New York",
  "state" : "NY",
  "area" : "Queens"
}
{
  "user_id" : 672,
  "zipcode" : 10601,
  "latitude" : 39.237904,
  "longitude" : -73.06574,
  "city" : "New York",
  "state" : "NY",
  "area" : "Staten Island"
}
{
  "user_id" : 688,
  "zipcode" : 10093,
  "latitude" : 39.666206,
  "longitude" : -73.45781,
  "city" : "New York",
  "state" : "NY",
  "area" : "The Bronx"
}
{
  "user_id" : 986,
  "zipcode" : 10160,
  "latitude" : 39.055187,
  "longitude" : -73.75881,
  "city" : "New York",
  "state" : "NY",
  "area" : "Brooklyn"
}
{
  "user_id" : 748,
  "zipcode" : 10495,
  "latitude" : 39.994274,
  "longitude" : -73.534256,
  "city" : "New York",
  "state" : "NY",
  "area" : "Queens"
}
{
  "user_id" : 870,
  "zipcode" : 11080,
  "latitude" : 40.16536,
  "longitude" : -73.53674,
  "city" : "New York",
  "state" : "NY",
  "area" : "Staten Island"
}
{
  "user_id" : 964,
  "zipcode" : 10974,
  "latitude" : 39.73326,
  "longitude" : -73.42764,
  "city" : "New York",
  "state" : "NY",
  "area" : "Queens"
}
{
  "user_id" : 232,
  "zipcode" : 10932,
  "latitude" : 39.793438,
  "longitude" : -74.17061,
  "city" : "New York",
  "state" : "NY",
  "area" : "Staten Island"
}
{
  "user_id" : 230,
  "zipcode" : 10574,
  "latitude" : 40.333836,
  "longitude" : -74.25597,
  "city" : "New York",
  "state" : "NY",
  "area" : "Manhattan"
}
{
  "user_id" : 824,
  "zipcode" : 10900,
  "latitude" : 40.048088,
  "longitude" : -74.1038,
  "city" : "New York",
  "state" : "NY",
  "area" : "Brooklyn"
}
{
  "user_id" : 535,
  "zipcode" : 10117,
  "latitude" : 40.341366,
  "longitude" : -73.56715,
  "city" : "New York",
  "state" : "NY",
  "area" : "Queens"
}
{
  "user_id" : 461,
  "zipcode" : 10121,
  "latitude" : 40.014584,
  "longitude" : -74.17588,
  "city" : "New York",
  "state" : "NY",
  "area" : "The Bronx"
}
{
  "user_id" : 241,
  "zipcode" : 10228,
  "latitude" : 40.71898,
  "longitude" : -73.319916,
  "city" : "New York",
  "state" : "NY",
  "area" : "The Bronx"
}
{
  "user_id" : 541,
  "zipcode" : 10815,
  "latitude" : 39.43099,
  "longitude" : -74.06096,
  "city" : "New York",
  "state" : "NY",
  "area" : "Queens"
}
{
  "user_id" : 676,
  "zipcode" : 11076,
  "latitude" : 39.203804,
  "longitude" : -74.13522,
  "city" : "New York",
  "state" : "NY",
  "area" : "Staten Island"
}
{
  "user_id" : 936,
  "zipcode" : 10097,
  "latitude" : 39.960175,
  "longitude" : -74.42018,
  "city" : "New York",
  "state" : "NY",
  "area" : "Brooklyn"
}
{
  "user_id" : 415,
  "zipcode" : 10225,
  "latitude" : 40.95646,
  "longitude" : -74.886826,
  "city" : "New York",
  "state" : "NY",
  "area" : "Staten Island"
}
{
  "user_id" : 752,
  "zipcode" : 10158,
  "latitude" : 40.52606,
  "longitude" : -73.86423,
  "city" : "New York",
  "state" : "NY",
  "area" : "Staten Island"
}
{
  "user_id" : 832,
  "zipcode" : 10798,
  "latitude" : 40.56455,
  "longitude" : -73.81353,
  "city" : "New York",
  "state" : "NY",
  "area" : "Queens"
}
{
  "user_id" : 264,
  "zipcode" : 10186,
  "latitude" : 40.163372,
  "longitude" : -74.773346,
  "city" : "New York",
  "state" : "NY",
  "area" : "The Bronx"
}
{
  "user_id" : 84,
  "zipcode" : 10507,
  "latitude" : 40.51214,
  "longitude" : -74.999756,
  "city" : "New York",
  "state" : "NY",
  "area" : "Manhattan"
}
{
  "user_id" : 97,
  "zipcode" : 10758,
  "latitude" : 40.06171,
  "longitude" : -73.384766,
  "city" : "New York",
  "state" : "NY",
  "area" : "Manhattan"
}
{
  "user_id" : 621,
  "zipcode" : 10349,
  "latitude" : 39.141277,
  "longitude" : -73.63429,
  "city" : "New York",
  "state" : "NY",
  "area" : "The Bronx"
}
{
  "user_id" : 604,
  "zipcode" : 11068,
  "latitude" : 40.005802,
  "longitude" : -73.702545,
  "city" : "New York",
  "state" : "NY",
  "area" : "Queens"
}
{
  "user_id" : 821,
  "zipcode" : 10895,
  "latitude" : 39.612625,
  "longitude" : -73.35647,
  "city" : "New York",
  "state" : "NY",
  "area" : "Staten Island"
}
{
  "user_id" : 543,
  "zipcode" : 10807,
  "latitude" : 40.412296,
  "longitude" : -74.81923,
  "city" : "New York",
  "state" : "NY",
  "area" : "Brooklyn"
}
{
  "user_id" : 359,
  "zipcode" : 10606,
  "latitude" : 39.37216,
  "longitude" : -73.141785,
  "city" : "New York",
  "state" : "NY",
  "area" : "Queens"
}
{
  "user_id" : 199,
  "zipcode" : 11066,
  "latitude" : 40.460518,
  "longitude" : -73.77237,
  "city" : "New York",
  "state" : "NY",
  "area" : "Queens"
}
{
  "user_id" : 293,
  "zipcode" : 11083,
  "latitude" : 39.798466,
  "longitude" : -73.7703,
  "city" : "New York",
  "state" : "NY",
  "area" : "Queens"
}
{
  "user_id" : 436,
  "zipcode" : 10193,
  "latitude" : 40.929478,
  "longitude" : -74.20936,
  "city" : "New York",
  "state" : "NY",
  "area" : "Staten Island"
}
{
  "user_id" : 293,
  "zipcode" : 10993,
  "latitude" : 39.011627,
  "longitude" : -74.53649,
  "city" : "New York",
  "state" : "NY",
  "area" : "Manhattan"
}
{
  "user_id" : 537,
  "zipcode" : 10231,
  "latitude" : 40.60703,
  "longitude" : -74.81366,
  "city" : "New York",
  "state" : "NY",
  "area" : "Brooklyn"
}
{
  "user_id" : 801,
  "zipcode" : 10291,
  "latitude" : 39.563343,
  "longitude" : -73.45356,
  "city" : "New York",
  "state" : "NY",
  "area" : "Staten Island"
}
{
  "user_id" : 563,
  "zipcode" : 10863,
  "latitude" : 39.351185,
  "longitude" : -73.17509,
  "city" : "New York",
  "state" : "NY",
  "area" : "Manhattan"
}
{
  "user_id" : 18,
  "zipcode" : 10011,
  "latitude" : 39.89009,
  "longitude" : -73.21971,
  "city" : "New York",
  "state" : "NY",
  "area" : "Queens"
}
{
  "user_id" : 444,
  "zipcode" : 10341,
  "latitude" : 39.76043,
  "longitude" : -73.96364,
  "city" : "New York",
  "state" : "NY",
  "area" : "Queens"
}
{
  "user_id" : 961,
  "zipcode" : 10940,
  "latitude" : 40.766758,
  "longitude" : -74.85841,
  "city" : "New York",
  "state" : "NY",
  "area" : "Brooklyn"
}
{
  "user_id" : 720,
  "zipcode" : 11092,
  "latitude" : 39.771057,
  "longitude" : -73.00822,
  "city" : "New York",
  "state" : "NY",
  "area" : "Brooklyn"
}
{
  "user_id" : 755,
  "zipcode" : 11008,
  "latitude" : 40.00464,
  "longitude" : -74.18324,
  "city" : "New York",
  "state" : "NY",
  "area" : "Brooklyn"
}
{
  "user_id" : 509,
  "zipcode" : 10131,
  "latitude" : 40.09933,
  "longitude" : -74.247154,
  "city" : "New York",
  "state" : "NY",
  "area" : "Brooklyn"
}
{
  "user_id" : 897,
  "zipcode" : 10871,
  "latitude" : 40.631824,
  "longitude" : -73.94019,
  "city" : "New York",
  "state" : "NY",
  "area" : "Staten Island"
}
{
  "user_id" : 950,
  "zipcode" : 10004,
  "latitude" : 39.155598,
  "longitude" : -73.095856,
  "city" : "New York",
  "state" : "NY",
  "area" : "Manhattan"
}
{
  "user_id" : 737,
  "zipcode" : 10561,
  "latitude" : 40.71566,
  "longitude" : -74.626236,
  "city" : "New York",
  "state" : "NY",
  "area" : "The Bronx"
}
{
  "user_id" : 269,
  "zipcode" : 10495,
  "latitude" : 40.766617,
  "longitude" : -73.33002,
  "city" : "New York",
  "state" : "NY",
  "area" : "Staten Island"
}
{
  "user_id" : 274,
  "zipcode" : 10489,
  "latitude" : 39.212486,
  "longitude" : -74.77848,
  "city" : "New York",
  "state" : "NY",
  "area" : "Brooklyn"
}
{
  "user_id" : 804,
  "zipcode" : 10820,
  "latitude" : 39.69785,
  "longitude" : -73.60108,
  "city" : "New York",
  "state" : "NY",
  "area" : "The Bronx"
}
{
  "user_id" : 320,
  "zipcode" : 10205,
  "latitude" : 39.893456,
  "longitude" : -73.67559,
  "city" : "New York",
  "state" : "NY",
  "area" : "The Bronx"
}
{
  "user_id" : 109,
  "zipcode" : 10808,
  "latitude" : 40.718884,
  "longitude" : -73.43333,
  "city" : "New York",
  "state" : "NY",
  "area" : "Staten Island"
}
{
  "user_id" : 867,
  "zipcode" : 10898,
  "latitude" : 39.8937,
  "longitude" : -73.75864,
  "city" : "New York",
  "state" : "NY",
  "area" : "Queens"
}
{
  "user_id" : 631,
  "zipcode" : 10316,
  "latitude" : 39.452484,
  "longitude" : -73.24984,
  "city" : "New York",
  "state" : "NY",
  "area" : "Staten Island"
}
{
  "user_id" : 434,
  "zipcode" : 10030,
  "latitude" : 40.625217,
  "longitude" : -73.37772,
  "city" : "New York",
  "state" : "NY",
  "area" : "Queens"
}
{
  "user_id" : 155,
  "zipcode" : 10028,
  "latitude" : 40.686913,
  "longitude" : -74.77636,
  "city" : "New York",
  "state" : "NY",
  "area" : "The Bronx"
}
{
  "user_id" : 720,
  "zipcode" : 10108,
  "latitude" : 39.71331,
  "longitude" : -73.579895,
  "city" : "New York",
  "state" : "NY",
  "area" : "The Bronx"
}
{
  "user_id" : 673,
  "zipcode" : 11007,
  "latitude" : 40.41983,
  "longitude" : -73.25197,
  "city" : "New York",
  "state" : "NY",
  "area" : "Brooklyn"
}
{
  "user_id" : 651,
  "zipcode" : 10463,
  "latitude" : 39.324276,
  "longitude" : -73.552574,
  "city" : "New York",
  "state" : "NY",
  "area" : "Staten Island"
}
{
  "user_id" : 414,
  "zipcode" : 10277,
  "latitude" : 40.95951,
  "longitude" : -73.15623,
  "city" : "New York",
  "state" : "NY",
  "area" : "Brooklyn"
}
{
  "user_id" : 755,
  "zipcode" : 10770,
  "latitude" : 40.78633,
  "longitude" : -73.659355,
  "city" : "New York",
  "state" : "NY",
  "area" : "Manhattan"
}
{
  "user_id" : 243,
  "zipcode" : 10902,
  "latitude" : 39.405586,
  "longitude" : -73.08466,
  "city" : "New York",
  "state" : "NY",
  "area" : "The Bronx"
}
{
  "user_id" : 736,
  "zipcode" : 10984,
  "latitude" : 40.57861,
  "longitude" : -73.58239,
  "city" : "New York",
  "state" : "NY",
  "area" : "Staten Island"
}
{
  "user_id" : 970,
  "zipcode" : 10573,
  "latitude" : 40.200943,
  "longitude" : -73.936,
  "city" : "New York",
  "state" : "NY",
  "area" : "Staten Island"
}
{
  "user_id" : 131,
  "zipcode" : 10233,
  "latitude" : 40.872932,
  "longitude" : -74.83096,
  "city" : "New York",
  "state" : "NY",
  "area" : "Staten Island"
}
{
  "user_id" : 834,
  "zipcode" : 10233,
  "latitude" : 39.103455,
  "longitude" : -74.82084,
  "city" : "New York",
  "state" : "NY",
  "area" : "Staten Island"
}
{
  "user_id" : 897,
  "zipcode" : 10439,
  "latitude" : 39.164673,
  "longitude" : -73.76995,
  "city" : "New York",
  "state" : "NY",
  "area" : "Staten Island"
}
{
  "user_id" : 210,
  "zipcode" : 10117,
  "latitude" : 40.949306,
  "longitude" : -73.57843,
  "city" : "New York",
  "state" : "NY",
  "area" : "Staten Island"
}
{
  "user_id" : 118,
  "zipcode" : 10157,
  "latitude" : 40.943996,
  "longitude" : -74.22603,
  "city" : "New York",
  "state" : "NY",
  "area" : "Manhattan"
}
{
  "user_id" : 793,
  "zipcode" : 10684,
  "latitude" : 40.61174,
  "longitude" : -73.59398,
  "city" : "New York",
  "state" : "NY",
  "area" : "The Bronx"
}
{
  "user_id" : 428,
  "zipcode" : 10219,
  "latitude" : 39.69692,
  "longitude" : -74.15894,
  "city" : "New York",
  "state" : "NY",
  "area" : "The Bronx"
}
{
  "user_id" : 301,
  "zipcode" : 10587,
  "latitude" : 39.0165,
  "longitude" : -74.42799,
  "city" : "New York",
  "state" : "NY",
  "area" : "Queens"
}
{
  "user_id" : 463,
  "zipcode" : 10924,
  "latitude" : 39.52689,
  "longitude" : -73.84158,
  "city" : "New York",
  "state" : "NY",
  "area" : "Manhattan"
}
{
  "user_id" : 397,
  "zipcode" : 10125,
  "latitude" : 39.33979,
  "longitude" : -73.82494,
  "city" : "New York",
  "state" : "NY",
  "area" : "Brooklyn"
}
{
  "user_id" : 849,
  "zipcode" : 11051,
  "latitude" : 40.27537,
  "longitude" : -73.37173,
  "city" : "New York",
  "state" : "NY",
  "area" : "Brooklyn"
}
{
  "user_id" : 844,
  "zipcode" : 10104,
  "latitude" : 39.823807,
  "longitude" : -73.42629,
  "city" : "New York",
  "state" : "NY",
  "area" : "Manhattan"
}
{
  "user_id" : 686,
  "zipcode" : 10010,
  "latitude" : 39.505024,
  "longitude" : -73.372955,
  "city" : "New York",
  "state" : "NY",
  "area" : "Brooklyn"
}
{
  "user_id" : 329,
  "zipcode" : 10379,
  "latitude" : 39.48021,
  "longitude" : -74.13397,
  "city" : "New York",
  "state" : "NY",
  "area" : "Queens"
}
{
  "user_id" : 550,
  "zipcode" : 10164,
  "latitude" : 39.15727,
  "longitude" : -74.389565,
  "city" : "New York",
  "state" : "NY",
  "area" : "Queens"
}
{
  "user_id" : 744,
  "zipcode" : 10175,
  "latitude" : 40.27,
  "longitude" : -73.280846,
  "city" : "New York",
  "state" : "NY",
  "area" : "Queens"
}
{
  "user_id" : 636,
  "zipcode" : 10713,
  "latitude" : 40.02461,
  "longitude" : -74.569954,
  "city" : "New York",
  "state" : "NY",
  "area" : "Queens"
}
{
  "user_id" : 847,
  "zipcode" : 10157,
  "latitude" : 40.06851,
  "longitude" : -73.02933,
  "city" : "New York",
  "state" : "NY",
  "area" : "Manhattan"
}
{
  "user_id" : 919,
  "zipcode" : 10767,
  "latitude" : 40.369106,
  "longitude" : -74.67442,
  "city" : "New York",
  "state" : "NY",
  "area" : "Staten Island"
}
{
  "user_id" : 479,
  "zipcode" : 10016,
  "latitude" : 40.457306,
  "longitude" : -74.94872,
  "city" : "New York",
  "state" : "NY",
  "area" : "Staten Island"
}
{
  "user_id" : 504,
  "zipcode" : 10022,
  "latitude" : 39.139057,
  "longitude" : -74.67734,
  "city" : "New York",
  "state" : "NY",
  "area" : "Queens"
}
{
  "user_id" : 180,
  "zipcode" : 10148,
  "latitude" : 39.429745,
  "longitude" : -73.08,
  "city" : "New York",
  "state" : "NY",
  "area" : "Brooklyn"
}
{
  "user_id" : 856,
  "zipcode" : 10430,
  "latitude" : 39.7788,
  "longitude" : -74.59917,
  "city" : "New York",
  "state" : "NY",
  "area" : "Staten Island"
}
{
  "user_id" : 763,
  "zipcode" : 10053,
  "latitude" : 39.317276,
  "longitude" : -73.51772,
  "city" : "New York",
  "state" : "NY",
  "area" : "Staten Island"
}
{
  "user_id" : 70,
  "zipcode" : 11103,
  "latitude" : 40.985264,
  "longitude" : -73.78989,
  "city" : "New York",
  "state" : "NY",
  "area" : "Staten Island"
}
{
  "user_id" : 125,
  "zipcode" : 10021,
  "latitude" : 39.484776,
  "longitude" : -73.38729,
  "city" : "New York",
  "state" : "NY",
  "area" : "Staten Island"
}
{
  "user_id" : 781,
  "zipcode" : 10196,
  "latitude" : 39.481537,
  "longitude" : -73.89933,
  "city" : "New York",
  "state" : "NY",
  "area" : "Staten Island"
}
{
  "user_id" : 737,
  "zipcode" : 10143,
  "latitude" : 39.611237,
  "longitude" : -74.26093,
  "city" : "New York",
  "state" : "NY",
  "area" : "Manhattan"
}
{
  "user_id" : 824,
  "zipcode" : 10302,
  "latitude" : 40.606937,
  "longitude" : -73.38352,
  "city" : "New York",
  "state" : "NY",
  "area" : "Manhattan"
}
{
  "user_id" : 549,
  "zipcode" : 10630,
  "latitude" : 40.076126,
  "longitude" : -73.783844,
  "city" : "New York",
  "state" : "NY",
  "area" : "Manhattan"
}
{
  "user_id" : 912,
  "zipcode" : 10303,
  "latitude" : 39.466312,
  "longitude" : -74.46125,
  "city" : "New York",
  "state" : "NY",
  "area" : "Queens"
}
{
  "user_id" : 688,
  "zipcode" : 10494,
  "latitude" : 39.064335,
  "longitude" : -74.11508,
  "city" : "New York",
  "state" : "NY",
  "area" : "Manhattan"
}
{
  "user_id" : 974,
  "zipcode" : 10270,
  "latitude" : 39.270622,
  "longitude" : -73.41327,
  "city" : "New York",
  "state" : "NY",
  "area" : "Manhattan"
}
{
  "user_id" : 685,
  "zipcode" : 10937,
  "latitude" : 39.950485,
  "longitude" : -74.79013,
  "city" : "New York",
  "state" : "NY",
  "area" : "Staten Island"
}
{
  "user_id" : 807,
  "zipcode" : 10455,
  "latitude" : 40.00298,
  "longitude" : -74.9907,
  "city" : "New York",
  "state" : "NY",
  "area" : "Brooklyn"
}
{
  "user_id" : 699,
  "zipcode" : 10691,
  "latitude" : 40.568287,
  "longitude" : -73.619835,
  "city" : "New York",
  "state" : "NY",
  "area" : "Staten Island"
}
{
  "user_id" : 880,
  "zipcode" : 10903,
  "latitude" : 40.292793,
  "longitude" : -73.57846,
  "city" : "New York",
  "state" : "NY",
  "area" : "Queens"
}
{
  "user_id" : 375,
  "zipcode" : 11102,
  "latitude" : 40.233192,
  "longitude" : -74.39933,
  "city" : "New York",
  "state" : "NY",
  "area" : "The Bronx"
}
{
  "user_id" : 417,
  "zipcode" : 10922,
  "latitude" : 39.63322,
  "longitude" : -74.3279,
  "city" : "New York",
  "state" : "NY",
  "area" : "The Bronx"
}
{
  "user_id" : 566,
  "zipcode" : 10766,
  "latitude" : 39.90391,
  "longitude" : -73.7008,
  "city" : "New York",
  "state" : "NY",
  "area" : "Staten Island"
}
{
  "user_id" : 938,
  "zipcode" : 10843,
  "latitude" : 39.32636,
  "longitude" : -74.36834,
  "city" : "New York",
  "state" : "NY",
  "area" : "Staten Island"
}
{
  "user_id" : 649,
  "zipcode" : 10355,
  "latitude" : 40.737637,
  "longitude" : -73.161896,
  "city" : "New York",
  "state" : "NY",
  "area" : "The Bronx"
}
{
  "user_id" : 55,
  "zipcode" : 10488,
  "latitude" : 39.20612,
  "longitude" : -73.84815,
  "city" : "New York",
  "state" : "NY",
  "area" : "Manhattan"
}
{
  "user_id" : 753,
  "zipcode" : 10990,
  "latitude" : 40.64316,
  "longitude" : -73.05101,
  "city" : "New York",
  "state" : "NY",
  "area" : "Staten Island"
}
{
  "user_id" : 928,
  "zipcode" : 10621,
  "latitude" : 39.837242,
  "longitude" : -73.88712,
  "city" : "New York",
  "state" : "NY",
  "area" : "Queens"
}
{
  "user_id" : 381,
  "zipcode" : 10010,
  "latitude" : 40.01332,
  "longitude" : -74.68909,
  "city" : "New York",
  "state" : "NY",
  "area" : "The Bronx"
}
{
  "user_id" : 483,
  "zipcode" : 10217,
  "latitude" : 39.243073,
  "longitude" : -74.56472,
  "city" : "New York",
  "state" : "NY",
  "area" : "Manhattan"
}
{
  "user_id" : 868,
  "zipcode" : 10166,
  "latitude" : 39.552002,
  "longitude" : -73.44981,
  "city" : "New York",
  "state" : "NY",
  "area" : "Manhattan"
}
{
  "user_id" : 739,
  "zipcode" : 10281,
  "latitude" : 39.51392,
  "longitude" : -74.127716,
  "city" : "New York",
  "state" : "NY",
  "area" : "Queens"
}
{
  "user_id" : 37,
  "zipcode" : 10343,
  "latitude" : 40.051052,
  "longitude" : -73.948235,
  "city" : "New York",
  "state" : "NY",
  "area" : "The Bronx"
}
{
  "user_id" : 455,
  "zipcode" : 11031,
  "latitude" : 39.753624,
  "longitude" : -74.37919,
  "city" : "New York",
  "state" : "NY",
  "area" : "Staten Island"
}
{
  "user_id" : 67,
  "zipcode" : 10187,
  "latitude" : 39.59572,
  "longitude" : -73.557625,
  "city" : "New York",
  "state" : "NY",
  "area" : "The Bronx"
}
{
  "user_id" : 866,
  "zipcode" : 10694,
  "latitude" : 39.75265,
  "longitude" : -74.07383,
  "city" : "New York",
  "state" : "NY",
  "area" : "The Bronx"
}
{
  "user_id" : 185,
  "zipcode" : 10566,
  "latitude" : 40.588684,
  "longitude" : -74.90758,
  "city" : "New York",
  "state" : "NY",
  "area" : "Staten Island"
}
{
  "user_id" : 498,
  "zipcode" : 10060,
  "latitude" : 39.188908,
  "longitude" : -74.14356,
  "city" : "New York",
  "state" : "NY",
  "area" : "Manhattan"
}
{
  "user_id" : 480,
  "zipcode" : 10576,
  "latitude" : 40.619686,
  "longitude" : -74.66445,
  "city" : "New York",
  "state" : "NY",
  "area" : "Staten Island"
}
{
  "user_id" : 887,
  "zipcode" : 10776,
  "latitude" : 39.5883,
  "longitude" : -74.86089,
  "city" : "New York",
  "state" : "NY",
  "area" : "Staten Island"
}
{
  "user_id" : 297,
  "zipcode" : 10384,
  "latitude" : 40.209064,
  "longitude" : -73.99987,
  "city" : "New York",
  "state" : "NY",
  "area" : "Staten Island"
}
{
  "user_id" : 982,
  "zipcode" : 10689,
  "latitude" : 40.780926,
  "longitude" : -73.642975,
  "city" : "New York",
  "state" : "NY",
  "area" : "Queens"
}
{
  "user_id" : 341,
  "zipcode" : 10497,
  "latitude" : 40.9194,
  "longitude" : -74.88985,
  "city" : "New York",
  "state" : "NY",
  "area" : "Staten Island"
}
{
  "user_id" : 98,
  "zipcode" : 11001,
  "latitude" : 39.71585,
  "longitude" : -73.160095,
  "city" : "New York",
  "state" : "NY",
  "area" : "The Bronx"
}
{
  "user_id" : 187,
  "zipcode" : 10651,
  "latitude" : 40.26257,
  "longitude" : -73.27548,
  "city" : "New York",
  "state" : "NY",
  "area" : "Manhattan"
}
{
  "user_id" : 854,
  "zipcode" : 10930,
  "latitude" : 40.372356,
  "longitude" : -74.704544,
  "city" : "New York",
  "state" : "NY",
  "area" : "Staten Island"
}
{
  "user_id" : 16,
  "zipcode" : 10969,
  "latitude" : 39.60897,
  "longitude" : -73.49357,
  "city" : "New York",
  "state" : "NY",
  "area" : "The Bronx"
}
{
  "user_id" : 905,
  "zipcode" : 11100,
  "latitude" : 39.07277,
  "longitude" : -74.254456,
  "city" : "New York",
  "state" : "NY",
  "area" : "Staten Island"
}
{
  "user_id" : 67,
  "zipcode" : 10212,
  "latitude" : 40.105114,
  "longitude" : -74.23985,
  "city" : "New York",
  "state" : "NY",
  "area" : "Staten Island"
}
{
  "user_id" : 69,
  "zipcode" : 10849,
  "latitude" : 40.823307,
  "longitude" : -74.9094,
  "city" : "New York",
  "state" : "NY",
  "area" : "Brooklyn"
}
{
  "user_id" : 46,
  "zipcode" : 10299,
  "latitude" : 40.237694,
  "longitude" : -73.53857,
  "city" : "New York",
  "state" : "NY",
  "area" : "Manhattan"
}
{
  "user_id" : 231,
  "zipcode" : 11026,
  "latitude" : 39.11057,
  "longitude" : -73.08149,
  "city" : "New York",
  "state" : "NY",
  "area" : "The Bronx"
}
{
  "user_id" : 677,
  "zipcode" : 10276,
  "latitude" : 40.40029,
  "longitude" : -73.417946,
  "city" : "New York",
  "state" : "NY",
  "area" : "Queens"
}
{
  "user_id" : 328,
  "zipcode" : 10238,
  "latitude" : 40.049385,
  "longitude" : -73.945465,
  "city" : "New York",
  "state" : "NY",
  "area" : "Manhattan"
}
{
  "user_id" : 261,
  "zipcode" : 10460,
  "latitude" : 40.187527,
  "longitude" : -73.1487,
  "city" : "New York",
  "state" : "NY",
  "area" : "Staten Island"
}
{
  "user_id" : 899,
  "zipcode" : 10786,
  "latitude" : 40.939774,
  "longitude" : -74.29892,
  "city" : "New York",
  "state" : "NY",
  "area" : "Brooklyn"
}
{
  "user_id" : 118,
  "zipcode" : 10091,
  "latitude" : 39.12973,
  "longitude" : -74.32966,
  "city" : "New York",
  "state" : "NY",
  "area" : "Queens"
}
{
  "user_id" : 223,
  "zipcode" : 10771,
  "latitude" : 40.092697,
  "longitude" : -74.69742,
  "city" : "New York",
  "state" : "NY",
  "area" : "Brooklyn"
}
{
  "user_id" : 557,
  "zipcode" : 11097,
  "latitude" : 39.613678,
  "longitude" : -73.240715,
  "city" : "New York",
  "state" : "NY",
  "area" : "Brooklyn"
}
{
  "user_id" : 682,
  "zipcode" : 10431,
  "latitude" : 40.33145,
  "longitude" : -74.5059,
  "city" : "New York",
  "state" : "NY",
  "area" : "Brooklyn"
}
{
  "user_id" : 286,
  "zipcode" : 10401,
  "latitude" : 40.482304,
  "longitude" : -73.434044,
  "city" : "New York",
  "state" : "NY",
  "area" : "The Bronx"
}
{
  "user_id" : 100,
  "zipcode" : 10519,
  "latitude" : 40.777283,
  "longitude" : -74.530785,
  "city" : "New York",
  "state" : "NY",
  "area" : "Brooklyn"
}
{
  "user_id" : 426,
  "zipcode" : 10253,
  "latitude" : 40.07553,
  "longitude" : -74.817535,
  "city" : "New York",
  "state" : "NY",
  "area" : "Staten Island"
}
{
  "user_id" : 601,
  "zipcode" : 10671,
  "latitude" : 40.727985,
  "longitude" : -74.78468,
  "city" : "New York",
  "state" : "NY",
  "area" : "The Bronx"
}
{
  "user_id" : 968,
  "zipcode" : 10406,
  "latitude" : 40.60151,
  "longitude" : -73.81333,
  "city" : "New York",
  "state" : "NY",
  "area" : "The Bronx"
}
{
  "user_id" : 863,
  "zipcode" : 11018,
  "latitude" : 39.408432,
  "longitude" : -74.78469,
  "city" : "New York",
  "state" : "NY",
  "area" : "The Bronx"
}
{
  "user_id" : 475,
  "zipcode" : 10802,
  "latitude" : 39.462303,
  "longitude" : -74.84354,
  "city" : "New York",
  "state" : "NY",
  "area" : "The Bronx"
}
{
  "user_id" : 201,
  "zipcode" : 10650,
  "latitude" : 40.363304,
  "longitude" : -73.22252,
  "city" : "New York",
  "state" : "NY",
  "area" : "Queens"
}
{
  "user_id" : 433,
  "zipcode" : 10273,
  "latitude" : 40.067337,
  "longitude" : -73.99745,
  "city" : "New York",
  "state" : "NY",
  "area" : "The Bronx"
}
{
  "user_id" : 457,
  "zipcode" : 10709,
  "latitude" : 40.627464,
  "longitude" : -73.73356,
  "city" : "New York",
  "state" : "NY",
  "area" : "Queens"
}
{
  "user_id" : 992,
  "zipcode" : 10956,
  "latitude" : 40.669056,
  "longitude" : -74.25403,
  "city" : "New York",
  "state" : "NY",
  "area" : "Brooklyn"
}
{
  "user_id" : 677,
  "zipcode" : 10619,
  "latitude" : 40.008602,
  "longitude" : -73.8802,
  "city" : "New York",
  "state" : "NY",
  "area" : "The Bronx"
}
{
  "user_id" : 513,
  "zipcode" : 10938,
  "latitude" : 40.43744,
  "longitude" : -73.91956,
  "city" : "New York",
  "state" : "NY",
  "area" : "The Bronx"
}
{
  "user_id" : 604,
  "zipcode" : 10301,
  "latitude" : 40.447617,
  "longitude" : -74.795586,
  "city" : "New York",
  "state" : "NY",
  "area" : "Staten Island"
}
{
  "user_id" : 920,
  "zipcode" : 10029,
  "latitude" : 40.95253,
  "longitude" : -74.87367,
  "city" : "New York",
  "state" : "NY",
  "area" : "Brooklyn"
}
{
  "user_id" : 887,
  "zipcode" : 10900,
  "latitude" : 39.21381,
  "longitude" : -74.48549,
  "city" : "New York",
  "state" : "NY",
  "area" : "Staten Island"
}
{
  "user_id" : 921,
  "zipcode" : 10887,
  "latitude" : 40.791416,
  "longitude" : -74.05788,
  "city" : "New York",
  "state" : "NY",
  "area" : "Manhattan"
}
{
  "user_id" : 14,
  "zipcode" : 10081,
  "latitude" : 40.221294,
  "longitude" : -74.73303,
  "city" : "New York",
  "state" : "NY",
  "area" : "Queens"
}
{
  "user_id" : 157,
  "zipcode" : 10546,
  "latitude" : 39.627754,
  "longitude" : -73.74134,
  "city" : "New York",
  "state" : "NY",
  "area" : "The Bronx"
}
{
  "user_id" : 732,
  "zipcode" : 10202,
  "latitude" : 40.95978,
  "longitude" : -73.98411,
  "city" : "New York",
  "state" : "NY",
  "area" : "Manhattan"
}
{
  "user_id" : 297,
  "zipcode" : 10654,
  "latitude" : 40.28694,
  "longitude" : -74.34065,
  "city" : "New York",
  "state" : "NY",
  "area" : "Staten Island"
}
{
  "user_id" : 865,
  "zipcode" : 11071,
  "latitude" : 40.904438,
  "longitude" : -73.27734,
  "city" : "New York",
  "state" : "NY",
  "area" : "The Bronx"
}
{
  "user_id" : 797,
  "zipcode" : 10707,
  "latitude" : 39.296047,
  "longitude" : -74.592064,
  "city" : "New York",
  "state" : "NY",
  "area" : "Brooklyn"
}
{
  "user_id" : 298,
  "zipcode" : 10256,
  "latitude" : 40.904873,
  "longitude" : -74.85832,
  "city" : "New York",
  "state" : "NY",
  "area" : "Staten Island"
}
{
  "user_id" : 175,
  "zipcode" : 10780,
  "latitude" : 39.6789,
  "longitude" : -73.320656,
  "city" : "New York",
  "state" : "NY",
  "area" : "Brooklyn"
}
{
  "user_id" : 862,
  "zipcode" : 10422,
  "latitude" : 39.60118,
  "longitude" : -74.88687,
  "city" : "New York",
  "state" : "NY",
  "area" : "Manhattan"
}
{
  "user_id" : 219,
  "zipcode" : 10914,
  "latitude" : 39.070747,
  "longitude" : -74.77833,
  "city" : "New York",
  "state" : "NY",
  "area" : "Staten Island"
}
{
  "user_id" : 177,
  "zipcode" : 10196,
  "latitude" : 39.716267,
  "longitude" : -73.04854,
  "city" : "New York",
  "state" : "NY",
  "area" : "Staten Island"
}
{
  "user_id" : 803,
  "zipcode" : 11043,
  "latitude" : 39.66074,
  "longitude" : -73.88325,
  "city" : "New York",
  "state" : "NY",
  "area" : "The Bronx"
}
{
  "user_id" : 498,
  "zipcode" : 10664,
  "latitude" : 40.63421,
  "longitude" : -73.16459,
  "city" : "New York",
  "state" : "NY",
  "area" : "Queens"
}
{
  "user_id" : 813,
  "zipcode" : 10561,
  "latitude" : 40.141663,
  "longitude" : -73.68904,
  "city" : "New York",
  "state" : "NY",
  "area" : "Staten Island"
}
{
  "user_id" : 819,
  "zipcode" : 10103,
  "latitude" : 39.91709,
  "longitude" : -74.45478,
  "city" : "New York",
  "state" : "NY",
  "area" : "Queens"
}
{
  "user_id" : 909,
  "zipcode" : 10900,
  "latitude" : 40.00463,
  "longitude" : -74.72641,
  "city" : "New York",
  "state" : "NY",
  "area" : "Manhattan"
}
{
  "user_id" : 464,
  "zipcode" : 11024,
  "latitude" : 39.9668,
  "longitude" : -73.381,
  "city" : "New York",
  "state" : "NY",
  "area" : "Manhattan"
}
{
  "user_id" : 853,
  "zipcode" : 10890,
  "latitude" : 39.7531,
  "longitude" : -73.43162,
  "city" : "New York",
  "state" : "NY",
  "area" : "Staten Island"
}
{
  "user_id" : 783,
  "zipcode" : 10587,
  "latitude" : 40.13194,
  "longitude" : -73.764725,
  "city" : "New York",
  "state" : "NY",
  "area" : "Brooklyn"
}
{
  "user_id" : 192,
  "zipcode" : 10230,
  "latitude" : 40.704712,
  "longitude" : -74.899414,
  "city" : "New York",
  "state" : "NY",
  "area" : "Manhattan"
}
{
  "user_id" : 253,
  "zipcode" : 10504,
  "latitude" : 40.906742,
  "longitude" : -73.20991,
  "city" : "New York",
  "state" : "NY",
  "area" : "Brooklyn"
}
{
  "user_id" : 575,
  "zipcode" : 10099,
  "latitude" : 39.429188,
  "longitude" : -73.08428,
  "city" : "New York",
  "state" : "NY",
  "area" : "Staten Island"
}
{
  "user_id" : 604,
  "zipcode" : 10283,
  "latitude" : 39.234013,
  "longitude" : -73.00903,
  "city" : "New York",
  "state" : "NY",
  "area" : "Manhattan"
}
{
  "user_id" : 204,
  "zipcode" : 10990,
  "latitude" : 39.721657,
  "longitude" : -73.63552,
  "city" : "New York",
  "state" : "NY",
  "area" : "The Bronx"
}
{
  "user_id" : 208,
  "zipcode" : 10059,
  "latitude" : 39.88641,
  "longitude" : -74.43159,
  "city" : "New York",
  "state" : "NY",
  "area" : "Manhattan"
}
{
  "user_id" : 848,
  "zipcode" : 10205,
  "latitude" : 40.63623,
  "longitude" : -73.82518,
  "city" : "New York",
  "state" : "NY",
  "area" : "The Bronx"
}
{
  "user_id" : 567,
  "zipcode" : 10010,
  "latitude" : 40.626247,
  "longitude" : -73.38225,
  "city" : "New York",
  "state" : "NY",
  "area" : "Staten Island"
}
{
  "user_id" : 453,
  "zipcode" : 10783,
  "latitude" : 40.200634,
  "longitude" : -74.85804,
  "city" : "New York",
  "state" : "NY",
  "area" : "The Bronx"
}
{
  "user_id" : 335,
  "zipcode" : 10921,
  "latitude" : 40.504883,
  "longitude" : -74.323685,
  "city" : "New York",
  "state" : "NY",
  "area" : "Manhattan"
}
{
  "user_id" : 200,
  "zipcode" : 10985,
  "latitude" : 39.503864,
  "longitude" : -73.544586,
  "city" : "New York",
  "state" : "NY",
  "area" : "The Bronx"
}
{
  "user_id" : 996,
  "zipcode" : 10855,
  "latitude" : 39.447094,
  "longitude" : -74.93248,
  "city" : "New York",
  "state" : "NY",
  "area" : "Brooklyn"
}
{
  "user_id" : 32,
  "zipcode" : 10858,
  "latitude" : 40.056908,
  "longitude" : -73.34163,
  "city" : "New York",
  "state" : "NY",
  "area" : "The Bronx"
}
{
  "user_id" : 511,
  "zipcode" : 10653,
  "latitude" : 40.73566,
  "longitude" : -74.67272,
  "city" : "New York",
  "state" : "NY",
  "area" : "The Bronx"
}
{
  "user_id" : 773,
  "zipcode" : 10923,
  "latitude" : 39.6192,
  "longitude" : -73.70555,
  "city" : "New York",
  "state" : "NY",
  "area" : "Manhattan"
}
{
  "user_id" : 363,
  "zipcode" : 10047,
  "latitude" : 40.881233,
  "longitude" : -73.50222,
  "city" : "New York",
  "state" : "NY",
  "area" : "Queens"
}
{
  "user_id" : 868,
  "zipcode" : 10044,
  "latitude" : 40.11977,
  "longitude" : -74.30482,
  "city" : "New York",
  "state" : "NY",
  "area" : "Manhattan"
}
{
  "user_id" : 3,
  "zipcode" : 10530,
  "latitude" : 39.578007,
  "longitude" : -74.81876,
  "city" : "New York",
  "state" : "NY",
  "area" : "Staten Island"
}
{
  "user_id" : 675,
  "zipcode" : 10840,
  "latitude" : 39.05224,
  "longitude" : -73.01772,
  "city" : "New York",
  "state" : "NY",
  "area" : "Manhattan"
}
{
  "user_id" : 568,
  "zipcode" : 10050,
  "latitude" : 39.75936,
  "longitude" : -73.4267,
  "city" : "New York",
  "state" : "NY",
  "area" : "The Bronx"
}
{
  "user_id" : 316,
  "zipcode" : 10244,
  "latitude" : 40.277534,
  "longitude" : -74.89622,
  "city" : "New York",
  "state" : "NY",
  "area" : "Manhattan"
}
{
  "user_id" : 50,
  "zipcode" : 10440,
  "latitude" : 39.821583,
  "longitude" : -74.50961,
  "city" : "New York",
  "state" : "NY",
  "area" : "Queens"
}
{
  "user_id" : 23,
  "zipcode" : 10582,
  "latitude" : 40.863808,
  "longitude" : -73.42565,
  "city" : "New York",
  "state" : "NY",
  "area" : "The Bronx"
}
{
  "user_id" : 314,
  "zipcode" : 10050,
  "latitude" : 40.313946,
  "longitude" : -73.940094,
  "city" : "New York",
  "state" : "NY",
  "area" : "Staten Island"
}
{
  "user_id" : 972,
  "zipcode" : 10928,
  "latitude" : 40.611916,
  "longitude" : -74.78561,
  "city" : "New York",
  "state" : "NY",
  "area" : "The Bronx"
}
{
  "user_id" : 107,
  "zipcode" : 10533,
  "latitude" : 40.89649,
  "longitude" : -73.29621,
  "city" : "New York",
  "state" : "NY",
  "area" : "Queens"
}
{
  "user_id" : 695,
  "zipcode" : 10036,
  "latitude" : 39.492546,
  "longitude" : -73.70381,
  "city" : "New York",
  "state" : "NY",
  "area" : "The Bronx"
}
{
  "user_id" : 552,
  "zipcode" : 10422,
  "latitude" : 39.165146,
  "longitude" : -73.821846,
  "city" : "New York",
  "state" : "NY",
  "area" : "Queens"
}
{
  "user_id" : 461,
  "zipcode" : 10212,
  "latitude" : 40.843548,
  "longitude" : -73.02103,
  "city" : "New York",
  "state" : "NY",
  "area" : "Manhattan"
}
{
  "user_id" : 195,
  "zipcode" : 11029,
  "latitude" : 39.916874,
  "longitude" : -73.05136,
  "city" : "New York",
  "state" : "NY",
  "area" : "Manhattan"
}
{
  "user_id" : 860,
  "zipcode" : 10453,
  "latitude" : 39.12488,
  "longitude" : -74.031525,
  "city" : "New York",
  "state" : "NY",
  "area" : "Queens"
}
{
  "user_id" : 310,
  "zipcode" : 10373,
  "latitude" : 40.469856,
  "longitude" : -73.697495,
  "city" : "New York",
  "state" : "NY",
  "area" : "Staten Island"
}
{
  "user_id" : 974,
  "zipcode" : 10955,
  "latitude" : 39.681732,
  "longitude" : -73.07146,
  "city" : "New York",
  "state" : "NY",
  "area" : "Queens"
}
{
  "user_id" : 777,
  "zipcode" : 10690,
  "latitude" : 40.452045,
  "longitude" : -74.33577,
  "city" : "New York",
  "state" : "NY",
  "area" : "The Bronx"
}
{
  "user_id" : 772,
  "zipcode" : 10250,
  "latitude" : 39.837555,
  "longitude" : -73.946266,
  "city" : "New York",
  "state" : "NY",
  "area" : "The Bronx"
}
{
  "user_id" : 742,
  "zipcode" : 10153,
  "latitude" : 39.585274,
  "longitude" : -73.59646,
  "city" : "New York",
  "state" : "NY",
  "area" : "Staten Island"
}
{
  "user_id" : 133,
  "zipcode" : 10731,
  "latitude" : 40.18785,
  "longitude" : -73.117424,
  "city" : "New York",
  "state" : "NY",
  "area" : "The Bronx"
}
{
  "user_id" : 5,
  "zipcode" : 10259,
  "latitude" : 40.759686,
  "longitude" : -74.75875,
  "city" : "New York",
  "state" : "NY",
  "area" : "Brooklyn"
}
{
  "user_id" : 402,
  "zipcode" : 10276,
  "latitude" : 39.788277,
  "longitude" : -73.41589,
  "city" : "New York",
  "state" : "NY",
  "area" : "Manhattan"
}
{
  "user_id" : 319,
  "zipcode" : 10415,
  "latitude" : 40.766052,
  "longitude" : -73.21305,
  "city" : "New York",
  "state" : "NY",
  "area" : "Manhattan"
}
{
  "user_id" : 700,
  "zipcode" : 11037,
  "latitude" : 39.985695,
  "longitude" : -73.224724,
  "city" : "New York",
  "state" : "NY",
  "area" : "Staten Island"
}
{
  "user_id" : 951,
  "zipcode" : 10435,
  "latitude" : 39.21017,
  "longitude" : -74.27003,
  "city" : "New York",
  "state" : "NY",
  "area" : "Manhattan"
}
{
  "user_id" : 227,
  "zipcode" : 10324,
  "latitude" : 39.744938,
  "longitude" : -74.02225,
  "city" : "New York",
  "state" : "NY",
  "area" : "Brooklyn"
}
{
  "user_id" : 656,
  "zipcode" : 10485,
  "latitude" : 40.30151,
  "longitude" : -73.009766,
  "city" : "New York",
  "state" : "NY",
  "area" : "Manhattan"
}
{
  "user_id" : 780,
  "zipcode" : 10864,
  "latitude" : 40.202477,
  "longitude" : -73.051994,
  "city" : "New York",
  "state" : "NY",
  "area" : "Staten Island"
}
{
  "user_id" : 175,
  "zipcode" : 11094,
  "latitude" : 39.46678,
  "longitude" : -73.15138,
  "city" : "New York",
  "state" : "NY",
  "area" : "Manhattan"
}
{
  "user_id" : 928,
  "zipcode" : 10717,
  "latitude" : 40.922523,
  "longitude" : -73.71915,
  "city" : "New York",
  "state" : "NY",
  "area" : "Manhattan"
}
{
  "user_id" : 418,
  "zipcode" : 10816,
  "latitude" : 39.358646,
  "longitude" : -73.380775,
  "city" : "New York",
  "state" : "NY",
  "area" : "Brooklyn"
}
{
  "user_id" : 683,
  "zipcode" : 10134,
  "latitude" : 39.17732,
  "longitude" : -73.68453,
  "city" : "New York",
  "state" : "NY",
  "area" : "Staten Island"
}
{
  "user_id" : 301,
  "zipcode" : 10645,
  "latitude" : 39.244698,
  "longitude" : -74.12408,
  "city" : "New York",
  "state" : "NY",
  "area" : "Staten Island"
}
{
  "user_id" : 64,
  "zipcode" : 10852,
  "latitude" : 40.480164,
  "longitude" : -74.84822,
  "city" : "New York",
  "state" : "NY",
  "area" : "Manhattan"
}
{
  "user_id" : 75,
  "zipcode" : 10467,
  "latitude" : 40.66102,
  "longitude" : -73.93932,
  "city" : "New York",
  "state" : "NY",
  "area" : "Brooklyn"
}
{
  "user_id" : 4,
  "zipcode" : 10065,
  "latitude" : 40.160435,
  "longitude" : -73.504875,
  "city" : "New York",
  "state" : "NY",
  "area" : "The Bronx"
}
{
  "user_id" : 201,
  "zipcode" : 10828,
  "latitude" : 40.76295,
  "longitude" : -74.815216,
  "city" : "New York",
  "state" : "NY",
  "area" : "Queens"
}
{
  "user_id" : 592,
  "zipcode" : 10226,
  "latitude" : 40.566086,
  "longitude" : -74.312584,
  "city" : "New York",
  "state" : "NY",
  "area" : "Brooklyn"
}
{
  "user_id" : 319,
  "zipcode" : 10387,
  "latitude" : 40.317127,
  "longitude" : -74.33032,
  "city" : "New York",
  "state" : "NY",
  "area" : "Staten Island"
}
{
  "user_id" : 981,
  "zipcode" : 10645,
  "latitude" : 40.0347,
  "longitude" : -74.625854,
  "city" : "New York",
  "state" : "NY",
  "area" : "Manhattan"
}
{
  "user_id" : 185,
  "zipcode" : 10770,
  "latitude" : 40.470837,
  "longitude" : -74.292564,
  "city" : "New York",
  "state" : "NY",
  "area" : "Manhattan"
}
{
  "user_id" : 838,
  "zipcode" : 10459,
  "latitude" : 39.839027,
  "longitude" : -74.48922,
  "city" : "New York",
  "state" : "NY",
  "area" : "The Bronx"
}
{
  "user_id" : 899,
  "zipcode" : 10425,
  "latitude" : 39.71108,
  "longitude" : -73.36656,
  "city" : "New York",
  "state" : "NY",
  "area" : "The Bronx"
}
{
  "user_id" : 394,
  "zipcode" : 10142,
  "latitude" : 40.265316,
  "longitude" : -74.21223,
  "city" : "New York",
  "state" : "NY",
  "area" : "Brooklyn"
}
{
  "user_id" : 606,
  "zipcode" : 10835,
  "latitude" : 40.44708,
  "longitude" : -73.535194,
  "city" : "New York",
  "state" : "NY",
  "area" : "Queens"
}
{
  "user_id" : 313,
  "zipcode" : 10555,
  "latitude" : 40.700787,
  "longitude" : -74.79073,
  "city" : "New York",
  "state" : "NY",
  "area" : "Staten Island"
}
{
  "user_id" : 110,
  "zipcode" : 10808,
  "latitude" : 40.758984,
  "longitude" : -74.656685,
  "city" : "New York",
  "state" : "NY",
  "area" : "Queens"
}
{
  "user_id" : 634,
  "zipcode" : 10783,
  "latitude" : 40.22388,
  "longitude" : -73.36022,
  "city" : "New York",
  "state" : "NY",
  "area" : "The Bronx"
}
{
  "user_id" : 679,
  "zipcode" : 10149,
  "latitude" : 40.74196,
  "longitude" : -74.703865,
  "city" : "New York",
  "state" : "NY",
  "area" : "Brooklyn"
}
{
  "user_id" : 348,
  "zipcode" : 11085,
  "latitude" : 39.711823,
  "longitude" : -73.17096,
  "city" : "New York",
  "state" : "NY",
  "area" : "The Bronx"
}
{
  "user_id" : 631,
  "zipcode" : 10673,
  "latitude" : 39.17619,
  "longitude" : -73.989944,
  "city" : "New York",
  "state" : "NY",
  "area" : "Manhattan"
}
{
  "user_id" : 935,
  "zipcode" : 11008,
  "latitude" : 40.29626,
  "longitude" : -74.41691,
  "city" : "New York",
  "state" : "NY",
  "area" : "Staten Island"
}
{
  "user_id" : 502,
  "zipcode" : 10367,
  "latitude" : 40.595535,
  "longitude" : -73.64958,
  "city" : "New York",
  "state" : "NY",
  "area" : "Queens"
}
{
  "user_id" : 656,
  "zipcode" : 10436,
  "latitude" : 40.902874,
  "longitude" : -73.42857,
  "city" : "New York",
  "state" : "NY",
  "area" : "Queens"
}
{
  "user_id" : 967,
  "zipcode" : 10794,
  "latitude" : 39.131233,
  "longitude" : -73.66809,
  "city" : "New York",
  "state" : "NY",
  "area" : "Queens"
}
{
  "user_id" : 467,
  "zipcode" : 10467,
  "latitude" : 40.98287,
  "longitude" : -74.49725,
  "city" : "New York",
  "state" : "NY",
  "area" : "The Bronx"
}
{
  "user_id" : 346,
  "zipcode" : 10567,
  "latitude" : 40.18654,
  "longitude" : -73.08631,
  "city" : "New York",
  "state" : "NY",
  "area" : "The Bronx"
}
{
  "user_id" : 384,
  "zipcode" : 11002,
  "latitude" : 39.918297,
  "longitude" : -73.24207,
  "city" : "New York",
  "state" : "NY",
  "area" : "Queens"
}
{
  "user_id" : 645,
  "zipcode" : 10828,
  "latitude" : 40.00422,
  "longitude" : -73.67001,
  "city" : "New York",
  "state" : "NY",
  "area" : "The Bronx"
}
{
  "user_id" : 371,
  "zipcode" : 10153,
  "latitude" : 39.90378,
  "longitude" : -74.26099,
  "city" : "New York",
  "state" : "NY",
  "area" : "Queens"
}
{
  "user_id" : 923,
  "zipcode" : 10176,
  "latitude" : 40.645935,
  "longitude" : -73.68111,
  "city" : "New York",
  "state" : "NY",
  "area" : "Staten Island"
}
{
  "user_id" : 543,
  "zipcode" : 10867,
  "latitude" : 39.51676,
  "longitude" : -74.52659,
  "city" : "New York",
  "state" : "NY",
  "area" : "Queens"
}
{
  "user_id" : 608,
  "zipcode" : 11007,
  "latitude" : 40.42111,
  "longitude" : -73.28874,
  "city" : "New York",
  "state" : "NY",
  "area" : "Queens"
}
{
  "user_id" : 89,
  "zipcode" : 10090,
  "latitude" : 39.2555,
  "longitude" : -74.97486,
  "city" : "New York",
  "state" : "NY",
  "area" : "Staten Island"
}
{
  "user_id" : 401,
  "zipcode" : 10346,
  "latitude" : 40.33572,
  "longitude" : -74.50409,
  "city" : "New York",
  "state" : "NY",
  "area" : "Brooklyn"
}
{
  "user_id" : 838,
  "zipcode" : 10531,
  "latitude" : 39.20244,
  "longitude" : -74.2191,
  "city" : "New York",
  "state" : "NY",
  "area" : "Brooklyn"
}
{
  "user_id" : 894,
  "zipcode" : 10594,
  "latitude" : 40.585163,
  "longitude" : -73.822716,
  "city" : "New York",
  "state" : "NY",
  "area" : "Manhattan"
}
{
  "user_id" : 188,
  "zipcode" : 10776,
  "latitude" : 39.012264,
  "longitude" : -73.71154,
  "city" : "New York",
  "state" : "NY",
  "area" : "Brooklyn"
}
{
  "user_id" : 331,
  "zipcode" : 10409,
  "latitude" : 40.709457,
  "longitude" : -73.94701,
  "city" : "New York",
  "state" : "NY",
  "area" : "Queens"
}
{
  "user_id" : 916,
  "zipcode" : 10496,
  "latitude" : 40.362522,
  "longitude" : -74.97073,
  "city" : "New York",
  "state" : "NY",
  "area" : "Brooklyn"
}
{
  "user_id" : 311,
  "zipcode" : 10358,
  "latitude" : 39.736412,
  "longitude" : -74.5094,
  "city" : "New York",
  "state" : "NY",
  "area" : "Queens"
}
{
  "user_id" : 525,
  "zipcode" : 10096,
  "latitude" : 40.860874,
  "longitude" : -73.892136,
  "city" : "New York",
  "state" : "NY",
  "area" : "Manhattan"
}
{
  "user_id" : 138,
  "zipcode" : 10438,
  "latitude" : 39.828114,
  "longitude" : -73.570786,
  "city" : "New York",
  "state" : "NY",
  "area" : "The Bronx"
}
{
  "user_id" : 140,
  "zipcode" : 10062,
  "latitude" : 39.848305,
  "longitude" : -74.67016,
  "city" : "New York",
  "state" : "NY",
  "area" : "Queens"
}
{
  "user_id" : 600,
  "zipcode" : 10318,
  "latitude" : 40.685535,
  "longitude" : -74.477,
  "city" : "New York",
  "state" : "NY",
  "area" : "Brooklyn"
}
{
  "user_id" : 43,
  "zipcode" : 11089,
  "latitude" : 39.498,
  "longitude" : -74.905754,
  "city" : "New York",
  "state" : "NY",
  "area" : "Queens"
}
{
  "user_id" : 452,
  "zipcode" : 10939,
  "latitude" : 40.227608,
  "longitude" : -73.18358,
  "city" : "New York",
  "state" : "NY",
  "area" : "Brooklyn"
}
{
  "user_id" : 893,
  "zipcode" : 10097,
  "latitude" : 40.466652,
  "longitude" : -74.17606,
  "city" : "New York",
  "state" : "NY",
  "area" : "Queens"
}
{
  "user_id" : 448,
  "zipcode" : 10157,
  "latitude" : 40.41673,
  "longitude" : -73.72175,
  "city" : "New York",
  "state" : "NY",
  "area" : "Staten Island"
}
{
  "user_id" : 905,
  "zipcode" : 11074,
  "latitude" : 39.153267,
  "longitude" : -73.34261,
  "city" : "New York",
  "state" : "NY",
  "area" : "Staten Island"
}
{
  "user_id" : 980,
  "zipcode" : 11051,
  "latitude" : 39.27737,
  "longitude" : -74.67612,
  "city" : "New York",
  "state" : "NY",
  "area" : "The Bronx"
}
{
  "user_id" : 394,
  "zipcode" : 10558,
  "latitude" : 40.26287,
  "longitude" : -74.25355,
  "city" : "New York",
  "state" : "NY",
  "area" : "The Bronx"
}
{
  "user_id" : 985,
  "zipcode" : 10110,
  "latitude" : 39.143383,
  "longitude" : -74.49982,
  "city" : "New York",
  "state" : "NY",
  "area" : "Brooklyn"
}
{
  "user_id" : 495,
  "zipcode" : 10974,
  "latitude" : 40.836792,
  "longitude" : -74.53394,
  "city" : "New York",
  "state" : "NY",
  "area" : "Brooklyn"
}
{
  "user_id" : 102,
  "zipcode" : 10799,
  "latitude" : 40.419147,
  "longitude" : -73.24274,
  "city" : "New York",
  "state" : "NY",
  "area" : "Queens"
}
{
  "user_id" : 512,
  "zipcode" : 10949,
  "latitude" : 39.096718,
  "longitude" : -74.36239,
  "city" : "New York",
  "state" : "NY",
  "area" : "The Bronx"
}
